<!-- $Id$ -->
<!DOCTYPE HTML PUBLIC "-//W3C//DTD HTML 4.01 Transitional//EN">
<html>
<head>
  <title>Display metars</title>
  <meta http-equiv="Content-Type" content="text/html; charset=utf-8">
  <meta name="Author" content="G. Ballester">
  <meta name="GENERATOR" content="Quanta Plus">
  <meta name="robots" content="index,nofollow">
  <meta name="keywords" content="metar, speci, taf, weather reports">
  <meta name=viewport content="width=device-width, initial-scale=1">  
  <link rel="stylesheet" href="/ogimet.css">
  <link rel="stylesheet" type="text/css" href="//cdnjs.cloudflare.com/ajax/libs/cookieconsent2/3.0.3/cookieconsent.min.css" />
<script src="//cdnjs.cloudflare.com/ajax/libs/cookieconsent2/3.0.3/cookieconsent.min.js"></script>
<script>
window.addEventListener("load", function(){
window.cookieconsent.initialise({
  "palette": {
    "popup": {
      "background": "#eb6c44",
      "text": "#ffffff"
    },
    "button": {
      "background": "#f5d948"
    }
  },
  "theme": "classic",
  "position": "top",
  "content": {
    "message": "Las cookies de este sitio web se usan para personalizar el contenido y los anuncios, ofrecer funciones de redes sociales y analizar el tráfico. Ademas, compartimos el uso que haga del sitio web con nuestros partners de redes sociales, publicidad y análisis web, quienes pueden combinarla con otra información que les haya proporcionado o que hayan recopilado a partir del uso que haya hecho de sus servicios. Si continua navegando en estas páginas consideramos que acepta su uso. ",
    "dismiss": "Entendido",
    "link": "Saber más",
    "href": "/cookiespolicy.phtml"
  }
})});
</script>
</head>
<body>
<pre>
##########################################################
# Query made at 01/08/2019 16:38:32 UTC
# Time interval: from 01/01/2017 00:00  to 01/31/2017 23:59  UTC
##########################################################

##########################################################
# CYOW, Ottawa Int'L. Ont. (Canada)
# WMO index: 71628
# Latitude 45-19N. Longitude 075-40W. Altitude 116 m.
##########################################################

###################################
#  METAR/SPECI from CYOW
###################################
201701010000 METAR CYOW 010000Z 08010G18KT 1SM R32/P6000FT/D R07/P6000FT/D
                        -SN OVC009 M09/M10 A2963 RMK SN5NS3
                        /S07/ SLP042=
201701010100 METAR CYOW 010100Z 07011KT 1 1/4SM -SN OVC008 M09/M10 A2961
                        RMK SN5NS3 SLP038=
201701010200 METAR CYOW 010200Z 07009KT 1SM R32/P6000FT/D R07/P6000FT/D
                        -SN OVC005 M09/M10 A2960 RMK SN5NS3
                        /S01/ SLP033=
201701010221 SPECI CYOW 010221Z 06008KT 3SM -SN OVC004 M08/M10 A2959 RMK
                        SN1NS7 SLP031=
201701010233 SPECI CYOW 010233Z 06008KT 1 1/2SM -SN OVC004 M08/M10 A2959
                        RMK SN4NS4 SLP031=
201701010241 SPECI CYOW 010241Z 06007KT 1SM R32/P6000FT/D R07/P6000FT/D
                        -SN OVC004 M08/M09 A2959 RMK SN5NS3
                        SLP030=
201701010300 METAR CYOW 010300Z 05007KT 1SM R32/P6000FT/U R07/P6000FT/U
                        -SN OVC005 M08/M10 A2958 RMK SN5NS3
                        /S03/ SLP028=
201701010310 SPECI CYOW 010310Z 06007KT 3/4SM R32/P6000FT/D R07/P6000FT/D
                        -SN OVC005 M08/M10 A2959 RMK SN6NS2
                        SLP029=
201701010332 SPECI CYOW 010332Z 03004KT 3SM -SN OVC004 M08/M10 A2959 RMK
                        SN1NS7 SLP030=
201701010346 SPECI CYOW 010346Z 36007KT 350V060 8SM -SN OVC004 M08/M09
                        A2960 RMK NS8 SLP033=
201701010400 METAR CYOW 010400Z 03006KT 10SM -SN OVC004 M08/M09 A2960
                        RMK SF8 /S04/ SLP032=
201701010434 SPECI CYOW 010434Z 04006KT 4SM -SN BKN006 OVC013 M08/M10
                        A2959 RMK SF7SC1 SLP031=
201701010500 METAR CYOW 010500Z 05006KT 10SM BKN008 OVC013 M08/M09 A2959
                        RMK SF7SC1 INTMT -SN SLP030=
201701010509 SPECI CYOW 010509Z 06004KT 10SM BKN008 OVC013 M08/M09 A2959
                        RMK SF7SC1 SLP030=
201701010536 SPECI CYOW 010536Z 07004KT 10SM SCT004 OVC010 M07/M09 A2960
                        RMK SF4SC4 SLP032=
201701010600 METAR CYOW 010600Z 03003KT 020V160 10SM OVC007 M07/M08 A2960
                        RMK SF8 SLP032=
201701010700 METAR CYOW 010700Z 20004KT 120V220 10SM BKN007 OVC034 M05/M05
                        A2961 RMK SF7SC1 SLP037=
201701010739 SPECI CYOW 010739Z 24004KT 10SM -SN BKN007 OVC029 M02/M03
                        A2964 RMK SF5SC3 SLP047=
201701010746 SPECI CYOW 010746Z 26004KT 8SM -SN SCT007 OVC029 M03/M03
                        A2965 RMK SF4SC4 SLP049=
201701010800 METAR CYOW 010800Z 29006KT 8SM -SN SCT007 BKN029 OVC055 M04/M05
                        A2966 RMK SF3SC4SC1 SLP053=
201701010900 METAR CYOW 010900Z 26006KT 10SM -SN SCT027 OVC045 M03/M04
                        A2969 RMK SC3SC5 SLP064=
201701010947 SPECI CYOW 010947Z 29014KT 15SM SCT018 BKN038 M03/M05 A2975
                        RMK SC3SC4 PRESRR SLP083=
201701011000 METAR CYOW 011000Z 29017G23KT 15SM DRSN SCT018 BKN038 M04/M06
                        A2977 RMK SC3SC4 PRESRR SLP090=
201701011100 METAR CYOW 011100Z 27013G20KT 15SM DRSN FEW018 BKN037 M04/M07
                        A2984 RMK SC1SC6 PRESRR SLP113=
201701011200 METAR CYOW 011200Z CCA 28013G18KT 15SM DRSN SCT036 M06/M08
                        A2990 RMK SC3 PRESRR SLP135=
201701011300 METAR CYOW 011300Z CCA 28012G17KT 15SM DRSN FEW040 SCT240
                        M07/M10 A2997 RMK SC1CI2 SLP159=
201701011400 METAR CYOW 011400Z 30010KT 15SM DRSN FEW040 SCT240 M07/M11
                        A3003 RMK SC1CI3 SLP177=
201701011500 METAR CYOW 011500Z 28009KT 15SM BKN220 M07/M11 A3007 RMK
                        CI5 SLP191=
201701011600 METAR CYOW 011600Z 24009KT 15SM FEW150 BKN220 M07/M11 A3010
                        RMK AC1CI5 SLP202=
201701011700 METAR CYOW 011700Z 26012KT 15SM BKN057 BKN220 M05/M10 A3013
                        RMK SC5CI1 PRESRR SLP212=
201701011800 METAR CYOW 011800Z 31007KT 15SM BKN053 M04/M09 A3014 RMK
                        SC7 SLP214=
201701011900 METAR CYOW 011900Z 26003KT 240V310 15SM BKN053 M04/M09 A3016
                        RMK SC7 SLP221=
201701012000 METAR CYOW 012000Z 09002KT 15SM SCT033 BKN050 M03/M08 A3017
                        RMK SC3SC4 SLP225=
201701012100 METAR CYOW 012100Z 24002KT 15SM SCT035 BKN050 M02/M07 A3019
                        RMK SC3SC4 SLP230=
201701012200 METAR CYOW 012200Z 00000KT 15SM SCT050 BKN110 M04/M07 A3023
                        RMK SC3AC4 SLP244=
201701012300 METAR CYOW 012300Z 14003KT 15SM FEW050 BKN100 M06/M08 A3026
                        RMK SC2AC5 SLP255=
201701020000 METAR CYOW 020000Z 13004KT 15SM FEW035 BKN096 M05/M08 A3028
                        RMK SC1AC7 SC TR SLP262=
201701020100 METAR CYOW 020100Z 15005KT 15SM FEW095 M04/M07 A3028 RMK
                        AC2 SLP262=
201701020200 METAR CYOW 020200Z 18005KT 15SM FEW095 M04/M06 A3030 RMK
                        AC1 AC TR SLP269=
201701020300 METAR CYOW 020300Z 20003KT 15SM SKC M04/M06 A3031 RMK SLP274=
201701020400 METAR CYOW 020400Z 20002KT 15SM SKC M06/M07 A3035 RMK SLP287=
201701020500 METAR CYOW 020500Z 17005KT 10SM R32/5500VP6000FT/U SKC M06/M06
                        A3035 RMK SLP288=
201701020600 METAR CYOW 020600Z 18005KT 10SM SKC M06/M06 A3036 RMK SLP289=
201701020700 METAR CYOW 020700Z 22002KT 10SM R32/5500VP6000FT/U R07/4000VP6000FT/D
                        SCT220 M09/M10 A3038 RMK CI3 SLP295=
201701020800 METAR CYOW 020800Z 23003KT 10SM SCT200 M07/M07 A3040 RMK
                        CI4 FROIN SLP303=
201701020900 METAR CYOW 020900Z 00000KT 1/4SM R32/2800FT/N R07/1800FT/N
                        FZFG SKC M10/M11 A3042 RMK FG6 FROIN
                        SLP311=
201701020938 SPECI CYOW 020938Z VRB02KT 1SM R32/2800FT/U R07/2400V5500FT/U
                        BR BKN220 M09/M10 A3043 RMK FG2CI3
                        SLP313=
201701021000 METAR CYOW 021000Z 00000KT 1 1/2SM BR SCT190 M09/M10 A3042
                        RMK CI3 SLP312=
201701021033 SPECI CYOW 021033Z 00000KT 5SM BR SCT200 M09/M10 A3042 RMK
                        CI4 FROIN SLP312=
201701021100 METAR CYOW 021100Z 07003KT 5SM BR FEW180 BKN210 M10/M11 A3043
                        RMK AC1CI4 FROIN SLP314=
201701021200 METAR CYOW 021200Z 04004KT 6SM BR SCT140 BKN220 M09/M10 A3044
                        RMK AC3CI3 FROIN SLP318=
201701021300 METAR CYOW 021300Z 05007KT 10SM BKN170 M10/M11 A3044 RMK
                        AC7 SLP316=
201701021400 METAR CYOW 021400Z 06006KT 10SM SCT160 BKN220 M10/M11 A3046
                        RMK AC3CI3 SLP324=
201701021500 METAR CYOW 021500Z 05005KT 15SM SCT170 M07/M08 A3048 RMK
                        AC3 SLP330=
201701021600 METAR CYOW 021600Z 03005KT 15SM FEW170 M05/M06 A3047 RMK
                        AC1 SLP327=
201701021700 METAR CYOW 021700Z 03005KT 15SM FEW170 M03/M06 A3045 RMK
                        AC1 AC TR SLP321=
201701021800 METAR CYOW 021800Z 03010KT 15SM FEW170 M02/M05 A3043 RMK
                        AC1 AC TR SLP312=
201701021900 METAR CYOW 021900Z 05007KT 15SM FEW180 M01/M04 A3041 RMK
                        AC1 AC TR SLP306=
201701022000 METAR CYOW 022000Z 05009KT 15SM FEW170 M01/M04 A3041 RMK
                        AC1 AC TR SLP305=
201701022100 METAR CYOW 022100Z 06008KT 15SM FEW170 M01/M05 A3041 RMK
                        AC1 AC TR SLP306=
201701022200 METAR CYOW 022200Z 06009KT 15SM FEW170 M02/M05 A3039 RMK
                        AC1 AC TR PRESFR SLP299=
201701022300 METAR CYOW 022300Z 07010KT 15SM FEW170 M03/M05 A3036 RMK
                        AC1 AC TR SLP292=
201701030000 METAR CYOW 030000Z 06011KT 15SM SKC M04/M06 A3035 RMK SLP289=
201701030100 METAR CYOW 030100Z 07011KT 15SM SKC M04/M06 A3034 RMK SLP283=
201701030200 METAR CYOW 030200Z 06011KT 15SM SCT065 M04/M06 A3033 RMK
                        SC4 SLP280=
201701030300 METAR CYOW 030300Z 07014KT 15SM OVC062 M04/M06 A3028 RMK
                        SC8 SLP263=
201701030400 METAR CYOW 030400Z 06013KT 15SM BKN052 OVC062 M04/M06 A3028
                        RMK SC6SC2 SLP261=
201701030500 METAR CYOW 030500Z 07011KT 15SM OVC058 M04/M06 A3025 RMK
                        SC8 SLP252=
201701030600 METAR CYOW 030600Z 07006KT 15SM OVC048 M03/M06 A3024 RMK
                        SC8 SLP249=
201701030700 METAR CYOW 030700Z 07008KT 15SM OVC049 M03/M06 A3022 RMK
                        SC8 SLP240=
201701030800 METAR CYOW 030800Z 09014KT 15SM OVC025 M03/M06 A3020 RMK
                        SC8 SLP234=
201701030900 METAR CYOW 030900Z 07011KT 15SM OVC022 M03/M06 A3016 RMK
                        SC8 SLP220=
201701030950 SPECI CYOW 030950Z 07013KT 4SM -SN OVC021 M03/M05 A3013 RMK
                        SC8 SLP211=
201701031000 METAR CYOW 031000Z 07011G16KT 4SM -SN BR OVC021 M03/M05 A3013
                        RMK SC8 VRY LGT SN SLP212=
201701031026 SPECI CYOW 031026Z 07011KT 3SM -FZRA BR OVC021 M03/M04 A3011
                        RMK SC8 PRESFR SLP204=
201701031100 METAR CYOW 031100Z 06011KT 1 3/4SM -SN BR OVC019 M03/M04
                        A3010 RMK SN2SC6 PRESFR SLP201=
201701031142 SPECI CYOW 031142Z 08011KT 3SM -PL OVC006 M03/M04 A3007 RMK
                        SC8 PRESFR SLP191=
201701031200 METAR CYOW 031200Z 08013KT 3SM -PLSN OVC006 M03/M04 A3006
                        RMK SC8 PRESFR SLP186=
201701031227 SPECI CYOW 031227Z 08013KT 3SM -PLSN BKN005 OVC015 M03/M04
                        A3004 RMK SF5NS3 SLP181=
201701031300 METAR CYOW 031300Z 08013G18KT 3SM -PLSN BKN005 OVC015 M02/M03
                        A3002 RMK SF6NS2 PRESFR SLP174=
201701031324 SPECI CYOW 031324Z 09015G21KT 3SM -FZRA BKN004 OVC020 M02/M03
                        A3001 RMK SF5NS3 SLP171=
201701031400 METAR CYOW 031400Z 09015KT 3SM -FZRA BKN004 OVC015 M02/M03
                        A2999 RMK SF5NS3 PRESFR SLP163=
201701031500 METAR CYOW 031500Z 08009KT 3SM -FZRA BKN004 OVC015 M02/M02
                        A2999 RMK SF5NS3 SLP162=
201701031600 METAR CYOW 031600Z 08010KT 3SM -FZRA OVC004 M01/M01 A2995
                        RMK SF8 SLP148=
201701031700 METAR CYOW 031700Z 08011KT 4SM -FZRA OVC004 M01/M01 A2989
                        RMK SF8 PRESFR SLP129=
201701031800 METAR CYOW 031800Z 06010KT 3SM -FZRA OVC004 M01/M01 A2985
                        RMK SF8 SLP115=
201701031900 METAR CYOW 031900Z 07011G16KT 3SM -FZRA OVC004 M01/M01 A2982
                        RMK SF8 CIG VRB 3-5 SLP104=
201701032000 METAR CYOW 032000Z 07013KT 3SM -FZRA OVC004 M00/M01 A2979
                        RMK SF8 SLP095=
201701032100 METAR CYOW 032100Z 07011KT 3SM -FZRA OVC004 M00/M01 A2976
                        RMK SF8 SLP084=
201701032200 METAR CYOW 032200Z 08009G17KT 6SM -FZRA OVC004 M00/M00 A2972
                        RMK SF8 CIG VRB 3-5 SLP073=
201701032242 SPECI CYOW 032242Z 08011KT 8SM -RA OVC006 00/M00 A2971 RMK
                        SF8 CIG VRB 4-7 SLP067=
201701032300 METAR CYOW 032300Z 08012KT 8SM -RA OVC005 00/M00 A2970 RMK
                        SF8 SLP064=
201701032317 SPECI CYOW 032317Z 08011KT 5SM -RA BR OVC005 00/M00 A2969
                        RMK NS8 CIG RAG SLP061=
201701040000 METAR CYOW 040000Z CCA 08012G19KT 5SM -RA BR OVC005 00/M00
                        A2966 RMK NS8 SLP050=
201701040100 METAR CYOW 040100Z CCA 07013KT 5SM -RA BR OVC005 00/M00 A2962
                        RMK NS8 SLP036=
201701040200 METAR CYOW 040200Z 08012KT 5SM -RA BR FEW003 OVC005 00/M00
                        A2958 RMK SF2NS6 SLP023=
201701040300 METAR CYOW 040300Z CCA 07011KT 4SM -RASN BR OVC005 00/M00
                        A2954 RMK NS8 SLP011=
201701040315 SPECI CYOW 040315Z 08009G17KT 4SM -SN BR OVC005 00/M00 A2953
                        RMK NS8 SLP007=
201701040400 METAR CYOW 040400Z 07010KT 4SM -SN BR OVC005 00/M00 A2949
                        RMK NS8 CIG VRB 3-7 PRESFR SLP994=
201701040440 SPECI CYOW 040440Z 07011KT 3SM -SN BR OVC003 00/M00 A2946
                        RMK NS8 SLP984=
201701040500 METAR CYOW 040500Z 08009KT 2SM -SN BR OVC003 00/M00 A2946
                        RMK NS8 /S01/ SLP981=
201701040521 SPECI CYOW 040521Z 09009KT 1SM R07/P6000FT/D -SN BR OVC003
                        00/M00 A2945 RMK NS8 SLP978=
201701040600 METAR CYOW 040600Z 09006KT 1SM R07/P6000FT/U -SN BR OVC003
                        00/M00 A2943 RMK NS8 /S03/ SLP973=
201701040623 SPECI CYOW 040623Z 08007KT 1 1/2SM -SN BR OVC004 00/M00 A2942
                        RMK NS8 CIG VRB 3-5 PRESFR SLP968=
201701040639 SPECI CYOW 040639Z 09008KT 4SM -SN BR OVC002 00/M00 A2941
                        RMK SF8 SLP966=
201701040700 METAR CYOW 040700Z 09007KT 5SM -SN BR OVC003 00/M00 A2941
                        RMK SF8 /S01/ SLP966=
201701040800 METAR CYOW 040800Z 10008KT 4SM -SN BR OVC002 00/M00 A2938
                        RMK SF8 SLP955=
201701040900 METAR CYOW 040900Z 10005KT 4SM -SN BR OVC002 00/M00 A2936
                        RMK SF8 SLP947=
201701040927 SPECI CYOW 040927Z 09003KT 4SM -FZDZ BR OVC002 M00/M00 A2935
                        RMK ST8 SLP944=
201701041000 METAR CYOW 041000Z 08005KT 3SM -FZDZ BR OVC003 M00/M00 A2933
                        RMK ST8 SLP938=
201701041019 SPECI CYOW 041019Z 07005KT 1 1/2SM -FZRA BR OVC002 M00/M00
                        A2932 RMK ST8 SLP935=
201701041100 METAR CYOW 041100Z 08002KT 1 1/2SM -FZDZ BR OVC002 M00/M00
                        A2933 RMK ST8 FZDZ VRY LGT SLP937=
201701041136 SPECI CYOW 041136Z 08004KT 2SM -SG OVC003 M00/M00 A2931 RMK
                        FG2SF6 SLP930=
201701041200 METAR CYOW 041200Z CCA 08005KT 4SM -SG OVC003 M00/M01 A2930
                        RMK SF8 SLP928=
201701041226 SPECI CYOW 041226Z CCA 08004KT 1 1/2SM -SN OVC002 M00/M01
                        A2929 RMK FG3SF5 SLP925=
201701041300 METAR CYOW 041300Z 11005KT 2SM -SN OVC005 M00/M01 A2928 RMK
                        SN2SF6 CIG VRB 4-6 SLP922=
201701041338 SPECI CYOW 041338Z 00000KT 1SM R07/5000VP6000FT/D -SN OVC005
                        M00/M01 A2928 RMK SN6ST2 SLP921=
201701041400 METAR CYOW 041400Z 00000KT 1SM R07/6000FT/U -SN OVC006 M00/M00
                        A2928 RMK SN5NS3 /S01/ SLP921=
201701041500 METAR CYOW 041500Z 21006KT 3SM -SN OVC005 00/00 A2928 RMK
                        NS8 /S02/ SLP920=
201701041520 SPECI CYOW 041520Z 22009KT 10SM OVC012 01/00 A2928 RMK SC8
                        SLP921=
201701041600 METAR CYOW 041600Z 23013G20KT 15SM SCT015 SCT055 BKN120 01/M00
                        A2927 RMK SC3SC1AC1 PRESFR SLP917=
201701041700 METAR CYOW 041700Z 23014G20KT 15SM FEW015 FEW055 FEW090 BKN130
                        02/M00 A2925 RMK SC1SC1AC1AC3 SC
                        TR SLP912=
201701041800 METAR CYOW 041800Z 22015G21KT 15SM FEW020 SCT051 BKN130 02/M00
                        A2925 RMK SC1SC2AC3 /S03/ SLP911=
201701041900 METAR CYOW 041900Z 23014G22KT 15SM FEW020 BKN060 03/M01 A2923
                        RMK SC1SC4 SLP905=
201701041928 SPECI CYOW 041928Z 22013G20KT 15SM SCT027 BKN060 02/M01 A2924
                        RMK SC4SC2 SLP906=
201701041949 SPECI CYOW 041949Z 22017G26KT 1 1/2SM -SN OVC007 02/M01 A2925
                        RMK SN5SF3 SLP910=
201701041956 SPECI CYOW 041956Z CCA 27020G28KT 200V280 1/2SM R32/2000FT/N
                        R07/2000FT/N SN VV006 00/M01 A2926
                        RMK SN8 WSHFT 1949 PRESRR SLP913=
201701042000 METAR CYOW 042000Z 26016G27KT 3/8SM R32/1600V2400FT/U R07/2000FT/U
                        +SN VV005 00/M01 A2926 RMK SN8 PRESRR
                        SLP914=
201701042013 SPECI CYOW 042013Z 26014G21KT 1SM R32/2600VP6000FT/N R07/2600VP6000FT/N
                        -SN OVC008 M00/M01 A2926 RMK SN4SF4
                        SLP916=
201701042100 METAR CYOW 042100Z 25014KT 6SM R32/4500VP6000FT/U R07/5500VP6000FT/U
                        -SN BKN009 BKN025 M00/M01 A2929 RMK
                        SF5SC2 SLP923=
201701042136 SPECI CYOW 042136Z 26021G30KT 3/4SM R32/3500VP6000FT/D R07/3000VP6000FT/D
                        SN VV005 M02/M02 A2932 RMK SN8 PRESRR
                        SLP934=
201701042153 SPECI CYOW 042153Z 25023G30KT 4SM -SN BKN008 BKN045 M02/M03
                        A2933 RMK SF5SC2 SLP940=
201701042200 METAR CYOW 042200Z 26018G26KT 3SM -SN BKN009 OVC032 M02/M03
                        A2934 RMK SF5SC3 SLP941=
201701042227 SPECI CYOW 042227Z 25024G31KT 4SM -SN DRSN FEW010 OVC027
                        M02/M05 A2936 RMK SF2SC6 PRESRR SLP948=
201701042300 METAR CYOW 042300Z CCA 24018G27KT 10SM -SN BKN040 M03/M07
                        A2938 RMK SC7 /S02/ SLP957=
201701042310 SPECI CYOW 042310Z CCA 23017G25KT 15SM DRSN FEW020 SCT088
                        M03/M08 A2938 RMK SC1AC3 SC TR SLP957=
201701050000 METAR CYOW 050000Z 23015G26KT 15SM DRSN FEW034 SCT070 M04/M09
                        A2940 RMK SC2AC1 SLP963=
201701050100 METAR CYOW 050100Z 22024G34KT 15SM DRSN BKN030 BKN090 M05/M09
                        A2941 RMK SC5AC1 SLP968=
201701050200 METAR CYOW 050200Z 23020G28KT 15SM DRSN FEW030 BKN080 BKN110
                        M06/M10 A2943 RMK SC1AC6AC1 SC TR
                        SLP973=
201701050300 METAR CYOW 050300Z 23020G29KT 15SM DRSN FEW030 BKN100 M06/M11
                        A2945 RMK SC1AC6 SLP979=
201701050400 METAR CYOW 050400Z CCA 22020G29KT 15SM DRSN FEW030 OVC110
                        M07/M11 A2945 RMK SC1AC8 SC TR SLP981=
201701050500 METAR CYOW 050500Z 21018G29KT 15SM DRSN FEW030 BKN110 M07/M12
                        A2945 RMK SC1AC7 SC TR SLP979=
201701050600 METAR CYOW 050600Z 23021G31KT 15SM DRSN FEW030 FEW070 OVC110
                        M08/M12 A2945 RMK SC1AC2AC6 SC TR
                        SLP981=
201701050700 METAR CYOW 050700Z 23020G29KT 15SM DRSN FEW060 BKN120 M08/M12
                        A2946 RMK SC1AC6 SLP985=
201701050800 METAR CYOW 050800Z 23020G29KT 15SM DRSN FEW040 SCT060 BKN160
                        M08/M13 A2948 RMK SC1SC4AC3 SC TR
                        SLP990=
201701050824 SPECI CYOW 050824Z 23018G28KT 15SM -SN DRSN OVC060 M08/M13
                        A2949 RMK SC8 SLP995=
201701050900 METAR CYOW 050900Z 25017G25KT 8SM -SN DRSN OVC024 M08/M12
                        A2952 RMK SC8 VIS N 3 SN SLP003=
201701050924 SPECI CYOW 050924Z 27012KT 1/2SM R32/6000FT/D R07/5000VP6000FT/D
                        SHSN VV002 M09/M10 A2954 RMK SN8
                        SLP011=
201701050938 SPECI CYOW 050938Z 28015G21KT 3/4SM R32/3000V4500FT/D R07/4000FT/D
                        -SHSN VV003 M09/M11 A2955 RMK SN8
                        PRESRR SLP016=
201701051000 METAR CYOW 051000Z 27015G22KT 2SM R32/4000VP6000FT/U R07/4000VP6000FT/U
                        -SHSN DRSN OVC017 M10/M12 A2957 RMK
                        SN1SC7 SLP021=
201701051013 SPECI CYOW 051013Z 27015G22KT 3SM -SHSN DRSN OVC020 M10/M13
                        A2958 RMK SC8 SLP024=
201701051100 METAR CYOW 051100Z 30012KT 15SM SCT030 M11/M15 A2962 RMK
                        SC3 SLP038=
201701051200 METAR CYOW 051200Z 28007KT 15SM FEW035 M13/M16 A2965 RMK
                        SC2 SLP051=
201701051300 METAR CYOW 051300Z 29005KT 15SM FEW050 M13/M16 A2969 RMK
                        SC1 SC TR SLP063=
201701051400 METAR CYOW 051400Z 30004KT 15SM FEW050 M14/M17 A2971 RMK
                        SC1 SC TR SLP070=
201701051500 METAR CYOW 051500Z 25008KT 15SM FEW050 M11/M15 A2973 RMK
                        SC1 SC TR SLP077=
201701051600 METAR CYOW 051600Z 25014KT 15SM FEW050 M09/M15 A2973 RMK
                        SC1 SC TR SLP078=
201701051700 METAR CYOW 051700Z 24014G20KT 15SM SCT060 M08/M14 A2973 RMK
                        SC4 SLP076=
201701051800 METAR CYOW 051800Z 25017G22KT 15SM BKN050 M08/M13 A2973 RMK
                        SC6 SLP076=
201701051900 METAR CYOW 051900Z 25010KT 15SM BKN036 M07/M12 A2973 RMK
                        SC7 SLP076=
201701052000 METAR CYOW 052000Z 24007KT 10SM OVC036 M06/M11 A2973 RMK
                        SC8 SLP078=
201701052100 METAR CYOW 052100Z 22010KT 15SM BKN049 M06/M11 A2974 RMK
                        SC6 SLP080=
201701052200 METAR CYOW 052200Z 25009G15KT 10SM -SN SCT035 OVC047 M06/M11
                        A2975 RMK SC4SC4 SLP083=
201701052300 METAR CYOW 052300Z 23010KT 10SM -SN OVC056 M06/M12 A2976
                        RMK SC8 SLP086=
201701052338 SPECI CYOW 052338Z 22011KT 15SM BKN058 M06/M12 A2976 RMK
                        SC7 PCPN N SLP088=
201701060000 METAR CYOW 060000Z CCA 22010KT 15SM BKN055 M07/M12 A2977
                        RMK SC7 PCPN N SLP091=
201701060100 METAR CYOW 060100Z 22012G19KT 15SM BKN056 M07/M13 A2979 RMK
                        SC6 SLP098=
201701060200 METAR CYOW 060200Z 25009KT 15SM FEW050 SCT065 BKN120 M09/M14
                        A2981 RMK SC1SC2AC4 SLP107=
201701060300 METAR CYOW 060300Z 25008KT 15SM OVC120 M09/M14 A2982 RMK
                        AC8 MOON VISBL SLP109=
201701060400 METAR CYOW 060400Z 24008KT 15SM FEW060 FEW090 SCT110 M09/M14
                        A2983 RMK SC1AC2AC2 SC TR SLP112=
201701060500 METAR CYOW 060500Z 24006KT 15SM FEW050 SCT110 M10/M14 A2985
                        RMK SC1AC4 SC TR SLP118=
201701060600 METAR CYOW 060600Z CCA 23005KT 15SM SCT064 M11/M14 A2986
                        RMK SC4 SLP120=
201701060700 METAR CYOW 060700Z 24005KT 15SM SCT070 M12/M15 A2987 RMK
                        AC3 SLP126=
201701060800 METAR CYOW 060800Z 24006KT 15SM SCT068 M12/M15 A2989 RMK
                        AC3 SLP132=
201701060900 METAR CYOW 060900Z 27002KT 15SM FEW070 M15/M17 A2990 RMK
                        AC1 SLP135=
201701061000 METAR CYOW 061000Z 16004KT 15SM FEW060 M15/M16 A2991 RMK
                        SC1 FROST SLP139=
201701061100 METAR CYOW 061100Z CCA 21005KT 15SM FEW070 M15/M17 A2993
                        RMK AC1 FROIN SLP146=
201701061200 METAR CYOW 061200Z 20005KT 15SM FEW070 M15/M17 A2996 RMK
                        AC1 AC TR SLP156=
201701061300 METAR CYOW 061300Z 21005KT 15SM FEW070 M16/M17 A2998 RMK
                        AC1 AC TR SLP162=
201701061400 METAR CYOW 061400Z 26006KT 15SM FEW060 M16/M18 A3000 RMK
                        SC1 SC TR SLP171=
201701061500 METAR CYOW 061500Z 27003KT 15SM FEW060 M14/M16 A3003 RMK
                        SC1 SC TR SLP180=
201701061600 METAR CYOW 061600Z 22003KT 15SM FEW012 FEW055 M13/M16 A3005
                        RMK CF1SC1 CF TR SLP186=
201701061700 METAR CYOW 061700Z 18005KT 140V200 15SM FEW020 FEW055 M11/M15
                        A3004 RMK CU1SC1 CU TR SLP183=
201701061800 METAR CYOW 061800Z 24004KT 170V260 15SM FEW020 FEW055 M10/M15
                        A3005 RMK CU1SC1 CU TR SC TR SLP186=
201701061900 METAR CYOW 061900Z 30004KT 15SM FEW020 FEW055 M09/M14 A3007
                        RMK SC1SC1 SC TR SC TR SLP193=
201701062000 METAR CYOW 062000Z 32002KT 15SM FEW025 FEW060 M09/M14 A3007
                        RMK SC1SC2 SC TR SLP193=
201701062100 METAR CYOW 062100Z 30002KT 15SM FEW025 FEW060 M09/M14 A3009
                        RMK SC1SC1 SC TR SLP200=
201701062200 METAR CYOW 062200Z 04003KT 15SM FEW060 M11/M15 A3011 RMK
                        SC1 SLP206=
201701062300 METAR CYOW 062300Z 07003KT 15SM FEW065 M12/M15 A3013 RMK
                        SC1 SLP213=
201701070000 METAR CYOW 070000Z 12005KT 15SM FEW065 M12/M15 A3015 RMK
                        SC2 SLP220=
201701070100 METAR CYOW 070100Z VRB02KT 15SM FEW065 M13/M14 A3017 RMK
                        SC1 SLP228=
201701070200 METAR CYOW 070200Z 16004KT 15SM FEW060 M15/M17 A3018 RMK
                        SC1 SLP234=
201701070300 METAR CYOW 070300Z 18003KT 15SM SKC M15/M16 A3019 RMK SLP234=
201701070400 METAR CYOW 070400Z 01002KT 15SM SKC M14/M16 A3021 RMK SLP242=
201701070500 METAR CYOW 070500Z 00000KT 15SM SKC M16/M17 A3022 RMK SLP246=
201701070600 METAR CYOW 070600Z 24002KT 10SM SKC M18/M20 A3023 RMK SLP249=
201701070700 METAR CYOW 070700Z 31003KT 15SM SKC M16/M18 A3027 RMK SLP260=
201701070800 METAR CYOW 070800Z 26005KT 250V310 15SM SKC M18/M21 A3028
                        RMK FROIN- SLP267=
201701070900 METAR CYOW 070900Z 25005KT 15SM SKC M18/M20 A3031 RMK FROIN
                        SLP276=
201701071000 METAR CYOW 071000Z 30003KT 15SM SKC M18/M20 A3031 RMK FROIN
                        SLP277=
201701071100 METAR CYOW 071100Z 30002KT 15SM SKC M18/M21 A3032 RMK FROIN
                        SLP280=
201701071200 METAR CYOW 071200Z CCA 31006KT 15SM SKC M19/M21 A3033 RMK
                        FROIN SLP285=
201701071300 METAR CYOW 071300Z 28002KT 15SM SKC M20/M23 A3036 RMK FROIN
                        SLP292=
201701071400 METAR CYOW 071400Z 32003KT 15SM SKC M18/M20 A3036 RMK SLP293=
201701071500 METAR CYOW 071500Z 00000KT 15SM FEW170 FEW240 M17/M19 A3038
                        RMK AC1CI1 AC TR CI TR SLP299=
201701071600 METAR CYOW 071600Z 01002KT 15SM FEW170 FEW240 M14/M16 A3037
                        RMK AC1CI1 AC TR SLP295=
201701071700 METAR CYOW 071700Z VRB02KT 15SM SCT061 SCT170 BKN220 M14/M15
                        A3035 RMK SC3AC1CI1 SLP289=
201701071800 METAR CYOW 071800Z 00000KT 15SM FEW060 FEW170 SCT220 M13/M15
                        A3033 RMK SC1AC1CI1 SLP283=
201701071900 METAR CYOW 071900Z 02004KT 15SM FEW060 FEW170 SCT220 M11/M17
                        A3030 RMK SC1AC1CI2 SLP272=
201701072000 METAR CYOW 072000Z 03005KT 15SM FEW060 FEW170 FEW220 M12/M17
                        A3028 RMK SC1AC1CI2 SC TR AC TR SLP267=
201701072100 METAR CYOW 072100Z 06005KT 15SM FEW220 M12/M17 A3027 RMK
                        CI2 SLP261=
201701072200 METAR CYOW 072200Z 08003KT 15SM FEW100 FEW240 M14/M18 A3027
                        RMK AC1CI2 AC TR SLP262=
201701072300 METAR CYOW 072300Z 10004KT 15SM FEW100 FEW240 M15/M19 A3027
                        RMK AC1CI2 AC TR SLP262=
201701080000 METAR CYOW 080000Z 09003KT 15SM FEW220 M16/M19 A3026 RMK
                        CI2 SLP261=
201701080100 METAR CYOW 080100Z 06004KT 15SM FEW080 FEW220 M16/M19 A3025
                        RMK AC1CI2 AC TR SLP257=
201701080200 METAR CYOW 080200Z 06003KT 15SM FEW080 FEW220 M18/M20 A3023
                        RMK AC1CI1 AC TR SLP251=
201701080300 METAR CYOW 080300Z 05005KT 15SM FEW080 FEW220 M18/M20 A3021
                        RMK AC1CI1 AC TR SLP243=
201701080400 METAR CYOW 080400Z 04007KT 15SM FEW080 FEW220 M19/M21 A3019
                        RMK AC1CI1 AC TR SLP237=
201701080500 METAR CYOW 080500Z 06007KT 15SM SCT070 M18/M20 A3016 RMK
                        AC4 SLP227=
201701080600 METAR CYOW 080600Z 06005KT 15SM BKN080 M18/M20 A3016 RMK
                        AC7 SLP224=
201701080700 METAR CYOW 080700Z 04005KT 15SM OVC085 M18/M20 A3017 RMK
                        AC8 SLP228=
201701080800 METAR CYOW 080800Z 04008KT 15SM FEW060 OVC090 M18/M20 A3017
                        RMK SC1AC7 SLP228=
201701080900 METAR CYOW 080900Z 04008KT 15SM FEW065 OVC090 M18/M20 A3016
                        RMK SC2AC6 SLP225=
201701081000 METAR CYOW 081000Z 04009KT 15SM BKN063 OVC090 M17/M20 A3015
                        RMK SC5AC3 SLP223=
201701081100 METAR CYOW 081100Z 04006KT 15SM SCT045 BKN075 OVC095 M17/M20
                        A3017 RMK SC4AC3AC1 SLP228=
201701081130 SPECI CYOW 081130Z 05008KT 10SM -SN OVC028 M17/M19 A3016
                        RMK SC8 SLP227=
201701081200 METAR CYOW 081200Z 03008KT 10SM -SN OVC036 M16/M19 A3018
                        RMK SC8 SLP231=
201701081300 METAR CYOW 081300Z 03006KT 10SM -SN BKN027 OVC044 M15/M18
                        A3019 RMK SC6SC2 VRY LGT SN SLP235=
201701081315 SPECI CYOW 081315Z 01006KT 10SM BKN027 OVC043 M15/M18 A3019
                        RMK SC6SC2 SLP237=
201701081342 SPECI CYOW 081342Z 01007KT 10SM -SN BKN021 OVC036 M15/M18
                        A3020 RMK SC5SC3 SLP240=
201701081400 METAR CYOW 081400Z 01005KT 8SM -SN BKN017 OVC029 M15/M18
                        A3021 RMK SC5SC3 SLP243=
201701081442 SPECI CYOW 081442Z 36006KT 2SM -SN OVC012 M14/M17 A3024 RMK
                        SN2SC6 SLP251=
201701081500 METAR CYOW 081500Z 36007KT 2SM -SN OVC014 M14/M17 A3024 RMK
                        SN2SC6 SLP253=
201701081542 SPECI CYOW 081542Z 35007KT 1 1/2SM -SN VV005 M14/M16 A3026
                        RMK SN8 SLP258=
201701081600 METAR CYOW 081600Z 34010KT 1 1/2SM R32/5000VP6000FT/D R07/5500VP6000FT/U
                        -SN OVC008 M13/M16 A3026 RMK SN7SC1
                        SLP260=
201701081613 SPECI CYOW 081613Z 33010KT 3SM -SN BKN011 BKN024 M13/M16
                        A3026 RMK SC5SC2 SLP260=
201701081638 SPECI CYOW 081638Z 33009KT 10SM FEW021 M13/M17 A3026 RMK
                        SC2 SLP260=
201701081700 METAR CYOW 081700Z 33010KT 15SM FEW025 FEW250 M13/M17 A3026
                        RMK SC1CI2 SC TR SLP260=
201701081753 SPECI CYOW 081753Z 33013KT 6SM -SN BKN018 BKN040 M12/M17
                        A3027 RMK SC5SC2 SLP263=
201701081800 METAR CYOW 081800Z CCA 33011KT 10SM -SN BKN022 BKN040 M13/M16
                        A3027 RMK SC5SC2 SLP263=
201701081900 METAR CYOW 081900Z 33014G19KT 15SM SCT021 BKN230 M13/M18
                        A3031 RMK SC4CI2 SLP275=
201701082000 METAR CYOW 082000Z 32015KT 15SM SCT020 SCT230 M13/M19 A3035
                        RMK SC3CI1 PRESRR SLP289=
201701082100 METAR CYOW 082100Z 32011KT 15SM FEW020 FEW150 M14/M19 A3037
                        RMK SC1AC1 SC TR AC TR SLP298=
201701082200 METAR CYOW 082200Z 29012KT 15SM FEW025 FEW230 M14/M18 A3041
                        RMK SC1CI1 SC TR CI TR SLP309=
201701082300 METAR CYOW 082300Z 29012KT 15SM FEW025 M15/M21 A3044 RMK
                        SC1 SC TR SLP320=
201701090000 METAR CYOW 090000Z 29013KT 15SM SKC M16/M21 A3047 RMK SLP331=
201701090100 METAR CYOW 090100Z 28009KT 15SM SKC M17/M22 A3049 RMK SLP339=
201701090200 METAR CYOW 090200Z 28007KT 15SM SKC M18/M22 A3052 RMK SLP347=
201701090300 METAR CYOW 090300Z 25006KT 15SM SKC M20/M23 A3053 RMK SLP352=
201701090400 METAR CYOW 090400Z 24007KT 15SM SKC M20/M23 A3053 RMK SLP353=
201701090500 METAR CYOW 090500Z 24006KT 15SM SKC M21/M23 A3054 RMK SLP354=
201701090600 METAR CYOW 090600Z 21006KT 15SM SKC M21/M23 A3054 RMK SLP354=
201701090700 METAR CYOW 090700Z 21004KT 15SM SKC M21/M23 A3055 RMK FROIN
                        SLP357=
201701090800 METAR CYOW 090800Z 21004KT 15SM SKC M22/M25 A3056 RMK FROIN
                        SLP362=
201701090900 METAR CYOW 090900Z 18004KT 15SM SCT170 M24/M26 A3056 RMK
                        AC3 FROIN SLP362=
201701091000 METAR CYOW 091000Z 16005KT 15SM SCT160 BKN190 BKN220 M24/M26
                        A3054 RMK AC4AS1CI1 FROIN SLP356=
201701091100 METAR CYOW 091100Z 19005KT 15SM SCT040 BKN160 BKN230 M21/M23
                        A3054 RMK SC3AC2CI2 SLP356=
201701091200 METAR CYOW 091200Z 17003KT 15SM BKN040 M20/M23 A3054 RMK
                        SC7 SLP356=
201701091300 METAR CYOW 091300Z 14008KT 15SM BKN038 M19/M21 A3052 RMK
                        SC7 SLP350=
201701091400 METAR CYOW 091400Z 17007KT 080V180 15SM BKN032 OVC044 M17/M20
                        A3053 RMK SC5SC3 PRESRR SLP350=
201701091500 METAR CYOW 091500Z 14007KT 15SM OVC041 M16/M19 A3049 RMK
                        SC8 SLP339=
201701091600 METAR CYOW 091600Z 13007KT 15SM BKN032 OVC050 M14/M18 A3047
                        RMK SC5SC3 SLP331=
201701091654 SPECI CYOW 091654Z 14007KT 10SM -SN SCT007 OVC020 M12/M16
                        A3043 RMK SF3SC5 SLP316=
201701091700 METAR CYOW 091700Z 14008KT 10SM -SN SCT007 OVC020 M12/M16
                        A3042 RMK SF3SC5 PRESFR SLP314=
201701091717 SPECI CYOW 091717Z 13007KT 15SM FEW010 SCT030 OVC071 M12/M16
                        A3041 RMK SF1SC3AC4 SLP309=
201701091800 METAR CYOW 091800Z 14005KT 10SM FEW010 OVC027 M11/M15 A3039
                        RMK SF1SC7 SLP303=
201701091839 SPECI CYOW 091839Z 16010KT 8SM -SN BKN016 OVC024 M09/M14
                        A3036 RMK SC5SC3 SLP295=
201701091900 METAR CYOW 091900Z 17013KT 10SM -SN BKN019 OVC028 M08/M13
                        A3035 RMK SC5SC3 SLP290=
201701091929 SPECI CYOW 091929Z 18008KT 10SM OVC033 M07/M13 A3036 RMK
                        SC8 SLP291=
201701092000 METAR CYOW 092000Z 19009G18KT 15SM BKN031 OVC044 M06/M13
                        A3036 RMK SC6SC2 SLP291=
201701092100 METAR CYOW 092100Z 20008KT 15SM FEW060 SCT073 M07/M13 A3035
                        RMK SC2AC2 SLP290=
201701092200 METAR CYOW 092200Z 19010KT 15SM SCT020 BKN040 M07/M12 A3036
                        RMK SC3SC3 SLP294=
201701092224 SPECI CYOW 092224Z 19009G17KT 10SM -SN BKN025 BKN100 M07/M11
                        A3036 RMK SC6AC1 SLP294=
201701092300 METAR CYOW 092300Z 18009KT 15SM -SN FEW020 BKN097 M07/M10
                        A3036 RMK SC2AC5 VRY LGT SN SLP293=
201701092309 SPECI CYOW 092309Z 18009KT 15SM FEW025 SCT070 BKN090 M07/M10
                        A3037 RMK SC2AC1AC4 SLP295=
201701100000 METAR CYOW 100000Z CCB 18007KT 15SM SCT017 OVC040 M07/M10
                        A3038 RMK SC3SC5 SLP299=
201701100029 SPECI CYOW 100029Z 18011G16KT 10SM -SN BKN014 OVC040 M07/M10
                        A3038 RMK SC6SC2 SLP300=
201701100100 METAR CYOW 100100Z 19010G15KT 6SM -SN FEW014 SCT025 OVC075
                        M07/M10 A3038 RMK SC1SC2AC5 SLP299=
201701100200 METAR CYOW 100200Z 19007KT 140V200 10SM SCT014 BKN025 OVC065
                        M07/M09 A3039 RMK SC3SC2SC3 SLP302=
201701100300 METAR CYOW 100300Z 15006KT 15SM OVC065 M08/M10 A3039 RMK
                        SC8 SLP302=
201701100400 METAR CYOW 100400Z 15007KT 15SM BKN030 OVC060 M07/M10 A3039
                        RMK SC6SC2 SLP302=
201701100500 METAR CYOW 100500Z 18007KT 15SM OVC025 M07/M10 A3039 RMK
                        SC8 SLP301=
201701100507 SPECI CYOW 100507Z 18007KT 10SM -SN OVC028 M07/M10 A3038
                        RMK SC8 SLP300=
201701100600 METAR CYOW 100600Z 19013KT 10SM -SN OVC028 M06/M11 A3038
                        RMK SC8 SLP298=
201701100700 METAR CYOW 100700Z 18012KT 10SM -SN OVC040 M06/M11 A3039
                        RMK SC8 SLP300=
201701100800 METAR CYOW 100800Z 16009KT 15SM OVC033 M06/M12 A3040 RMK
                        SC8 SLP304=
201701100900 METAR CYOW 100900Z 17007KT 15SM OVC033 M06/M12 A3039 RMK
                        SC8 SLP302=
201701101000 METAR CYOW 101000Z 16006KT 15SM OVC036 M06/M13 A3039 RMK
                        SC8 SLP301=
201701101100 METAR CYOW 101100Z 14007KT 15SM OVC036 M07/M13 A3038 RMK
                        SC8 SLP298=
201701101200 METAR CYOW 101200Z 15007KT 15SM BKN035 OVC067 M07/M13 A3038
                        RMK SC5AC3 SLP297=
201701101300 METAR CYOW 101300Z 14008KT 10SM FEW035 OVC062 M07/M13 A3037
                        RMK SC2SC6 SLP294=
201701101400 METAR CYOW 101400Z 13010KT 15SM BKN034 OVC046 M07/M13 A3036
                        RMK SC7SC1 SLP292=
201701101500 METAR CYOW 101500Z 14009KT 10SM BKN021 OVC034 M06/M13 A3035
                        RMK SC6SC2 SLP287=
201701101511 SPECI CYOW 101511Z 14010G15KT 8SM -SN BKN020 OVC030 M06/M12
                        A3034 RMK SC7SC1 SLP285=
201701101600 METAR CYOW 101600Z 13010KT 15SM -SN BKN030 OVC041 M05/M12
                        A3031 RMK SC5SC3 PRESFR SLP273=
201701101634 SPECI CYOW 101634Z 13011KT 15SM SCT030 BKN057 M05/M12 A3027
                        RMK SC3SC4 PRESFR SLP260=
201701101700 METAR CYOW 101700Z 12008KT 15SM SCT044 BKN045 M05/M11 A3025
                        RMK SC3SC4 PRESFR SLP253=
201701101800 METAR CYOW 101800Z 13011G16KT 15SM BKN019 OVC031 M04/M11
                        A3019 RMK SC5SC3 SLP232=
201701101808 SPECI CYOW 101808Z 13014KT 8SM -SN BKN013 OVC029 M04/M10
                        A3018 RMK SC5SC3 SLP229=
201701101822 SPECI CYOW 101822Z 14013KT 6SM -SN BKN011 OVC025 M04/M10
                        A3018 RMK SC7SC1 SLP230=
201701101900 METAR CYOW 101900Z 12014KT 4SM -SN OVC011 M04/M09 A3014 RMK
                        SC8 PRESFR SLP215=
201701101926 SPECI CYOW 101926Z 12012KT 1 1/2SM -SN OVC008 M04/M07 A3013
                        RMK SN6SF2 SLP212=
201701102000 METAR CYOW 102000Z 09010KT 1 1/2SM -SN OVC009 M05/M07 A3010
                        RMK SN6SF2 /S01/ SLP203=
201701102048 SPECI CYOW 102048Z 09010KT 1SM R32/5500VP6000FT/N R07/5500VP6000FT/N
                        -SN VV005 M06/M07 A3007 RMK SN8 SLP192=
201701102100 METAR CYOW 102100Z CCA 09010KT 3/4SM R32/4000V5500FT/D R07/5500FT/N
                        SN VV005 M06/M07 A3006 RMK SN8 /S02/
                        SLP188=
201701102200 METAR CYOW 102200Z CCA 10008KT 1SM R32/6000FT/U R07/6000FT/U
                        -SN OVC005 M05/M06 A3000 RMK SN7SF1
                        /S03/ PRESFR SLP167=
201701102300 METAR CYOW 102300Z CCB 09010KT 1 1/2SM -SN OVC006 M04/M05
                        A2995 RMK SN4SF4 /S05/ SLP149=
201701110000 METAR CYOW 110000Z CCA 11010KT 1SM R32/6000FT/D R07/6000FT/D
                        -SN VV006 M03/M04 A2992 RMK SN8 /S07/
                        SLP140=
201701110022 SPECI CYOW 110022Z 11009KT 1 1/2SM -SN OVC008 M03/M04 A2991
                        RMK SN4SF4 SLP136=
201701110100 METAR CYOW 110100Z 14014KT 3SM -SN DRSN SCT006 OVC008 M02/M03
                        A2984 RMK SF4SC4 PRESFR SLP114=
201701110148 SPECI CYOW 110148Z 16016G23KT 1SM R32/P6000FT/D R07/P6000FT/D
                        -SN=
201701110200 METAR CYOW 110200Z 15014G22KT 3/4SM R32/P6000FT/U R07/P6000FT/U
                        -SN=
201701110229 SPECI CYOW 110229Z 16018G25KT 5SM -SN DRSN OVC009 M01/M02
                        A2976 RMK SC8 SLP085=
201701110243 SPECI CYOW 110243Z 16017G25KT 7SM -FZRA DRSN OVC012 M01/M02
                        A2975 RMK SC8 SLP081=
201701110300 METAR CYOW 110300Z 16014G26KT 8SM -FZRA OVC013 M01/M02 A2973
                        RMK SC8 SLP076=
201701110346 SPECI CYOW 110346Z 15020G25KT 8SM -RA OVC009 00/M01 A2969
                        RMK SC8 PRESFR SLP061=
201701110400 METAR CYOW 110400Z 16014G27KT 8SM -RA OVC009 00/M01 A2969
                        RMK SC8 SLP060=
201701110500 METAR CYOW 110500Z 16014G21KT 8SM OVC008 01/M00 A2964 RMK
                        SC8 SLP044=
201701110520 SPECI CYOW 110520Z 16013G22KT 8SM -RA OVC008 01/M00 A2962
                        RMK SC8 VRY LGT RA PRESFR SLP038=
201701110600 METAR CYOW 110600Z 16012G19KT 8SM -RA OVC008 01/00 A2959
                        RMK SC8 VRY LGT RA /S02/ PRESFR SLP027=
201701110700 METAR CYOW 110700Z 17019G26KT 8SM -RA OVC009 02/01 A2955
                        RMK SC8 VRY LGT RA SLP013=
201701110800 METAR CYOW 110800Z 18017G27KT 15SM -RA OVC009 02/01 A2951
                        RMK SC8 PRESFR SLP999=
201701110835 SPECI CYOW 110835Z 19025G35KT 15SM FEW008 OVC016 03/01 A2950
                        RMK SC1SC7 SLP996=
201701110900 METAR CYOW 110900Z 19026G35KT 15SM OVC014 04/01 A2951 RMK
                        SC8 SLP998=
201701110907 SPECI CYOW 110907Z 19025G36KT 15SM -RA OVC015 04/01 A2951
                        RMK SC8 SLP000=
201701110945 SPECI CYOW 110945Z 22026G38KT 15SM FEW012 OVC020 04/01 A2957
                        RMK SC2SC6 PRESRR SLP019=
201701111000 METAR CYOW 111000Z 22021G36KT 15SM OVC020 04/01 A2959 RMK
                        SC8 PRESRR SLP026=
201701111100 METAR CYOW 111100Z 23023G33KT 15SM FEW020 OVC034 03/M01 A2967
                        RMK SC2SC6 PRESRR SLP054=
201701111200 METAR CYOW 111200Z 24019G33KT 15SM OVC031 03/M02 A2974 RMK
                        SC8 PRESRR SLP078=
201701111300 METAR CYOW 111300Z 24026G40KT 15SM SCT040 BKN055 04/M03 A2982
                        RMK SC4SC3 PRESRR SLP103=
201701111400 METAR CYOW 111400Z 23017G22KT 15SM FEW040 BKN050 04/M02 A2989
                        RMK SC1SC6 SLP128=
201701111500 METAR CYOW 111500Z 25025G36KT 15SM BKN045 04/M04 A2997 RMK
                        SC5 PRESRR SLP155=
201701111600 METAR CYOW 111600Z 23015G23KT 15SM FEW033 FEW230 04/M03 A3000
                        RMK SC1CI1 SLP164=
201701111700 METAR CYOW 111700Z 21016KT 15SM FEW033 SCT170 04/M03 A3001
                        RMK SC1AC2 SLP169=
201701111800 METAR CYOW 111800Z 21011G16KT 15SM FEW035 FEW180 FEW230 04/M03
                        A3001 RMK SC1AC2CI1 SC TR CI TR SLP170=
201701111900 METAR CYOW 111900Z 21014G20KT 15SM FEW035 FEW180 SCT230 04/M03
                        A3000 RMK SC1AC1CI3 SC TR AC TR SLP164=
201701112000 METAR CYOW 112000Z 20010G16KT 15SM FEW180 BKN230 04/M02 A3003
                        RMK AC1CI5 SLP175=
201701112100 METAR CYOW 112100Z 19011G16KT 15SM FEW110 BKN130 BKN230 03/M02
                        A3006 RMK AC2AC3CI2 SLP184=
201701112200 METAR CYOW 112200Z 18008KT 15SM BKN110 BKN130 03/M03 A3004
                        RMK AC5AC2 PRESFR SLP178=
201701112300 METAR CYOW 112300Z 17008KT 15SM BKN110 OVC130 03/M03 A2999
                        RMK AC6AC2 SLP162=
201701112344 SPECI CYOW 112344Z 16007KT 150V220 15SM FEW120 SCT170 OVC200
                        02/M03 A2997 RMK AC1AC2CS5 PRESFR
                        SLP156=
201701120000 METAR CYOW 120000Z 16008KT 15SM BKN160 OVC200 02/M03 A2996
                        RMK AC5CI3 SLP151=
201701120100 METAR CYOW 120100Z 17008G17KT 15SM SCT130 OVC200 04/M02 A2992
                        RMK AC3CS5 SLP136=
201701120200 METAR CYOW 120200Z 17011G17KT 15SM OVC130 05/M02 A2990 RMK
                        AC8 PRESFR SLP131=
201701120300 METAR CYOW 120300Z 18014G19KT 15SM SCT130 OVC200 05/M02 A2987
                        RMK AC3CS5 SLP121=
201701120400 METAR CYOW 120400Z 18013G19KT 15SM FEW130 BKN200 BKN230 06/M02
                        A2985 RMK AC1CI5CI1 SLP112=
201701120500 METAR CYOW 120500Z 18011G19KT 15SM OVC056 06/M02 A2982 RMK
                        SC8 SLP104=
201701120600 METAR CYOW 120600Z 18012G18KT 15SM FEW050 OVC064 06/M02 A2980
                        RMK SC1SC7 SLP096=
201701120700 METAR CYOW 120700Z 16009KT 15SM OVC050 06/M01 A2977 RMK SC8
                        SLP087=
201701120753 SPECI CYOW 120753Z 16010KT 15SM -RA OVC025 06/00 A2973 RMK
                        SC8 PRESFR SLP073=
201701120800 METAR CYOW 120800Z 16010KT 15SM -RA OVC025 06/00 A2972 RMK
                        SC8 PRESFR SLP071=
201701120900 METAR CYOW 120900Z 17006KT 7SM -RA OVC019 05/03 A2970 RMK
                        SC8 SLP063=
201701120933 SPECI CYOW 120933Z 15008KT 8SM -RA FEW011 OVC014 04/03 A2968
                        RMK SF2SC6 SLP057=
201701120951 SPECI CYOW 120951Z 16009KT 10SM -RA FEW009 OVC012 05/04 A2966
                        RMK SF2SC6 PRESFR SLP051=
201701121000 METAR CYOW 121000Z 16007KT 10SM OVC009 05/04 A2966 RMK SC8
                        SLP051=
201701121025 SPECI CYOW 121025Z 18004KT 8SM -RA OVC005 05/04 A2966 RMK
                        SC8 SLP051=
201701121051 SPECI CYOW 121051Z 19006KT 4SM -RA BR OVC003 05/04 A2967
                        RMK SF8 SLP052=
201701121100 METAR CYOW 121100Z 18007KT 4SM -RA BR OVC003 05/05 A2966
                        RMK SF8 SLP050=
201701121113 SPECI CYOW 121113Z 19006KT 1 1/2SM -RA BR OVC002 05/05 A2966
                        RMK FG2SF6 SLP050=
201701121120 SPECI CYOW 121120Z 26004KT 180V290 1/2SM R32/P6000FT/N R07/P6000FT/D
                        -RA FG VV001 04/04 A2967 RMK FG8
                        SLP053=
201701121200 METAR CYOW 121200Z 34005KT 3/4SM R32/2600FT/N R07/3000VP6000FT/U
                        -RA BR VV003 03/03 A2968 RMK FG8
                        SLP057=
201701121300 METAR CYOW 121300Z 02002KT 3/4SM R32/2400FT/N R07/3000V6000FT/D
                        -RA BR VV004 03/03 A2970 RMK FG8
                        SLP063=
201701121400 METAR CYOW 121400Z 00000KT 3/4SM R32/1800FT/N R07/2000FT/N
                        -RA BR VV004 04/04 A2973 RMK FG8
                        SLP074=
201701121403 SPECI CYOW 121403Z 00000KT 3/4SM R32/2000FT/N R07/1600V2200FT/N
                        -RA BR VV004 02/02 A2973 RMK FG8
                        SLP074=
201701121500 METAR CYOW 121500Z 28005KT 3/4SM R32/1200FT/N R07/2000FT/N
                        -RA BR VV003 04/04 A2974 RMK FG8
                        VRY LGT RA SLP078=
201701121516 SPECI CYOW 121516Z 27004KT 3/4SM R32/1100FT/N R07/1000V1400FT/N
                        -RA BR VV002 03/03 A2975 RMK FG8
                        VRY LGT RA SLP080=
201701121540 SPECI CYOW 121540Z 28009KT 1/4SM R32/1200FT/N R07/1200V2000FT/U
                        FG VV002 03/03 A2977 RMK FG8 SLP087=
201701121552 SPECI CYOW 121552Z 25006KT 1/4SM R32/1800FT/N R07/1400FT/N
                        FG VV001 02/02 A2977 RMK FG8 SLP086=
201701121600 METAR CYOW 121600Z 26005KT 1/2SM R32/1400FT/N R07/1200V2000FT/U
                        FG VV002 03/03 A2976 RMK FG8 SLP084=
201701121605 SPECI CYOW 121605Z 29007KT 1 1/2SM R32/1200V2200FT/N R07/3500VP6000FT/N
                        BR OVC002 03/03 A2976 RMK FG6SF2
                        SLP084=
201701121627 SPECI CYOW 121627Z 30008KT 2 1/2SM BR OVC003 03/03 A2974
                        RMK FG1SF7 SLP077=
201701121652 SPECI CYOW 121652Z 29005KT 3/4SM R32/2600VP6000FT/D R07/5000VP6000FT/D
                        BR VV002 03/03 A2975 RMK FG8 SLP079=
201701121700 METAR CYOW 121700Z 29006KT 3/4SM R32/1800V2600FT/N R07/3000V6000FT/D
                        BR VV002 02/02 A2975 RMK FG8 SLP081=
201701121750 SPECI CYOW 121750Z 29010KT 2 1/2SM BR OVC002 03/03 A2977
                        RMK FG2ST6 PRESRR SLP085=
201701121800 METAR CYOW 121800Z 29009KT 2 1/2SM BR OVC002 02/02 A2976
                        RMK FG2SF6 SLP082=
201701121826 SPECI CYOW 121826Z 29010KT 3SM BR OVC005 02/02 A2977 RMK
                        ST8 CIG VRB 3-7 SLP085=
201701121900 METAR CYOW 121900Z CCA 28007KT 15SM BKN005 OVC020 02/02 A2980
                        RMK ST7SC1 CIG VRB 3-7 PRESRR SLP095=
201701122000 METAR CYOW 122000Z 29008KT 15SM OVC005 01/01 A2979 RMK ST8
                        SLP095=
201701122046 SPECI CYOW 122046Z 29009KT 10SM -RA OVC005 01/00 A2980 RMK
                        SC8 SLP096=
201701122100 METAR CYOW 122100Z 29008KT 10SM -RA OVC006 01/00 A2980 RMK
                        SC8 SLP099=
201701122200 METAR CYOW 122200Z 30009KT 10SM -RA OVC005 00/M00 A2983 RMK
                        SC8 SLP106=
201701122225 SPECI CYOW 122225Z 28010KT 10SM OVC005 00/M01 A2985 RMK SC8
                        PRESRR SLP115=
201701122300 METAR CYOW 122300Z 27007KT 10SM OVC005 00/M01 A2986 RMK SC8
                        SLP119=
201701122309 SPECI CYOW 122309Z 28007KT 10SM -SN OVC005 M00/M01 A2987
                        RMK SC8 VRY LGT SN SLP121=
201701130000 METAR CYOW 130000Z 28012KT 5SM -SN OVC007 M00/M01 A2990 RMK
                        SC8 PRESRR SLP131=
201701130048 SPECI CYOW 130048Z 27009KT 10SM OVC007 M01/M02 A2992 RMK
                        SC8 SLP139=
201701130100 METAR CYOW 130100Z CCA 27009KT 15SM SCT008 OVC040 M01/M02
                        A2993 RMK SC4SC4 PRESRR SLP142=
201701130200 METAR CYOW 130200Z 26010G17KT 15SM FEW010 BKN045 M02/M04
                        A2997 RMK SC2SC5 SLP156=
201701130300 METAR CYOW 130300Z 28016KT 15SM FEW010 FEW040 M03/M05 A3001
                        RMK SC1SC2 SC TR SLP169=
201701130400 METAR CYOW 130400Z 27007KT 15SM FEW010 BKN025 M03/M05 A3004
                        RMK SC1SC7 SC TR SLP181=
201701130500 METAR CYOW 130500Z 29010KT 15SM BKN030 M03/M06 A3007 RMK
                        SC5 SLP188=
201701130600 METAR CYOW 130600Z CCA 28019G28KT 15SM FEW015 BKN035 M03/M07
                        A3011 RMK SC1SC4 PRESRR SLP203=
201701130700 METAR CYOW 130700Z 28008KT 15SM BKN041 M04/M08 A3016 RMK
                        SC7 SLP221=
201701130800 METAR CYOW 130800Z 24011KT 15SM OVC055 M03/M08 A3018 RMK
                        SC8 SLP226=
201701130838 SPECI CYOW 130838Z 23008KT 10SM -SN OVC062 M03/M07 A3019
                        RMK SC8 SLP231=
201701130900 METAR CYOW 130900Z 23010KT 10SM -SN OVC058 M03/M06 A3020
                        RMK SC8 SLP234=
201701130947 SPECI CYOW 130947Z 25017KT 10SM SCT031 OVC050 M02/M06 A3022
                        RMK SC3SC5 SLP242=
201701131000 METAR CYOW 131000Z 29011G19KT 240V300 2SM -SN BR SCT004 BKN013
                        OVC024 M02/M06 A3024 RMK SN1SF2SC3SC2
                        SLP246=
201701131029 SPECI CYOW 131029Z 30013G24KT 6SM -SN FEW018 OVC047 M05/M06
                        A3028 RMK SC2SC6 PRESRR SLP262=
201701131048 SPECI CYOW 131048Z 29016KT 15SM FEW020 FEW040 M05/M08 A3030
                        RMK SC1SC2 SC TR PRESRR SLP268=
201701131100 METAR CYOW 131100Z 29016G23KT 15SM FEW040 M05/M09 A3031 RMK
                        SC1 SLP271=
201701131200 METAR CYOW 131200Z 29016G24KT 15SM FEW040 M06/M12 A3036 RMK
                        SC1 SC TR PRESRR SLP288=
201701131300 METAR CYOW 131300Z 28011G16KT 15SM SCT035 M06/M12 A3040 RMK
                        SC3 PRESRR SLP304=
201701131340 SPECI CYOW 131340Z 27016G26KT 15SM DRSN BKN032 M06/M12 A3045
                        RMK SC5 PRESRR SLP320=
201701131400 METAR CYOW 131400Z 29017G23KT 15SM DRSN BKN033 M07/M13 A3047
                        RMK SC5 SLP326=
201701131500 METAR CYOW 131500Z CCA 29019G26KT 15SM DRSN SCT035 M08/M15
                        A3051 RMK SC3 SLP341=
201701131600 METAR CYOW 131600Z 28021G29KT 15SM DRSN SCT035 M08/M16 A3055
                        RMK SC3 SLP355=
201701131700 METAR CYOW 131700Z 30019G26KT 15SM SCT037 M07/M14 A3058 RMK
                        SC3 SLP363=
201701131800 METAR CYOW 131800Z 30019KT 15SM DRSN SCT035 M08/M15 A3060
                        RMK SC3 SLP372=
201701131900 METAR CYOW 131900Z CCA 28021KT 15SM DRSN FEW040 M09/M17 A3063
                        RMK SC1 SC TR SLP381=
201701132000 METAR CYOW 132000Z 29014G21KT 15SM FEW040 M09/M18 A3065 RMK
                        SC1 SC TR SLP389=
201701132100 METAR CYOW 132100Z 30017KT 15SM SKC M10/M19 A3067 RMK SLP397=
201701132200 METAR CYOW 132200Z 30012KT 15SM SKC M11/M20 A3070 RMK SLP405=
201701132300 METAR CYOW 132300Z 30010G15KT 15SM SKC M12/M20 A3073 RMK
                        SLP417=
201701140000 METAR CYOW 140000Z 32008KT 15SM SKC M13/M19 A3076 RMK SLP429=
201701140100 METAR CYOW 140100Z 34008KT 15SM SKC M13/M20 A3078 RMK SLP435=
201701140200 METAR CYOW 140200Z 33009KT 15SM SKC M13/M20 A3080 RMK SLP441=
201701140300 METAR CYOW 140300Z 33011KT 15SM SKC M14/M20 A3080 RMK SLP442=
201701140400 METAR CYOW 140400Z 33007KT 15SM SKC M15/M20 A3080 RMK SLP440=
201701140500 METAR CYOW 140500Z 33005KT 15SM SKC M15/M21 A3078 RMK SLP434=
201701140600 METAR CYOW 140600Z 01003KT 15SM SKC M16/M21 A3077 RMK SLP433=
201701140700 METAR CYOW 140700Z 02005KT 15SM SKC M16/M21 A3076 RMK SLP430=
201701140800 METAR CYOW 140800Z 04004KT 15SM SKC M17/M21 A3075 RMK SLP426=
201701140900 METAR CYOW 140900Z 17002KT 15SM SKC M20/M22 A3075 RMK SLP425=
201701141000 METAR CYOW 141000Z 16002KT 15SM SKC M20/M22 A3072 RMK SLP416=
201701141100 METAR CYOW 141100Z 20002KT 15SM FEW100 M20/M23 A3070 RMK
                        AC1 AC TR FROIN SLP409=
201701141200 METAR CYOW 141200Z 26004KT 200V270 15SM BKN120 M20/M22 A3070
                        RMK AC5 FROIN SLP408=
201701141300 METAR CYOW 141300Z 26003KT 15SM BKN120 M19/M21 A3068 RMK
                        AC6 FROIN SLP404=
201701141400 METAR CYOW 141400Z 00000KT 15SM OVC120 M18/M21 A3067 RMK
                        AC8 SLP399=
201701141500 METAR CYOW 141500Z 12002KT 15SM OVC120 M16/M20 A3065 RMK
                        AC8 SLP390=
201701141600 METAR CYOW 141600Z 15005KT 15SM OVC090 M15/M21 A3059 RMK
                        AC8 SLP373=
201701141700 METAR CYOW 141700Z 12003KT 100V160 15SM OVC077 M15/M21 A3054
                        RMK AC8 SLP355=
201701141800 METAR CYOW 141800Z 17004KT 120V180 15SM OVC028 M13/M21 A3049
                        RMK SC8 SLP338=
201701141900 METAR CYOW 141900Z 15005KT 120V190 15SM OVC077 M13/M19 A3044
                        RMK AC8 PRESFR SLP322=
201701142000 METAR CYOW 142000Z 10004KT 15SM OVC100 M12/M18 A3041 RMK
                        AC8 SLP309=
201701142100 METAR CYOW 142100Z 07004KT 15SM FEW030 OVC093 M12/M18 A3039
                        RMK SC2AC6 SLP302=
201701142200 METAR CYOW 142200Z 10005KT 15SM SCT030 OVC068 M12/M17 A3036
                        RMK SC3AC5 SLP292=
201701142300 METAR CYOW 142300Z 11004KT 15SM OVC028 M12/M16 A3033 RMK
                        SC8 SLP284=
201701142314 SPECI CYOW 142314Z 11003KT 15SM -SN BKN030 OVC053 M12/M16
                        A3032 RMK SC5SC3 SLP281=
201701150000 METAR CYOW 150000Z 07003KT 15SM -SN SCT050 BKN070 M12/M16
                        A3030 RMK SC3AC4 VRY LGT SN SLP275=
201701150040 SPECI CYOW 150040Z 11003KT 15SM SCT050 BKN068 M12/M15 A3028
                        RMK SC3AC4 SLP268=
201701150100 METAR CYOW 150100Z 09002KT 15SM FEW050 BKN062 BKN070 M12/M16
                        A3028 RMK SC2SC3AC2 SLP266=
201701150200 METAR CYOW 150200Z 15003KT 15SM SCT030 BKN055 M12/M15 A3027
                        RMK SC3SC4 SLP263=
201701150300 METAR CYOW 150300Z 19004KT 15SM OVC037 M11/M14 A3025 RMK
                        SC8 SLP257=
201701150400 METAR CYOW 150400Z VRB02KT 15SM OVC035 M09/M12 A3024 RMK
                        SC8 SLP251=
201701150500 METAR CYOW 150500Z 24007KT 15SM OVC038 M06/M10 A3023 RMK
                        SC8 SLP247=
201701150600 METAR CYOW 150600Z 23006KT 15SM OVC039 M07/M10 A3023 RMK
                        SC8 SLP246=
201701150700 METAR CYOW 150700Z 29005KT 15SM SCT040 M09/M12 A3024 RMK
                        SC3 SLP250=
201701150800 METAR CYOW 150800Z 29003KT 15SM FEW040 M10/M12 A3026 RMK
                        SC1 SLP257=
201701150900 METAR CYOW 150900Z 24004KT 15SM FEW040 M10/M12 A3026 RMK
                        SC1 SC TR SLP258=
201701151000 METAR CYOW 151000Z 30006KT 15SM BKN034 M10/M12 A3028 RMK
                        SC6 SLP264=
201701151018 SPECI CYOW 151018Z 30008KT 15SM -SN OVC035 M10/M11 A3028
                        RMK SC8 SLP266=
201701151046 SPECI CYOW 151046Z 26008KT 15SM BKN039 M09/M11 A3029 RMK
                        SC5 SLP269=
201701151100 METAR CYOW 151100Z CCA 26008KT 15SM FEW040 M10/M12 A3030
                        RMK SC1 SC TR FROIN SLP272=
201701151200 METAR CYOW 151200Z 29007KT 15SM FEW040 M11/M12 A3034 RMK
                        SC1 FROIN SLP284=
201701151300 METAR CYOW 151300Z 36007KT 310V020 15SM FEW015 M10/M12 A3037
                        RMK SC2 FROIN SLP294=
201701151400 METAR CYOW 151400Z 01009KT 15SM FEW015 M09/M14 A3039 RMK
                        SC1 SC TR SLP302=
201701151500 METAR CYOW 151500Z 36011KT 15SM FEW015 FEW240 M09/M15 A3041
                        RMK SC1CI1 SC TR SLP308=
201701151600 METAR CYOW 151600Z 02003KT 330V050 15SM FEW010 FEW240 M08/M14
                        A3041 RMK CF1CI1 CF TR SLP307=
201701151700 METAR CYOW 151700Z VRB02KT 15SM FEW020 SCT240 M08/M14 A3039
                        RMK CF2CI2 SLP301=
201701151800 METAR CYOW 151800Z 23005KT 210V310 15SM FEW030 BKN240 M08/M14
                        A3037 RMK CF2CI3 SLP295=
201701151900 METAR CYOW 151900Z 25008KT 15SM FEW030 BKN240 M08/M14 A3037
                        RMK CF1CI5 SLP293=
201701152000 METAR CYOW 152000Z 25007KT 15SM FEW030 BKN240 M08/M14 A3037
                        RMK CF1CI6 CF TR SLP294=
201701152100 METAR CYOW 152100Z 26007KT 15SM FEW180 BKN240 M07/M14 A3038
                        RMK AC1CI4 SLP296=
201701152200 METAR CYOW 152200Z 32004KT 260V320 15SM FEW180 FEW240 M08/M14
                        A3038 RMK AC1CI2 AC TR SLP297=
201701152300 METAR CYOW 152300Z 00000KT 15SM FEW180 SCT220 M10/M14 A3037
                        RMK AC1CI4 AC TR SLP296=
201701160000 METAR CYOW 160000Z 10004KT 15SM FEW210 M09/M15 A3037 RMK
                        CI1 SLP295=
201701160100 METAR CYOW 160100Z 09003KT 15SM FEW210 M11/M15 A3038 RMK
                        CI1 CI TR SLP298=
201701160200 METAR CYOW 160200Z 14006KT 15SM SCT140 BKN160 M12/M15 A3036
                        RMK AC3AC2 SLP293=
201701160300 METAR CYOW 160300Z 14006KT 15SM FEW110 M11/M15 A3035 RMK
                        AC1 SLP289=
201701160400 METAR CYOW 160400Z 15006KT 15SM FEW110 M11/M14 A3035 RMK
                        AC1 SLP287=
201701160500 METAR CYOW 160500Z 21004KT 170V250 15SM SKC M11/M13 A3033
                        RMK SLP280=
201701160600 METAR CYOW 160600Z 29005KT 15SM SKC M12/M14 A3034 RMK SLP284=
201701160700 METAR CYOW 160700Z 23005KT 15SM BKN035 M11/M13 A3034 RMK
                        SC6 SLP283=
201701160800 METAR CYOW 160800Z 19006KT 15SM FEW034 M10/M12 A3031 RMK
                        SC2 SLP275=
201701160900 METAR CYOW 160900Z 19005KT 15SM FEW035 FEW085 M10/M12 A3029
                        RMK SC1AC2 SC TR SLP268=
201701161000 METAR CYOW 161000Z VRB02KT 15SM FEW035 M10/M12 A3028 RMK
                        SC1 SLP264=
201701161100 METAR CYOW 161100Z 15003KT 140V220 15SM FEW220 M11/M12 A3028
                        RMK CI2 FROIN SLP265=
201701161200 METAR CYOW 161200Z CCA 18004KT 15SM FEW030 FEW090 FEW250
                        M09/M11 A3026 RMK SC1AC1CI1 SC TR
                        FROIN SLP258=
201701161300 METAR CYOW 161300Z 20005KT 15SM FEW030 FEW250 M09/M10 A3024
                        RMK SC1CI1 SC TR SLP252=
201701161400 METAR CYOW 161400Z 22008KT 15SM FEW100 FEW250 M05/M07 A3024
                        RMK AC1CI1 AC TR CI TR SLP249=
201701161500 METAR CYOW 161500Z 23012G19KT 15SM FEW100 FEW250 M02/M06
                        A3023 RMK AC1CI1 AC TR SLP246=
201701161600 METAR CYOW 161600Z 23013KT 15SM FEW100 M00/M05 A3022 RMK
                        AC1 AC TR SLP244=
201701161700 METAR CYOW 161700Z 23015KT 15SM FEW100 FEW180 01/M05 A3020
                        RMK AC1AC1 AC TR AC TR SLP235=
201701161800 METAR CYOW 161800Z 23013G21KT 15SM FEW100 FEW180 02/M06 A3018
                        RMK AC1AC1 AC TR AC TR SLP229=
201701161900 METAR CYOW 161900Z 22012G20KT 15SM FEW100 FEW180 03/M06 A3015
                        RMK AC1AC1 AC TR AC TR SLP220=
201701162000 METAR CYOW 162000Z 22015G21KT 15SM FEW100 FEW180 03/M07 A3015
                        RMK AC1AC1 AC TR AC TR SLP217=
201701162100 METAR CYOW 162100Z 22013G19KT 15SM FEW100 FEW180 02/M07 A3015
                        RMK AC1AC1 AC TR AC TR SLP220=
201701162200 METAR CYOW 162200Z 23010KT 15SM FEW100 01/M07 A3016 RMK AC1
                        AC TR SLP223=
201701162300 METAR CYOW 162300Z 22009KT 15SM FEW100 00/M06 A3018 RMK AC1
                        AC TR SLP227=
201701170000 METAR CYOW 170000Z 23010KT 15SM FEW100 M01/M07 A3019 RMK
                        AC1 AC TR SLP231=
201701170100 METAR CYOW 170100Z 22006KT 15SM SKC M01/M07 A3020 RMK SLP234=
201701170200 METAR CYOW 170200Z 21006KT 15SM SKC M02/M08 A3021 RMK SLP237=
201701170300 METAR CYOW 170300Z 22007KT 15SM SKC M03/M08 A3021 RMK SLP236=
201701170400 METAR CYOW 170400Z 23005KT 15SM FEW220 M04/M08 A3020 RMK
                        CI1 CI TR SLP235=
201701170500 METAR CYOW 170500Z 23005KT 15SM SKC M04/M08 A3020 RMK SLP235=
201701170600 METAR CYOW 170600Z 23002KT 15SM SKC M06/M09 A3021 RMK SLP236=
201701170700 METAR CYOW 170700Z 25002KT 15SM SKC M06/M08 A3022 RMK SLP240=
201701170800 METAR CYOW 170800Z 24003KT 15SM SKC M06/M08 A3022 RMK SLP240=
201701170900 METAR CYOW 170900Z 29003KT 15SM FEW250 M07/M08 A3021 RMK
                        CI1 SLP237=
201701171000 METAR CYOW 171000Z 31002KT 15SM FEW250 M05/M08 A3021 RMK
                        CI1 CI TR SLP237=
201701171100 METAR CYOW 171100Z 00000KT 15SM FEW240 M08/M09 A3022 RMK
                        CI1 CI TR FROIN SLP241=
201701171200 METAR CYOW 171200Z 06003KT 15SM FEW240 M09/M10 A3022 RMK
                        CI1 CI TR SLP241=
201701171300 METAR CYOW 171300Z 06006KT 15SM FEW230 SCT250 M09/M10 A3021
                        RMK CI2CI1 SLP240=
201701171400 METAR CYOW 171400Z 06007KT 15SM FEW180 BKN220 M05/M08 A3021
                        RMK AC1CI6 AC TR SLP240=
201701171500 METAR CYOW 171500Z 07009KT 15SM FEW180 BKN220 M04/M07 A3019
                        RMK AC1CI6 AC TR SLP232=
201701171600 METAR CYOW 171600Z 07011KT 15SM FEW180 BKN220 M01/M06 A3016
                        RMK AC1CI6 PRESFR SLP222=
201701171700 METAR CYOW 171700Z 09014G21KT 15SM FEW180 BKN220 M01/M06
                        A3014 RMK AC1CI6 SLP214=
201701171800 METAR CYOW 171800Z 07010G17KT 15SM BKN180 OVC210 M00/M06
                        A3011 RMK AC5CI3 SLP205=
201701171900 METAR CYOW 171900Z 06012KT 15SM BKN130 OVC180 M01/M05 A3007
                        RMK AC7AC1 SLP191=
201701172000 METAR CYOW 172000Z 07008G16KT 15SM BKN130 OVC180 M01/M06
                        A3006 RMK AC7AC1 SLP188=
201701172100 METAR CYOW 172100Z 07014KT 15SM BKN120 OVC140 M02/M06 A3003
                        RMK AC6AC2 SLP178=
201701172200 METAR CYOW 172200Z 08014G23KT 15SM BKN072 OVC100 M02/M07
                        A3002 RMK AC5AC3 SLP173=
201701172300 METAR CYOW 172300Z 07014G21KT 15SM BKN057 OVC070 M03/M07
                        A3000 RMK SC5AC3 SLP166=
201701172344 SPECI CYOW 172344Z 06016KT 15SM -SN OVC055 M03/M07 A2998
                        RMK SC8 SLP162=
201701180000 METAR CYOW 180000Z CCA 07012G18KT 15SM -FZRA -SN OVC030 M03/M07
                        A2998 RMK SC8 SLP163=
201701180012 SPECI CYOW 180012Z 07014G20KT 15SM -FZRA -PL OVC030 M03/M07
                        A2998 RMK SC8 SLP159=
201701180100 METAR CYOW 180100Z 08014G20KT 8SM -FZRA OVC022 M03/M06 A2996
                        RMK SC8 SLP155=
201701180115 SPECI CYOW 180115Z 08016G21KT 8SM -FZRA -PL OVC021 M03/M06
                        A2996 RMK SC8 SLP153=
201701180122 SPECI CYOW 180122Z 07013G21KT 8SM -FZRA -SN OVC021 M03/M06
                        A2995 RMK SC8 SLP152=
201701180145 SPECI CYOW 180145Z 07011G20KT 8SM -SN OVC020 M03/M06 A2995
                        RMK SC8 SLP149=
201701180200 METAR CYOW 180200Z 07012G18KT 5SM -SN OVC020 M03/M06 A2994
                        RMK SC8 SLP146=
201701180243 SPECI CYOW 180243Z 06013KT 2SM -SN OVC020 M04/M05 A2994 RMK
                        SC8 SLP146=
201701180300 METAR CYOW 180300Z 06012KT 2SM -SN OVC020 M04/M05 A2993 RMK
                        SC8 /S01/ SLP143=
201701180318 SPECI CYOW 180318Z 06014G20KT 4SM -SN OVC020 M04/M05 A2992
                        RMK SC8 SLP141=
201701180354 SPECI CYOW 180354Z 06014G19KT 2SM -SN OVC020 M04/M05 A2992
                        RMK SC8 SLP138=
201701180400 METAR CYOW 180400Z 06013G18KT 1 3/4SM -SN OVC025 M04/M05
                        A2992 RMK SN1SC7 SLP138=
201701180500 METAR CYOW 180500Z 06012G18KT 4SM -SN OVC023 M04/M05 A2989
                        RMK SC8 SLP131=
201701180522 SPECI CYOW 180522Z 07013KT 4SM -SN FEW007 OVC020 M05/M06
                        A2989 RMK SF1SC7 SLP128=
201701180600 METAR CYOW 180600Z 07012KT 4SM -SN FEW007 OVC017 M05/M06
                        A2988 RMK SF1SC8 SF TR /S02/ SLP125=
201701180618 SPECI CYOW 180618Z 06011KT 4SM -SN FEW008 OVC012 M05/M06
                        A2987 RMK SC1SC8 SC TR SLP124=
201701180650 SPECI CYOW 180650Z 06011KT 5SM -FZDZ -SN OVC008 M05/M06 A2987
                        RMK SF8 SLP124=
201701180700 METAR CYOW 180700Z 06010KT 4SM -FZDZ -SN OVC008 M05/M06 A2987
                        RMK SF8 SLP124=
201701180725 SPECI CYOW 180725Z 06009KT 2SM -SN OVC008 M05/M06 A2987 RMK
                        SN1SF7 SLP122=
201701180800 METAR CYOW 180800Z CCA 05009KT 2SM -SN OVC009 M05/M06 A2986
                        RMK SN1SC7 /S01/ SLP121=
201701180822 SPECI CYOW 180822Z 05008KT 4SM -SN OVC009 M05/M06 A2986 RMK
                        SC8 SLP121=
201701180900 METAR CYOW 180900Z 07009KT 4SM -FZDZ OVC009 M05/M05 A2986
                        RMK ST8 SLP119=
201701180921 SPECI CYOW 180921Z 05010KT 4SM -FZDZ BKN004 OVC008 M05/M05
                        A2987 RMK SF5ST3 SLP122=
201701181000 METAR CYOW 181000Z 06010KT 4SM -FZDZ BKN004 M05/M05 A2987
                        RMK ST7 SLP122=
201701181100 METAR CYOW 181100Z 07008KT 4SM -FZDZ OVC004 M04/M05 A2987
                        RMK ST8 SLP124=
201701181200 METAR CYOW 181200Z 05009KT 4SM -FZDZ OVC004 M04/M05 A2989
                        RMK ST8 SLP129=
201701181300 METAR CYOW 181300Z 08006KT 3SM -FZDZ OVC004 M04/M05 A2987
                        RMK ST8 SLP124=
201701181400 METAR CYOW 181400Z 04007KT 3SM -FZDZ BR OVC004 M04/M04 A2990
                        RMK ST8 SLP132=
201701181500 METAR CYOW 181500Z 05006KT 3SM -FZDZ BR OVC004 M03/M04 A2992
                        RMK ST8 SLP139=
201701181600 METAR CYOW 181600Z 06003KT 3SM -FZDZ BR OVC004 M03/M03 A2992
                        RMK ST8 CIG VRB 2-5 SLP138=
201701181700 METAR CYOW 181700Z 00000KT 4SM -FZDZ BR OVC004 M03/M03 A2989
                        RMK ST8 CIG VRB 2-5 SLP130=
201701181800 METAR CYOW 181800Z 00000KT 4SM -FZDZ BR OVC004 M02/M03 A2989
                        RMK ST8 CIG VRB 2-5 SLP130=
201701181835 SPECI CYOW 181835Z 28002KT 1 1/4SM R32/5000VP6000FT/D R07/5500VP6000FT/D
                        BR OVC004 M02/M03 A2990 RMK FG5ST3
                        CIG VRB 2-5 SLP134=
201701181900 METAR CYOW 181900Z 23002KT 1SM R32/3500V5000FT/D R07/5000FT/U
                        BR OVC004 M02/M03 A2991 RMK FG5ST3
                        SLP136=
201701182000 METAR CYOW 182000Z 19003KT 1SM R32/6000FT/U R07/P6000FT/U
                        BR OVC004 M02/M02 A2992 RMK FG5ST3
                        CIG VRB 2-5 SLP139=
201701182026 SPECI CYOW 182026Z 21003KT 1 1/2SM -FZDZ BR OVC003 M02/M02
                        A2993 RMK FG4ST4 SLP143=
201701182100 METAR CYOW 182100Z 21004KT 1 1/2SM -FZDZ BR OVC003 M02/M02
                        A2993 RMK FG4ST4 CIG VRB 2-5 SLP142=
201701182200 METAR CYOW 182200Z 22005KT 1 1/2SM -FZDZ BR OVC003 M02/M02
                        A2995 RMK FG4ST4 CIG VRB 2-5 SLP149=
201701182300 METAR CYOW 182300Z 22005KT 2 1/2SM -FZDZ BR OVC003 M02/M02
                        A2995 RMK FG1ST7 CIG VRB 2-5 VRY
                        LGT FZDZ SLP149=
201701182311 SPECI CYOW 182311Z 22005KT 3SM -FZDZ BR OVC003 M02/M02 A2995
                        RMK ST8 CIG 2-5 VRY LGT FZDZ SLP149=
201701182319 SPECI CYOW 182319Z 21006KT 4SM BR OVC003 M02/M02 A2994 RMK
                        ST8 SLP147=
201701190000 METAR CYOW 190000Z 17004KT 5SM BR OVC003 M02/M02 A2994 RMK
                        SF8 SLP145=
201701190100 METAR CYOW 190100Z 21003KT 5SM BR OVC003 M02/M02 A2994 RMK
                        SC8 SLP147=
201701190132 SPECI CYOW 190132Z 17004KT 4SM BR FEW008 OVC025 M02/M02 A2993
                        RMK SC2SC6 SLP144=
201701190154 SPECI CYOW 190154Z 19003KT 4SM BR OVC003 M02/M02 A2993 RMK
                        ST8 SLP143=
201701190200 METAR CYOW 190200Z 21003KT 4SM BR OVC003 M02/M02 A2993 RMK
                        ST8 SLP144=
201701190300 METAR CYOW 190300Z 17005KT 2SM BR OVC002 M01/M01 A2992 RMK
                        FG1ST7 SLP141=
201701190400 METAR CYOW 190400Z 22003KT 180V240 1 1/2SM BR OVC002 M01/M01
                        A2993 RMK FG2ST6 SLP143=
201701190500 METAR CYOW 190500Z 21006KT 4SM BR OVC002 M00/M00 A2992 RMK
                        ST8 SLP138=
201701190600 METAR CYOW 190600Z 20006KT 5SM BR OVC005 00/M00 A2991 RMK
                        SC8 SLP137=
201701190627 SPECI CYOW 190627Z 22006KT 5SM BR OVC004 00/M00 A2992 RMK
                        ST8 SLP141=
201701190700 METAR CYOW 190700Z 22005KT 5SM BR OVC003 00/00 A2994 RMK
                        ST8 SLP145=
201701190800 METAR CYOW 190800Z 21006KT 5SM BR BKN002 OVC023 00/00 A2993
                        RMK SF6SC2 SLP143=
201701190846 SPECI CYOW 190846Z 23006KT 7SM FEW003 OVC015 00/00 A2993
                        RMK SF1SC7 SLP143=
201701190900 METAR CYOW 190900Z 22006KT 15SM FEW015 BKN020 00/00 A2993
                        RMK SC2SC4 SLP143=
201701191000 METAR CYOW 191000Z 22005KT 7SM OVC016 00/M00 A2994 RMK SC8
                        SLP146=
201701191017 SPECI CYOW 191017Z 21005KT 7SM FEW003 BKN016 OVC040 00/M00
                        A2994 RMK SC1SC5SC2 SLP147=
201701191100 METAR CYOW 191100Z 23004KT 6SM BR BKN013 OVC038 00/M00 A2995
                        RMK SC6SC2 SLP151=
201701191117 SPECI CYOW 191117Z 24004KT 6SM BR FEW002 OVC013 00/M00 A2996
                        RMK SF1SC7 SLP153=
201701191200 METAR CYOW 191200Z 23006KT 8SM BKN012 OVC028 00/M00 A2997
                        RMK SC6SC2 SLP156=
201701191219 SPECI CYOW 191219Z 22006KT 8SM SCT012 OVC028 00/M00 A2998
                        RMK SC3SC5 SLP159=
201701191300 METAR CYOW 191300Z 22006KT 10SM FEW012 OVC029 00/M00 A2999
                        RMK SC2SC6 SLP164=
201701191400 METAR CYOW 191400Z 24006KT 10SM FEW012 OVC028 01/00 A3001
                        RMK SC1SC7 SLP171=
201701191500 METAR CYOW 191500Z 25007KT 15SM FEW012 OVC027 01/00 A3003
                        RMK SC1SC8 SC TR SLP175=
201701191600 METAR CYOW 191600Z 24008KT 15SM FEW010 OVC026 01/00 A3003
                        RMK SF1SC8 SF TR SLP176=
201701191700 METAR CYOW 191700Z 25007KT 15SM FEW010 OVC027 01/00 A3001
                        RMK SF1SC8 SF TR SLP167=
201701191800 METAR CYOW 191800Z 26006KT 15SM FEW010 OVC026 01/00 A2999
                        RMK SF1SC8 SF TR SLP161=
201701191849 SPECI CYOW 191849Z 25005KT 15SM FEW008 OVC026 01/00 A2998
                        RMK SF1SC7 SLP160=
201701191900 METAR CYOW 191900Z 25005KT 15SM FEW008 OVC025 02/01 A2998
                        RMK SF2SC6 SLP159=
201701192000 METAR CYOW 192000Z 26005KT 15SM FEW007 OVC024 02/01 A2999
                        RMK SF1SC7 SLP163=
201701192100 METAR CYOW 192100Z 25003KT 15SM FEW007 BKN023 02/01 A2998
                        RMK SF1SC7 SF TR SLP160=
201701192200 METAR CYOW 192200Z 25003KT 15SM FEW007 OVC024 02/01 A2999
                        RMK SF1SC8 SF TR SLP163=
201701192300 METAR CYOW 192300Z 24003KT 180V330 15SM FEW007 OVC027 02/M01
                        A3001 RMK SF1SC8 SF TR SLP169=
201701200000 METAR CYOW 200000Z 21003KT 15SM OVC024 01/01 A3003 RMK SC8
                        CIG RAG SLP178=
201701200100 METAR CYOW 200100Z 00000KT 15SM OVC026 01/00 A3005 RMK SC8
                        SLP182=
201701200200 METAR CYOW 200200Z 00000KT 15SM OVC030 01/00 A3005 RMK SC8
                        SLP184=
201701200300 METAR CYOW 200300Z 09003KT 15SM OVC028 01/00 A3003 RMK SC8
                        SLP178=
201701200400 METAR CYOW 200400Z 09004KT 15SM SCT016 OVC027 01/00 A3001
                        RMK SC4SC4 SLP170=
201701200500 METAR CYOW 200500Z 10003KT 15SM OVC025 00/M00 A2998 RMK SC8
                        SLP160=
201701200600 METAR CYOW 200600Z 14004KT 15SM OVC022 01/M00 A2999 RMK SC8
                        SLP161=
201701200700 METAR CYOW 200700Z 16006KT 8SM OVC022 01/M00 A2998 RMK SC8
                        SLP159=
201701200710 SPECI CYOW 200710Z 16005KT 8SM FEW004 OVC022 00/M00 A2999
                        RMK SC2SC6 SLP161=
201701200727 SPECI CYOW 200727Z 17003KT 6SM -SN FEW002 OVC022 00/M00 A2999
                        RMK SF2SC6 SLP163=
201701200744 SPECI CYOW 200744Z 16003KT 4SM -SN OVC004 00/00 A2999 RMK
                        ST8 SLP162=
201701200800 METAR CYOW 200800Z 14003KT 6SM BR OVC003 00/00 A2999 RMK
                        ST8 SLP162=
201701200842 SPECI CYOW 200842Z 14002KT 4SM BR OVC001 00/00 A2999 RMK
                        ST8 SLP161=
201701200900 METAR CYOW 200900Z 13002KT 2 1/2SM BR OVC001 00/00 A2998
                        RMK FG1ST7 SLP160=
201701200929 SPECI CYOW 200929Z 14004KT 1 1/2SM -DZ BR OVC001 00/00 A2997
                        RMK FG1ST7 SLP154=
201701200946 SPECI CYOW 200946Z 14003KT 2SM BR OVC023 00/00 A2996 RMK
                        FG2SC6 SLP152=
201701201000 METAR CYOW 201000Z 14004KT 4SM BR FEW007 OVC022 00/00 A2995
                        RMK SF1SC7 SLP150=
201701201032 SPECI CYOW 201032Z 14004KT 4SM BR FEW001 OVC013 00/00 A2995
                        RMK SF2SC6 SLP149=
201701201100 METAR CYOW 201100Z 12003KT 4SM BR OVC012 00/00 A2995 RMK
                        SC8 SLP147=
201701201200 METAR CYOW 201200Z 10004KT 5SM BR OVC012 00/00 A2994 RMK
                        ST8 SLP144=
201701201300 METAR CYOW 201300Z 14006KT 10SM OVC011 01/M00 A2994 RMK ST8
                        SLP144=
201701201400 METAR CYOW 201400Z 13005KT 10SM OVC011 01/M00 A2994 RMK ST8
                        SLP145=
201701201433 SPECI CYOW 201433Z 11006KT 8SM -DZ OVC011 01/M00 A2993 RMK
                        ST8 SLP143=
201701201500 METAR CYOW 201500Z 12006KT 8SM -DZ OVC010 01/M00 A2993 RMK
                        ST8 SLP142=
201701201600 METAR CYOW 201600Z 11005KT 10SM OVC010 01/M00 A2992 RMK ST8
                        INTMT -DZ SLP137=
201701201610 SPECI CYOW 201610Z 10006KT 10SM OVC010 01/M00 A2991 RMK ST8
                        SLP135=
201701201700 METAR CYOW 201700Z 10009KT 10SM OVC009 01/M00 A2989 RMK ST8
                        SLP129=
201701201724 SPECI CYOW 201724Z 12007KT 10SM -SN OVC009 01/M00 A2988 RMK
                        ST8 SLP125=
201701201800 METAR CYOW 201800Z 13006KT 8SM -SN BKN005 OVC016 01/00 A2986
                        RMK SF7SC1 SLP120=
201701201820 SPECI CYOW 201820Z 14007KT 6SM -SN BR SCT007 OVC016 01/00
                        A2987 RMK SF3SC5 SLP121=
201701201900 METAR CYOW 201900Z 13006KT 10SM -SN SCT007 OVC012 01/M00
                        A2986 RMK SF3SC5 SLP119=
201701201949 SPECI CYOW 201949Z 10009KT 10SM FEW007 OVC014 01/M01 A2985
                        RMK SF2SC6 SLP115=
201701202000 METAR CYOW 202000Z 11006KT 10SM -SN FEW007 OVC014 01/M01
                        A2985 RMK SF2SC6 SLP115=
201701202025 SPECI CYOW 202025Z 10006KT 10SM FEW007 OVC014 01/M00 A2985
                        RMK SF1SC7 SLP114=
201701202100 METAR CYOW 202100Z 11005KT 15SM FEW007 OVC015 01/M01 A2985
                        RMK SF1SC7 SLP115=
201701202130 SPECI CYOW 202130Z 10007KT 15SM OVC017 01/M01 A2984 RMK SC8
                        SLP113=
201701202200 METAR CYOW 202200Z 11007KT 15SM OVC017 01/M02 A2984 RMK SC8
                        SLP111=
201701202300 METAR CYOW 202300Z 09006KT 15SM OVC017 01/M02 A2984 RMK SC8
                        SLP112=
201701210000 METAR CYOW 210000Z 06005KT 15SM OVC018 01/M02 A2983 RMK SC8
                        SLP110=
201701210100 METAR CYOW 210100Z 07007KT 15SM OVC018 01/M01 A2982 RMK SC8
                        SLP105=
201701210200 METAR CYOW 210200Z 07005KT 15SM OVC018 00/M02 A2982 RMK SC8
                        SLP103=
201701210300 METAR CYOW 210300Z 07004KT 15SM OVC019 00/M01 A2982 RMK SC8
                        SLP103=
201701210400 METAR CYOW 210400Z 06003KT 15SM OVC020 00/M01 A2982 RMK SC8
                        SLP105=
201701210500 METAR CYOW 210500Z 06004KT 15SM OVC020 00/M01 A2980 RMK SC8
                        SLP097=
201701210600 METAR CYOW 210600Z 07004KT 15SM OVC018 00/M01 A2979 RMK SC8
                        SLP094=
201701210700 METAR CYOW 210700Z 07004KT 15SM OVC018 00/M01 A2980 RMK SC8
                        SLP097=
201701210800 METAR CYOW 210800Z 07003KT 15SM OVC008 00/M01 A2980 RMK SC8
                        SLP098=
201701210900 METAR CYOW 210900Z 06004KT 8SM OVC005 00/M01 A2979 RMK SC8
                        SLP094=
201701210926 SPECI CYOW 210926Z 06004KT 3SM BR OVC005 M00/M01 A2978 RMK
                        SC8 SLP092=
201701210952 SPECI CYOW 210952Z 05005KT 1 3/4SM -SN BR OVC003 M00/M00
                        A2978 RMK SN1SF7 SLP091=
201701211000 METAR CYOW 211000Z CCA 05006KT 1 1/2SM -SN BR OVC002 M00/M00
                        A2978 RMK SN1ST7 SLP090=
201701211100 METAR CYOW 211100Z 06006KT 1 3/4SM BR OVC006 M00/M00 A2977
                        RMK SC8 SLP087=
201701211200 METAR CYOW 211200Z 05005KT 020V080 1 1/2SM BR OVC005 M00/M00
                        A2978 RMK FG3ST5 CIG VRB 3-6 SLP089=
201701211229 SPECI CYOW 211229Z 05004KT 1 1/4SM BR OVC003 M00/M00 A2978
                        RMK FG6ST2 CIG VRB 2-5 SLP090=
201701211253 SPECI CYOW 211253Z 05003KT 3/4SM R32/5500FT/D R07/4500VP6000FT/D
                        BR VV003 M00/M00 A2977 RMK FG8 SLP088=
201701211300 METAR CYOW 211300Z 06002KT 3/4SM R32/4500V5500FT/D R07/4500FT/N
                        BR VV003 M00/M00 A2978 RMK FG8 CIG
                        VRB 2-5 SLP090=
201701211317 SPECI CYOW 211317Z 04003KT 030V100 1 1/2SM R32/5000VP6000FT/U
                        R07/4000VP6000FT/U BR OVC003 M00/M00
                        A2978 RMK FG5ST3 CIG VRB 2-5 SLP090=
201701211400 METAR CYOW 211400Z 05003KT 350V060 2SM BR OVC003 00/M00 A2978
                        RMK FG2ST6 CIG VRB 2-5 SLP090=
201701211500 METAR CYOW 211500Z 00000KT 1 1/4SM R07/3500V5000FT/U BR OVC003
                        00/00 A2979 RMK FG6ST2 CIG VRB 2-5
                        SLP093=
201701211600 METAR CYOW 211600Z 05003KT 1 1/4SM R07/5500VP6000FT/D BR
                        OVC003 01/00 A2976 RMK FG6ST2 PRESFR
                        SLP083=
201701211700 METAR CYOW 211700Z 21005KT 2SM BR OVC003 01/01 A2976 RMK
                        FG2ST6 CIG VRB 2-5 SLP084=
201701211800 METAR CYOW 211800Z 25003KT 2SM BR OVC003 01/01 A2975 RMK
                        FG2ST6 SLP081=
201701211828 SPECI CYOW 211828Z 25003KT 4SM BR OVC004 01/01 A2973 RMK
                        ST8 CIG VRB 3-6 SLP075=
201701211900 METAR CYOW 211900Z 24004KT 3SM BR OVC003 01/01 A2974 RMK
                        ST8 SLP078=
201701212000 METAR CYOW 212000Z 26002KT 4SM BR OVC003 02/01 A2975 RMK
                        ST8 CIG VRB 2-5 SLP079=
201701212048 SPECI CYOW 212048Z 00000KT 4SM BR OVC005 02/01 A2975 RMK
                        ST8 SLP080=
201701212100 METAR CYOW 212100Z 22003KT 4SM BR BKN005 OVC018 02/01 A2975
                        RMK ST6SC2 SLP082=
201701212115 SPECI CYOW 212115Z 22003KT 5SM BR SCT005 OVC018 02/01 A2976
                        RMK ST3SC5 SLP085=
201701212200 METAR CYOW 212200Z 23003KT 4SM BR SCT008 OVC017 02/01 A2977
                        RMK ST4SC4 SLP088=
201701212219 SPECI CYOW 212219Z 26003KT 6SM BR BKN008 OVC015 02/01 A2978
                        RMK ST5SC3 SLP089=
201701212300 METAR CYOW 212300Z 29003KT 6SM BR BKN008 OVC017 02/02 A2978
                        RMK ST5SC3 SLP089=
201701212317 SPECI CYOW 212317Z 22004KT 6SM BR SCT010 OVC018 02/02 A2977
                        RMK ST3SC5 SLP088=
201701220000 METAR CYOW 220000Z 17004KT 4SM BR FEW010 OVC018 02/02 A2977
                        RMK ST2SC6 SLP088=
201701220011 SPECI CYOW 220011Z 00000KT 4SM BR FEW006 OVC018 01/01 A2977
                        RMK ST2SC6 SLP088=
201701220021 SPECI CYOW 220021Z 00000KT 4SM BR BKN006 OVC018 02/01 A2978
                        RMK ST5SC3 SLP089=
201701220100 METAR CYOW 220100Z 00000KT 4SM BR BKN008 OVC018 01/01 A2977
                        RMK ST5SC3 SLP088=
201701220136 SPECI CYOW 220136Z 20003KT 4SM BR FEW008 OVC018 02/02 A2976
                        RMK ST2SC6 SLP085=
201701220200 METAR CYOW 220200Z 16002KT 5SM BR SCT007 OVC019 02/02 A2977
                        RMK ST3SC5 SLP086=
201701220300 METAR CYOW 220300Z 00000KT 3SM BR BKN006 OVC019 01/01 A2978
                        RMK FG1ST4SC3 SLP091=
201701220321 SPECI CYOW 220321Z 00000KT 2 1/2SM BR BKN006 OVC020 01/01
                        A2978 RMK FG2ST4SC2 SLP089=
201701220400 METAR CYOW 220400Z 00000KT 2 1/2SM BR BKN007 OVC020 01/01
                        A2979 RMK FG2ST5SC1 SLP093=
201701220500 METAR CYOW 220500Z 12002KT 1 1/2SM R32/4000VP6000FT/U R07/2800VP6000FT/U
                        BR BKN006 OVC019 01/00 A2976 RMK
                        FG3ST3SC2 SLP085=
201701220512 SPECI CYOW 220512Z 00000KT 3/4SM R32/1800V2600FT/N R07/2800VP6000FT/D
                        BR BKN006 OVC020 01/01 A2977 RMK
                        FG4ST2SC2 VIS VRB 1/2-1 SLP086=
201701220600 METAR CYOW 220600Z 02003KT 1 1/2SM R32/4000VP6000FT/U BR
                        BKN005 OVC022 01/01 A2977 RMK FG4ST1SC3
                        VIS VRB 3/4-2 SLP087=
201701220632 SPECI CYOW 220632Z 04006KT 2 1/2SM BR SCT005 OVC023 01/01
                        A2976 RMK FG2ST1SC5 SLP085=
201701220700 METAR CYOW 220700Z 03006KT 2 1/2SM BR SCT023 OVC035 01/01
                        A2977 RMK FG2SC1SC5 SLP086=
201701220749 SPECI CYOW 220749Z 05007KT 2SM -RA BR OVC033 01/01 A2978
                        RMK FG3SC5 SLP090=
201701220800 METAR CYOW 220800Z 05006KT 2SM -RA BR OVC031 01/01 A2978
                        RMK FG3SC5 SLP090=
201701220900 METAR CYOW 220900Z 04006KT 2 1/2SM -RA BR OVC031 01/01 A2978
                        RMK FG1SC7 SLP089=
201701221000 METAR CYOW 221000Z 05008KT 3SM -RA BR BKN031 OVC045 01/01
                        A2978 RMK FG1SC4SC3 SLP089=
201701221037 SPECI CYOW 221037Z 07007KT 4SM -RA BR FEW004 OVC045 01/01
                        A2978 RMK ST2SC6 SLP089=
201701221047 SPECI CYOW 221047Z 05006KT 4SM -RA BR BKN004 OVC045 01/01
                        A2978 RMK ST5SC3 SLP090=
201701221100 METAR CYOW 221100Z 06008KT 5SM -RA BR BKN004 OVC045 01/01
                        A2978 RMK ST7SC1 SLP091=
201701221117 SPECI CYOW 221117Z 07007KT 4SM -RA BR OVC003 01/01 A2979
                        RMK ST8 SLP094=
201701221200 METAR CYOW 221200Z 06009KT 6SM -RA BR OVC003 01/00 A2980
                        RMK ST8 VRY LGT RA SLP098=
201701221216 SPECI CYOW 221216Z 06008KT 6SM -RA BR OVC005 00/00 A2981
                        RMK ST8 CIG 4-6 VRY LGT RA SLP101=
201701221227 SPECI CYOW 221227Z CCA 07009KT 6SM BR OVC004 00/M00 A2981
                        RMK ST8 CIG VRB 3-5 SLP101=
201701221300 METAR CYOW 221300Z 06010KT 4SM BR OVC004 00/M00 A2982 RMK
                        ST8 CIG VRB 3-5 SLP104=
201701221352 SPECI CYOW 221352Z 08010G16KT 8SM SCT009 BKN015 00/M00 A2983
                        RMK ST4SC3 SLP108=
201701221400 METAR CYOW 221400Z 07010KT 8SM FEW010 OVC015 00/M01 A2983
                        RMK ST2SC6 SLP109=
201701221500 METAR CYOW 221500Z 07012G18KT 15SM SCT015 OVC021 00/M01 A2983
                        RMK SC3SC5 SLP110=
201701221600 METAR CYOW 221600Z 06009KT 15SM BKN016 OVC025 01/M01 A2986
                        RMK SC6SC2 SLP118=
201701221700 METAR CYOW 221700Z 07004KT 15SM FEW015 BKN026 01/M02 A2988
                        RMK SC2SC5 SLP124=
201701221800 METAR CYOW 221800Z 08012KT 15SM SCT018 BKN038 02/M02 A2987
                        RMK SC3SC4 SLP120=
201701221900 METAR CYOW 221900Z 06016KT 15SM FEW010 FEW020 BKN040 02/M02
                        A2986 RMK SF1SC2SC5 SF TR SLP116=
201701222000 METAR CYOW 222000Z 07015G20KT 15SM SCT020 BKN040 02/M03 A2987
                        RMK SC3SC4 SLP121=
201701222100 METAR CYOW 222100Z 06015G25KT 15SM FEW020 FEW040 FEW160 SCT240
                        02/M03 A2986 RMK SC1SC1AC1CI1 SC
                        TR SLP119=
201701222200 METAR CYOW 222200Z 07013G20KT 15SM BKN025 BKN070 01/M03 A2988
                        RMK SC6AC1 SLP125=
201701222300 METAR CYOW 222300Z 07012G18KT 15SM BKN028 01/M03 A2990 RMK
                        SC7 SLP131=
201701230000 METAR CYOW 230000Z 07013G18KT 15SM BKN026 01/M03 A2992 RMK
                        SC7 SLP137=
201701230100 METAR CYOW 230100Z 06015KT 15SM OVC025 01/M03 A2992 RMK SC8
                        SLP139=
201701230200 METAR CYOW 230200Z 07012G22KT 15SM OVC026 01/M04 A2992 RMK
                        SC8 SLP137=
201701230300 METAR CYOW 230300Z 07017G27KT 15SM OVC027 00/M04 A2994 RMK
                        SC8 SLP146=
201701230400 METAR CYOW 230400Z 08017G24KT 15SM OVC025 M00/M04 A2995 RMK
                        SC8 SLP147=
201701230500 METAR CYOW 230500Z 06017G24KT 15SM OVC019 M01/M05 A2994 RMK
                        SC8 SLP145=
201701230600 METAR CYOW 230600Z 07017G26KT 15SM BKN018 OVC028 M01/M05
                        A2993 RMK SC7SC1 SLP142=
201701230700 METAR CYOW 230700Z 07018G27KT 15SM OVC016 M02/M05 A2994 RMK
                        SC8 SLP146=
201701230800 METAR CYOW 230800Z 07016G23KT 15SM OVC014 M02/M05 A2996 RMK
                        SC8 SLP152=
201701230900 METAR CYOW 230900Z 06016G21KT 15SM OVC013 M02/M04 A2997 RMK
                        SC8 SLP156=
201701230918 SPECI CYOW 230918Z 07012G17KT 15SM -SN OVC013 M02/M04 A2997
                        RMK SC8 SLP157=
201701231000 METAR CYOW 231000Z CCA 07016G24KT 6SM -FZDZ -SN OVC013 M03/M04
                        A2997 RMK SC8 SLP156=
201701231033 SPECI CYOW 231033Z 06015G21KT 4SM -FZDZ BR OVC011 M03/M04
                        A2996 RMK SF8 SLP154=
201701231048 SPECI CYOW 231048Z 07015KT 3SM -FZDZ BR OVC008 M03/M04 A2997
                        RMK FG1SF7 SLP155=
201701231100 METAR CYOW 231100Z 06014G21KT 3SM -FZDZ BR OVC008 M03/M04
                        A2997 RMK FG1SF7 SLP155=
201701231200 METAR CYOW 231200Z 07016G24KT 5SM -FZDZ BR OVC006 M03/M04
                        A2996 RMK SF8 FZDZ VRY LGT SLP153=
201701231220 SPECI CYOW 231220Z 07014G22KT 15SM OVC008 M03/M04 A2996 RMK
                        SF8 SLP153=
201701231237 SPECI CYOW 231237Z 06015G22KT 15SM FEW008 OVC013 M03/M04
                        A2996 RMK SF1SC7 SLP154=
201701231300 METAR CYOW 231300Z 07016G23KT 15SM OVC013 M02/M05 A2997 RMK
                        SC8 SLP156=
201701231400 METAR CYOW 231400Z 07014G21KT 15SM OVC012 M02/M05 A2998 RMK
                        SC8 SLP160=
201701231500 METAR CYOW 231500Z 08013G22KT 15SM OVC013 M02/M04 A2999 RMK
                        SC8 SLP164=
201701231600 METAR CYOW 231600Z 07015G24KT 15SM BKN015 OVC032 M02/M05
                        A2998 RMK SC5SC3 SLP158=
201701231700 METAR CYOW 231700Z 06020G26KT 15SM OVC014 M01/M05 A2996 RMK
                        SC8 SLP153=
201701231800 METAR CYOW 231800Z 07014G21KT 15SM BKN015 OVC033 M01/M04
                        A2996 RMK SC6SC2 SLP152=
201701231900 METAR CYOW 231900Z 06016KT 15SM OVC017 M01/M05 A2995 RMK
                        SC8 SLP149=
201701232000 METAR CYOW 232000Z 06019G24KT 15SM OVC024 M01/M05 A2995 RMK
                        SC8 SLP148=
201701232100 METAR CYOW 232100Z 06015G23KT 15SM OVC017 M02/M05 A2994 RMK
                        SC8 SLP147=
201701232200 METAR CYOW 232200Z 07016G25KT 15SM OVC022 M02/M06 A2994 RMK
                        SC8 SLP145=
201701232300 METAR CYOW 232300Z 07018G24KT 15SM OVC023 M02/M06 A2994 RMK
                        SC8 SLP146=
201701240000 METAR CYOW 240000Z 06018G24KT 15SM FEW025 FEW190 SCT200 M02/M06
                        A2994 RMK SC1AC1CI2 SLP147=
201701240100 METAR CYOW 240100Z 06017G22KT 15SM BKN200 M02/M07 A2995 RMK
                        CI5 SLP150=
201701240200 METAR CYOW 240200Z 06014KT 15SM BKN200 M03/M07 A2993 RMK
                        CI5 SLP144=
201701240300 METAR CYOW 240300Z 07012G19KT 15SM FEW200 M03/M07 A2993 RMK
                        CI2 SLP142=
201701240400 METAR CYOW 240400Z 07013KT 15SM SCT240 M03/M07 A2990 RMK
                        CI3 SLP134=
201701240500 METAR CYOW 240500Z 07013KT 15SM BKN160 OVC180 M03/M07 A2989
                        RMK AC6AC2 SLP128=
201701240600 METAR CYOW 240600Z 07013G20KT 15SM BKN140 OVC160 M03/M07
                        A2987 RMK AC5AC3 SLP122=
201701240700 METAR CYOW 240700Z 06014G20KT 15SM FEW070 BKN150 OVC160 M03/M08
                        A2985 RMK AC2AC4AC2 SLP114=
201701240800 METAR CYOW 240800Z 06016G22KT 15SM SCT045 BKN070 M03/M08
                        A2982 RMK SC4AC2 SLP106=
201701240900 METAR CYOW 240900Z 06017G23KT 15SM BKN042 M03/M08 A2980 RMK
                        SC7 SLP098=
201701241000 METAR CYOW 241000Z 06015G21KT 15SM OVC042 M02/M09 A2978 RMK
                        SC8 SLP090=
201701241100 METAR CYOW 241100Z 06014G20KT 15SM OVC041 M02/M09 A2976 RMK
                        SC8 SLP086=
201701241140 SPECI CYOW 241140Z 06012KT 15SM -SN OVC041 M02/M09 A2977
                        RMK SC8 SLP087=
201701241200 METAR CYOW 241200Z 06012G19KT 15SM -SN OVC041 M02/M08 A2976
                        RMK SC8 SLP086=
201701241300 METAR CYOW 241300Z 06012G19KT 10SM -SN OVC036 M03/M08 A2975
                        RMK SC8 SLP083=
201701241400 METAR CYOW 241400Z 06011G16KT 8SM -SN OVC037 M02/M05 A2975
                        RMK SC8 VRY LGT SN SLP082=
201701241438 SPECI CYOW 241438Z 05015KT 3SM -FZRA -PL OVC036 M03/M05 A2975
                        RMK SC8 SLP081=
201701241500 METAR CYOW 241500Z 05011G16KT 4SM -FZRA -PL OVC037 M03/M05
                        A2974 RMK SC8 SLP078=
201701241547 SPECI CYOW 241547Z 03011KT 4SM -SN FEW015 OVC026 M03/M04
                        A2972 RMK SC2SC6 SLP072=
201701241552 SPECI CYOW 241552Z 04011KT 2SM -SN SCT015 OVC021 M03/M04
                        A2972 RMK SN2SC1SC5 SLP071=
201701241600 METAR CYOW 241600Z 03011KT 2SM -SN SCT012 OVC022 M03/M04
                        A2972 RMK SN2SC1SC5 SLP070=
201701241614 SPECI CYOW 241614Z 03009KT 1 1/2SM -SN OVC010 M03/M04 A2971
                        RMK SN5SC3 SLP068=
201701241700 METAR CYOW 241700Z 02007KT 1 1/2SM R07/5500VP6000FT/N -SN
                        OVC010 M03/M04 A2968 RMK SN5SC3 /S01/
                        SLP059=
201701241721 SPECI CYOW 241721Z CCA 03005KT 1SM R32/6000FT/N R07/6000FT/D
                        -SN OVC011 M03/M04 A2967 RMK SN7SC1
                        SLP056=
201701241731 SPECI CYOW 241731Z 04003KT 3/4SM R32/5500VP6000FT/D R07/6000FT/N
                        -SN VV006 M03/M03 A2967 RMK SN8 SLP054=
201701241800 METAR CYOW 241800Z 01007KT 3/4SM R32/4500FT/N R07/4500FT/N
                        -SN VV006 M03/M03 A2965 RMK SN8 /S03/
                        SLP048=
201701241900 METAR CYOW 241900Z CCA 02005KT 3/4SM R32/5500FT/U R07/5500FT/U
                        -SN VV006 M03/M03 A2963 RMK SN8 /S01/
                        SLP041=
201701241942 SPECI CYOW 241942Z 03005KT 3SM -SN BKN013 OVC021 M02/M03
                        A2963 RMK SC6SC2 SLP040=
201701241954 SPECI CYOW 241954Z 06006KT 1SM R32/P6000FT/D R07/P6000FT/D
                        -SN OVC015 M02/M03 A2963 RMK SN6SC2
                        SLP042=
201701242000 METAR CYOW 242000Z 05006KT 1SM R32/P6000FT/U R07/P6000FT/U
                        -SN OVC015 M02/M03 A2963 RMK SN6SC2
                        SLP043=
201701242100 METAR CYOW 242100Z 06007KT 2SM -SN BKN015 OVC031 M02/M04
                        A2963 RMK SN2SC5SC1 /S02/ SLP041=
201701242108 SPECI CYOW 242108Z 06006KT 6SM -SN BKN015 OVC029 M02/M04
                        A2963 RMK SC5SC3 VRY LGT SN SLP040=
201701242133 SPECI CYOW 242133Z 06008KT 8SM -SN SCT015 OVC030 M02/M04
                        A2963 RMK SC4SC4 VRY LGT SN SLP040=
201701242200 METAR CYOW 242200Z 06009KT 10SM -SN SCT015 OVC031 M03/M04
                        A2963 RMK SC3SC5 VRY LGT SN SLP040=
201701242230 SPECI CYOW 242230Z 08005KT 15SM BKN029 M03/M04 A2963 RMK
                        SC7 SLP041=
201701242300 METAR CYOW 242300Z 07005KT 10SM -SN OVC027 M03/M04 A2963
                        RMK SC8 SLP040=
201701242350 SPECI CYOW 242350Z 06004KT 7SM -SN FEW009 OVC022 M03/M04
                        A2962 RMK SC2SC6 SLP038=
201701250000 METAR CYOW 250000Z 05004KT 8SM -SN OVC009 M03/M04 A2962 RMK
                        SC8 SLP038=
201701250033 SPECI CYOW 250033Z 06005KT 1 1/2SM -SN VV005 M03/M04 A2963
                        RMK SN8 SLP040=
201701250043 SPECI CYOW 250043Z 00000KT 7SM -SN BKN005 OVC020 M03/M04
                        A2963 RMK SF5SC3 VIS NW 2 SLP042=
201701250100 METAR CYOW 250100Z 06002KT 8SM -SN OVC006 M03/M04 A2963 RMK
                        SC8 CIG RAG VIS NW 3 SLP040=
201701250117 SPECI CYOW 250117Z 00000KT 7SM -FZDZ -SG OVC005 M03/M04 A2963
                        RMK ST8 SLP040=
201701250200 METAR CYOW 250200Z VRB02KT 4SM -FZDZ -SG BKN007 OVC020 M03/M04
                        A2962 RMK SF5SC3 SLP037=
201701250224 SPECI CYOW 250224Z VRB02KT 4SM -SG BR FEW003 OVC017 M03/M04
                        A2961 RMK SC1SC8 SC TR SLP036=
201701250300 METAR CYOW 250300Z 25005KT 4SM -SG BR OVC015 M03/M04 A2961
                        RMK SC8 SLP035=
201701250348 SPECI CYOW 250348Z 27004KT 4SM -SN BR FEW008 OVC050 M03/M04
                        A2960 RMK SC1SC8 SC TR SLP031=
201701250400 METAR CYOW 250400Z 26004KT 4SM -SN BR OVC050 M03/M04 A2960
                        RMK SC8 SLP031=
201701250500 METAR CYOW 250500Z 25006KT 4SM -SN BR SCT003 OVC020 M03/M04
                        A2959 RMK SF3SC5 SLP028=
201701250539 SPECI CYOW 250539Z 27005KT 8SM BKN003 OVC020 M03/M04 A2959
                        RMK SC6SC2 SLP027=
201701250600 METAR CYOW 250600Z CCA 28006KT 8SM OVC003 M03/M04 A2959 RMK
                        ST8 /S01/ SLP028=
201701250700 METAR CYOW 250700Z 26007KT 7SM OVC003 M03/M04 A2959 RMK ST8
                        SLP028=
201701250800 METAR CYOW 250800Z 27006KT 15SM BKN004 OVC020 M03/M04 A2959
                        RMK SC7SC1 SLP026=
201701250900 METAR CYOW 250900Z 25004KT 8SM OVC005 M04/M04 A2958 RMK SC8
                        SLP022=
201701251000 METAR CYOW 251000Z 25006KT 8SM OVC005 M03/M04 A2958 RMK SC8
                        SLP025=
201701251100 METAR CYOW 251100Z 25009KT 8SM OVC005 M03/M04 A2958 RMK SC8
                        SLP023=
201701251200 METAR CYOW 251200Z 26009KT 4SM BR OVC005 M03/M04 A2958 RMK
                        SC8 SLP023=
201701251300 METAR CYOW 251300Z 25007KT 4SM BR OVC006 M03/M04 A2957 RMK
                        SC8 SLP021=
201701251400 METAR CYOW 251400Z 24008KT 15SM OVC007 M03/M04 A2958 RMK
                        SC8 SLP025=
201701251500 METAR CYOW 251500Z 25011KT 15SM OVC009 M03/M04 A2958 RMK
                        SC8 SLP025=
201701251520 SPECI CYOW 251520Z 26011G16KT 15SM BKN013 OVC060 M02/M04
                        A2958 RMK SC7SC1 SLP024=
201701251532 SPECI CYOW 251532Z 26009G16KT 15SM SCT013 BKN036 BKN060 M02/M04
                        A2958 RMK SC3SC2SC1 SLP025=
201701251600 METAR CYOW 251600Z 27012KT 15SM SCT013 BKN035 M02/M04 A2957
                        RMK SC3SC4 SLP020=
201701251700 METAR CYOW 251700Z 27006KT 15SM SCT014 BKN035 M01/M04 A2955
                        RMK SC4SC3 SLP015=
201701251800 METAR CYOW 251800Z 23008KT 15SM SCT018 BKN030 M01/M04 A2953
                        RMK SC4SC3 SLP006=
201701251900 METAR CYOW 251900Z 22008KT 15SM BKN019 M00/M03 A2952 RMK
                        SC7 SLP003=
201701252000 METAR CYOW 252000Z 22008KT 15SM OVC018 M00/M03 A2952 RMK
                        SC8 SLP004=
201701252100 METAR CYOW 252100Z 21004KT 15SM OVC021 00/M03 A2952 RMK SC8
                        SLP002=
201701252200 METAR CYOW 252200Z 21004KT 15SM OVC016 00/M02 A2952 RMK SC8
                        SLP003=
201701252300 METAR CYOW 252300Z 20003KT 15SM OVC017 00/M02 A2951 RMK SC8
                        SLP001=
201701260000 METAR CYOW 260000Z 14004KT 15SM OVC019 M00/M02 A2949 RMK
                        SC8 SLP993=
201701260100 METAR CYOW 260100Z 17004KT 15SM OVC017 00/M01 A2948 RMK NS8
                        SLP988=
201701260154 SPECI CYOW 260154Z 20006KT 8SM -SN OVC014 01/M01 A2946 RMK
                        NS8 SLP984=
201701260200 METAR CYOW 260200Z 20007KT 6SM -SN OVC014 01/M01 A2947 RMK
                        NS8 SLP985=
201701260219 SPECI CYOW 260219Z 20007KT 2SM -SN SCT003 OVC013 00/M00 A2947
                        RMK SN1SF3NS4 SLP985=
201701260253 SPECI CYOW 260253Z 21006KT 5SM -SN BR OVC013 00/M00 A2946
                        RMK NS8 VRY LGT SN SLP982=
201701260300 METAR CYOW 260300Z 21007KT 6SM -SN BR OVC012 00/M00 A2946
                        RMK NS8 SLP981=
201701260327 SPECI CYOW 260327Z 20006KT 4SM -SN BR SCT004 OVC013 00/M00
                        A2945 RMK SF3NS5 SLP978=
201701260342 SPECI CYOW 260342Z 20006KT 1 1/2SM -SN BR VV003 00/00 A2944
                        RMK SN8 SLP977=
201701260400 METAR CYOW 260400Z 21005KT 1SM R32/P6000FT/N R07/P6000FT/D
                        -SN BR VV002 00/M00 A2944 RMK SN8
                        SLP977=
201701260411 SPECI CYOW 260411Z 22005KT 4SM -SN BR OVC003 00/00 A2944
                        RMK NS8 SLP975=
201701260500 METAR CYOW 260500Z 20002KT 4SM -SN BR OVC003 00/00 A2940
                        RMK NS8 SLP964=
201701260553 SPECI CYOW 260553Z 19003KT 4SM BR OVC003 00/00 A2938 RMK
                        NS8 SLP957=
201701260600 METAR CYOW 260600Z 19004KT 4SM BR OVC002 00/00 A2938 RMK
                        ST8 SLP956=
201701260646 SPECI CYOW 260646Z 20003KT 4SM BR FEW002 SCT013 OVC020 00/00
                        A2936 RMK SF1SC2SC5 SLP948=
201701260700 METAR CYOW 260700Z 20003KT 4SM BR SCT002 BKN020 OVC050 00/00
                        A2935 RMK SF3SC3SC2 SLP946=
201701260714 SPECI CYOW 260714Z 23002KT 4SM -SN BR OVC003 00/00 A2935
                        RMK SF8 SLP946=
201701260741 SPECI CYOW 260741Z 21003KT 1 1/2SM -SN BR OVC003 00/00 A2935
                        RMK SN1NS7 SLP944=
201701260800 METAR CYOW 260800Z 21003KT 1 1/2SM -SN BR OVC002 00/00 A2934
                        RMK SN1NS7 SLP942=
201701260900 METAR CYOW 260900Z 18005KT 1 1/2SM -SN BR OVC002 00/M00 A2932
                        RMK SN1NS7 SLP935=
201701261000 METAR CYOW 261000Z 21004KT 2SM -SN BR OVC002 00/00 A2930
                        RMK FG1NS7 VRY LGT SN SLP928=
201701261100 METAR CYOW 261100Z 23005KT 2 1/2SM -SN BR SCT009 OVC020 00/00
                        A2929 RMK SC4SC4 SLP926=
201701261144 SPECI CYOW 261144Z 23004KT 2 1/2SM -SN BKN002 OVC012 00/00
                        A2929 RMK FG2SF4SC2 VRY LGT SN SLP925=
201701261200 METAR CYOW 261200Z 24004KT 2 1/2SM -SN BKN003 OVC010 00/00
                        A2929 RMK FG1SF4SC3 VRY LGT SN SLP926=
201701261300 METAR CYOW 261300Z CCA 27007KT 4SM -SN BKN004 OVC037 01/00
                        A2930 RMK ST7SC1 VRY LGT SN SLP928=
201701261400 METAR CYOW 261400Z 27007KT 8SM -SN BKN004 OVC045 00/M00 A2929
                        RMK SF5SC3 SLP925=
201701261409 SPECI CYOW 261409Z 28008KT 8SM -SN SCT005 OVC049 01/M00 A2929
                        RMK SF3SC5 SLP924=
201701261417 SPECI CYOW 261417Z 27008KT 2 1/2SM -SN BKN007 OVC030 01/M00
                        A2929 RMK SN2ST5SC1 SLP925=
201701261500 METAR CYOW 261500Z 27007KT 2 1/2SM -SN OVC008 00/M00 A2929
                        RMK SN1ST7 SLP924=
201701261600 METAR CYOW 261600Z 28009KT 2 1/2SM -SN OVC008 00/M01 A2928
                        RMK SN1ST7 /S01/ SLP920=
201701261700 METAR CYOW 261700Z 28010G16KT 2SM -SN OVC007 M00/M01 A2926
                        RMK SN2ST6 SLP914=
201701261741 SPECI CYOW 261741Z 29012G18KT 15SM OVC016 M00/M02 A2925 RMK
                        SC8 SLP911=
201701261800 METAR CYOW 261800Z 30012KT 15SM OVC017 M00/M02 A2925 RMK
                        SC8 SLP910=
201701261900 METAR CYOW 261900Z 30016KT 15SM OVC026 M00/M03 A2926 RMK
                        SC8 SLP913=
201701262000 METAR CYOW 262000Z 28011KT 15SM FEW015 BKN025 OVC100 M00/M03
                        A2927 RMK SF1SC6AC1 SLP918=
201701262100 METAR CYOW 262100Z 27012G18KT 15SM SCT025 OVC081 M00/M03
                        A2929 RMK SC3AC5 SLP924=
201701262200 METAR CYOW 262200Z 27010G15KT 15SM FEW020 OVC090 M00/M03
                        A2931 RMK SC2AC6 SLP931=
201701262300 METAR CYOW 262300Z 27013KT 15SM FEW025 OVC076 00/M03 A2932
                        RMK SC1AC7 SLP936=
201701270000 METAR CYOW 270000Z 26014KT 15SM BKN030 OVC080 00/M03 A2933
                        RMK SC5AC3 SLP938=
201701270100 METAR CYOW 270100Z 25012G19KT 15SM FEW024 BKN033 OVC100 00/M03
                        A2933 RMK SC1SC5AC2 SLP939=
201701270200 METAR CYOW 270200Z 25010G16KT 15SM FEW020 OVC100 00/M02 A2933
                        RMK SC2AC6 SLP939=
201701270300 METAR CYOW 270300Z 26012KT 15SM FEW022 OVC097 00/M02 A2933
                        RMK SC2AC6 SLP939=
201701270400 METAR CYOW 270400Z 26015G21KT 15SM FEW023 OVC100 00/M02 A2934
                        RMK SC2AC6 SLP940=
201701270500 METAR CYOW 270500Z 27016G23KT 15SM SCT025 OVC094 01/M03 A2934
                        RMK SC3AC5 SLP942=
201701270600 METAR CYOW 270600Z 26017KT 15SM BKN027 OVC100 00/M04 A2934
                        RMK SC7AC1 SLP943=
201701270700 METAR CYOW 270700Z 26017KT 15SM BKN034 00/M03 A2935 RMK SC7
                        SLP944=
201701270800 METAR CYOW 270800Z 25017G24KT 15SM OVC030 00/M03 A2935 RMK
                        SC8 SLP946=
201701270900 METAR CYOW 270900Z 27020G25KT 14SM SCT032 OVC044 00/M04 A2937
                        RMK SC3SC5 SLP951=
201701270949 SPECI CYOW 270949Z 26013KT 15SM -SN OVC023 M00/M04 A2937
                        RMK SC8 SLP953=
201701271000 METAR CYOW 271000Z 26014G21KT 15SM -SN OVC022 M00/M04 A2937
                        RMK SC8 SLP953=
201701271018 SPECI CYOW 271018Z 26017KT 15SM OVC026 M01/M05 A2937 RMK
                        SC8 SLP954=
201701271100 METAR CYOW 271100Z 26011G20KT 15SM OVC027 M01/M05 A2939 RMK
                        SC8 SLP958=
201701271200 METAR CYOW 271200Z 26017KT 15SM OVC031 M01/M06 A2939 RMK
                        SC8 SLP958=
201701271300 METAR CYOW 271300Z 26014KT 15SM OVC029 M01/M06 A2940 RMK
                        SC8 SLP963=
201701271400 METAR CYOW 271400Z 25018G23KT 15SM OVC029 M01/M06 A2942 RMK
                        SC8 SLP968=
201701271500 METAR CYOW 271500Z 25016G23KT 15SM OVC029 M01/M06 A2941 RMK
                        SC8 SLP967=
201701271600 METAR CYOW 271600Z 25021G26KT 15SM OVC028 M01/M06 A2940 RMK
                        SC8 SLP964=
201701271700 METAR CYOW 271700Z 25016G25KT 15SM OVC034 M01/M06 A2938 RMK
                        SC8 SLP956=
201701271800 METAR CYOW 271800Z 27021KT 15SM -SN OVC021 M01/M05 A2937
                        RMK SC8 SLP951=
201701271816 SPECI CYOW 271816Z 26017G22KT 2 1/2SM -SN OVC018 M01/M04
                        A2936 RMK SN1SC7 SLP950=
201701271900 METAR CYOW 271900Z 26013KT 2 1/2SM -SN OVC023 M01/M03 A2936
                        RMK SN1SC7 SLP948=
201701272000 METAR CYOW 272000Z 26015G21KT 2SM -SN OVC023 M01/M03 A2936
                        RMK SN2SC6 SLP948=
201701272100 METAR CYOW 272100Z 26012G17KT 1 1/2SM -SN OVC015 M01/M02
                        A2937 RMK SN4SC4 /S01/ SLP954=
201701272200 METAR CYOW 272200Z 27015KT 1 1/2SM -SN OVC015 M01/M03 A2939
                        RMK SN5SC3 SLP958=
201701272230 SPECI CYOW 272230Z 27015G25KT 8SM -SN FEW015 BKN032 OVC041
                        M02/M03 A2939 RMK SC2SC4SC2 SLP959=
201701272300 METAR CYOW 272300Z 26015G21KT 10SM -SN OVC037 M02/M03 A2940
                        RMK SC8 VRY LGT SN SLP961=
201701280000 METAR CYOW 280000Z 27012KT 4SM -SN OVC010 M02/M03 A2941 RMK
                        SC8 /S02/ SLP966=
201701280041 SPECI CYOW 280041Z 27016KT 10SM -SN FEW050 OVC060 M02/M04
                        A2942 RMK SC2SC6 SLP969=
201701280100 METAR CYOW 280100Z 27015KT 10SM -SN FEW015 SCT025 OVC060
                        M02/M04 A2943 RMK SC1SC2SC5 SLP971=
201701280200 METAR CYOW 280200Z 28018KT 10SM -SN FEW025 OVC058 M02/M05
                        A2943 RMK SC2SC6 SLP974=
201701280220 SPECI CYOW 280220Z 28013G20KT 15SM OVC060 M02/M05 A2944 RMK
                        SC8 SLP975=
201701280300 METAR CYOW 280300Z 27015G20KT 15SM FEW025 BKN058 M02/M06
                        A2944 RMK SC1SC7 SC TR SLP975=
201701280400 METAR CYOW 280400Z 27010KT 15SM SCT030 BKN072 M02/M06 A2944
                        RMK SC3AC3 SLP977=
201701280500 METAR CYOW 280500Z 27012KT 15SM FEW030 BKN068 M02/M06 A2944
                        RMK SC1AC5 SLP976=
201701280600 METAR CYOW 280600Z 26011KT 15SM FEW030 BKN078 M02/M06 A2944
                        RMK SC1AC6 SLP976=
201701280700 METAR CYOW 280700Z 26013G18KT 15SM FEW025 BKN074 M02/M06
                        A2945 RMK SC2AC5 SLP979=
201701280741 SPECI CYOW 280741Z 28015KT 10SM -SN SCT040 OVC074 M02/M06
                        A2947 RMK SC4AC4 SLP987=
201701280800 METAR CYOW 280800Z 28012KT 15SM FEW025 SCT110 M03/M06 A2947
                        RMK SC2AC1 SLP986=
201701280900 METAR CYOW 280900Z 24009KT 15SM BKN110 M04/M07 A2947 RMK
                        AC6 SLP988=
201701281000 METAR CYOW 281000Z 24008KT 15SM SCT120 M05/M07 A2947 RMK
                        AC3 SLP987=
201701281100 METAR CYOW 281100Z 23007KT 15SM BKN110 M06/M08 A2948 RMK
                        AC6 SLP989=
201701281200 METAR CYOW 281200Z 24005KT 15SM FEW030 BKN100 M06/M08 A2948
                        RMK SC2AC5 SLP990=
201701281300 METAR CYOW 281300Z 23004KT 12SM OVC020 M05/M07 A2948 RMK
                        SC8 SLP991=
201701281400 METAR CYOW 281400Z 23007KT 12SM -SN OVC033 M03/M06 A2949
                        RMK SC8 SLP992=
201701281500 METAR CYOW 281500Z 23007KT 10SM -SN OVC020 M02/M04 A2949
                        RMK SC8 SLP994=
201701281518 SPECI CYOW 281518Z 24006KT 3SM -SN OVC020 M02/M04 A2949 RMK
                        SC8 SLP994=
201701281532 SPECI CYOW 281532Z 23007KT 2SM -SN OVC020 M02/M04 A2949 RMK
                        SN3SC5 SLP995=
201701281600 METAR CYOW 281600Z 23007KT 2SM -SN BKN012 OVC020 M01/M03
                        A2949 RMK SN3SF2SC3 SLP995=
201701281634 SPECI CYOW 281634Z 23008G15KT 3SM -SN BKN010 OVC020 M01/M02
                        A2948 RMK SN3SF3SC2 SLP991=
201701281700 METAR CYOW 281700Z 23008KT 3SM -SN BKN010 OVC020 M01/M02
                        A2948 RMK SN3SF2SC3 SLP988=
201701281800 METAR CYOW 281800Z 22007G15KT 4SM -SN SCT010 OVC033 M01/M03
                        A2946 RMK SF3SC5 SLP983=
201701281900 METAR CYOW 281900Z 23013KT 8SM -SN SCT012 OVC036 M00/M03
                        A2946 RMK SF3SC5 SLP981=
201701282000 METAR CYOW 282000Z 23010KT 8SM -SN OVC023 00/M04 A2946 RMK
                        SC8 SLP983=
201701282100 METAR CYOW 282100Z 23009G15KT 10SM OVC027 M00/M04 A2946 RMK
                        SC8 SLP985=
201701282200 METAR CYOW 282200Z 22008KT 12SM OVC028 M00/M04 A2947 RMK
                        SC8 SLP988=
201701282300 METAR CYOW 282300Z 20008KT 12SM OVC025 M01/M04 A2948 RMK
                        SC8 SLP991=
201701290000 METAR CYOW 290000Z 20007KT 15SM BKN020 OVC035 M01/M04 A2949
                        RMK SC7SC1 SLP992=
201701290100 METAR CYOW 290100Z 21008KT 15SM BKN025 BKN060 M01/M04 A2948
                        RMK SC6SC1 SLP990=
201701290200 METAR CYOW 290200Z 21010KT 15SM FEW025 SCT060 BKN110 M01/M04
                        A2947 RMK SC1SC3AC3 SLP988=
201701290240 SPECI CYOW 290240Z 21010KT 15SM -SN BKN052 OVC075 M01/M04
                        A2948 RMK SC7AC1 SLP989=
201701290300 METAR CYOW 290300Z 21010KT 15SM -SN BKN037 OVC060 M01/M04
                        A2948 RMK SC7SC1 SLP990=
201701290400 METAR CYOW 290400Z 21011KT 3SM -SN BKN015 OVC032 M02/M04
                        A2948 RMK SC5SC3 SLP988=
201701290441 SPECI CYOW 290441Z 21011KT 3SM -SN BKN012 OVC027 M02/M03
                        A2948 RMK SC5SC3 SLP988=
201701290500 METAR CYOW 290500Z 22009KT 3SM -SN BKN014 OVC025 M02/M03
                        A2947 RMK SC5SC3 /S01/ SLP987=
201701290600 METAR CYOW 290600Z 22008KT 4SM -SN BKN013 OVC021 M02/M03
                        A2946 RMK SC5SC3 SLP984=
201701290700 METAR CYOW 290700Z 21006KT 3SM -SN OVC011 M02/M03 A2946 RMK
                        SC8 SLP982=
201701290800 METAR CYOW 290800Z 25007KT 200V280 3SM -SN OVC014 M02/M03
                        A2946 RMK SC8 SLP984=
201701290900 METAR CYOW 290900Z 28010KT 8SM -SN BKN014 OVC060 M03/M04
                        A2948 RMK SC5SC3 SLP988=
201701290917 SPECI CYOW 290917Z 28011KT 10SM -SN SCT015 OVC037 M03/M05
                        A2948 RMK SC3SC5 SLP990=
201701290937 SPECI CYOW 290937Z 28009KT 10SM FEW015 BKN040 OVC120 M04/M06
                        A2949 RMK SC2SC3AC3 SLP992=
201701291000 METAR CYOW 291000Z 27008KT 10SM FEW015 BKN042 OVC100 M04/M06
                        A2949 RMK SC2SC4AC2 SLP995=
201701291100 METAR CYOW 291100Z 25006KT 15SM SCT023 BKN085 M06/M07 A2951
                        RMK SC3AC2 SLP000=
201701291200 METAR CYOW 291200Z 28005KT 15SM BKN024 BKN140 M07/M08 A2952
                        RMK SC5AC2 SLP005=
201701291300 METAR CYOW 291300Z 27005KT 15SM BKN024 M06/M07 A2954 RMK
                        SC6 SLP011=
201701291400 METAR CYOW 291400Z 27003KT 15SM OVC025 M06/M07 A2956 RMK
                        SC8 SLP017=
201701291416 SPECI CYOW 291416Z 25004KT 8SM -SN OVC025 M05/M07 A2956 RMK
                        SC8 SLP017=
201701291440 SPECI CYOW 291440Z 29004KT 2SM -SN OVC022 M05/M07 A2956 RMK
                        SC8 SLP018=
201701291500 METAR CYOW 291500Z 30004KT 1 1/2SM -SN OVC020 M05/M06 A2957
                        RMK SC8 SLP020=
201701291535 SPECI CYOW 291535Z 29003KT 1SM R32/P6000FT/N R07/P6000FT/N
                        -SN OVC012 M05/M06 A2958 RMK SC8
                        SLP022=
201701291600 METAR CYOW 291600Z 27002KT 1SM R32/P6000FT/N R07/P6000FT/N
                        -SN OVC012 M04/M06 A2958 RMK SC8
                        /S01/ SLP025=
201701291648 SPECI CYOW 291648Z 05003KT 2SM -SN OVC010 M04/M06 A2958 RMK
                        SC8 SLP024=
201701291700 METAR CYOW 291700Z 04002KT 2 1/2SM -SN OVC012 M04/M06 A2958
                        RMK SC8 SLP023=
201701291736 SPECI CYOW 291736Z 00000KT 3/4SM R32/P6000FT/N R07/P6000FT/N
                        -SN SCT012 OVC022 M04/M06 A2958 RMK
                        SF4SC4 SLP023=
201701291800 METAR CYOW 291800Z 31003KT 270V330 3/4SM R32/P6000FT/N R07/P6000FT/N
                        -SN OVC012 M04/M06 A2958 RMK SN4SF4
                        /S02/ SLP022=
201701291816 SPECI CYOW 291816Z 30003KT 2SM -SN OVC012 M04/M06 A2958 RMK
                        SN2SF6 SLP023=
201701291830 SPECI CYOW 291830Z 32002KT 5SM -SN SCT012 OVC042 M04/M06
                        A2958 RMK SF4SC4 SLP022=
201701291900 METAR CYOW 291900Z 31003KT 3SM -SN OVC013 M04/M06 A2958 RMK
                        SN1SF7 SLP025=
201701292000 METAR CYOW 292000Z 31004KT 8SM -SN SCT012 OVC057 M04/M06
                        A2959 RMK SF3SC5 SLP028=
201701292100 METAR CYOW 292100Z 29008KT 3SM -SN OVC012 M04/M06 A2961 RMK
                        SC8 SLP035=
201701292114 SPECI CYOW 292114Z 29012KT 2SM -SN OVC012 M04/M06 A2962 RMK
                        SN2SC6 SLP037=
201701292152 SPECI CYOW 292152Z CCA 29011G16KT 10SM -SN SCT012 BKN051
                        M05/M08 A2964 RMK SC3SC4 SLP044=
201701292200 METAR CYOW 292200Z 29015KT 10SM -SN FEW012 BKN060 M06/M08
                        A2964 RMK SC2SC5 SLP045=
201701292219 SPECI CYOW 292219Z 29011G17KT 10SM FEW015 BKN064 M06/M08
                        A2965 RMK SC1SC6 SLP047=
201701292300 METAR CYOW 292300Z 28011KT 15SM BKN065 M06/M09 A2966 RMK
                        SC7 SLP054=
201701300000 METAR CYOW 300000Z 28012KT 15SM OVC070 M07/M10 A2969 RMK
                        AC8 SLP061=
201701300100 METAR CYOW 300100Z 28008KT 15SM SCT055 BKN080 BKN130 M08/M10
                        A2970 RMK SC4AC2AC1 SLP065=
201701300132 SPECI CYOW 300132Z 28008KT 10SM -SN BKN055 BKN080 OVC130
                        M08/M11 A2970 RMK SC5AC2AC1 SLP067=
201701300200 METAR CYOW 300200Z 29009KT 10SM -SN BKN055 BKN100 OVC130
                        M08/M11 A2971 RMK SC6AC1AC1 SLP068=
201701300300 METAR CYOW 300300Z 29009KT 8SM -SN BKN055 OVC100 M09/M11
                        A2971 RMK SC5AC3 SLP070=
201701300400 METAR CYOW 300400Z 29008KT 8SM -SN FEW032 BKN050 OVC100 M09/M12
                        A2972 RMK SC1SC4AC3 SLP074=
201701300500 METAR CYOW 300500Z 31009KT 10SM -SN FEW017 OVC050 M09/M13
                        A2973 RMK SC1SC7 SLP076=
201701300600 METAR CYOW 300600Z 29009KT 15SM -SN FEW017 OVC045 M11/M14
                        A2974 RMK SC1SC7 SLP079=
201701300700 METAR CYOW 300700Z 29009KT 15SM -SN BKN040 M13/M16 A2974
                        RMK SC6 SLP081=
201701300722 SPECI CYOW 300722Z 29008KT 15SM BKN040 M13/M16 A2975 RMK
                        SC5 SLP082=
201701300800 METAR CYOW 300800Z 29008KT 15SM FEW040 M14/M17 A2975 RMK
                        SC2 SLP084=
201701300900 METAR CYOW 300900Z 29008KT 15SM FEW040 M15/M18 A2976 RMK
                        SC1 SC TR FROIN SLP087=
201701301000 METAR CYOW 301000Z 29010KT 15SM SKC M15/M18 A2976 RMK FROIN
                        SLP089=
201701301100 METAR CYOW 301100Z 28007KT 15SM SKC M16/M18 A2977 RMK FROIN
                        SLP092=
201701301200 METAR CYOW 301200Z 29004KT 15SM FEW040 FEW080 M17/M19 A2979
                        RMK SC1AC1 SC TR SLP098=
201701301300 METAR CYOW 301300Z 28007KT 15SM FEW040 FEW110 M17/M19 A2981
                        RMK SC1AC2 SC TR SLP104=
201701301400 METAR CYOW 301400Z 30008KT 15SM FEW110 M16/M19 A2982 RMK
                        AC1 SLP109=
201701301500 METAR CYOW 301500Z 30009KT 15SM FEW025 FEW100 M15/M18 A2984
                        RMK SC1AC1 SC TR AC TR SLP114=
201701301600 METAR CYOW 301600Z 31008KT 15SM FEW025 FEW100 M13/M18 A2984
                        RMK SC1AC1 SC TR AC TR SLP115=
201701301700 METAR CYOW 301700Z 25008KT 15SM FEW025 BKN080 M12/M17 A2983
                        RMK SC1AC5 SC TR SLP111=
201701301800 METAR CYOW 301800Z 25010KT 15SM FEW040 BKN080 BKN120 M12/M17
                        A2983 RMK SC2AC3AC1 SLP112=
201701301900 METAR CYOW 301900Z 27011KT 15SM VCSH FEW043 SCT080 M12/M18
                        A2983 RMK SC1AC2 SH NNE SLP113=
201701302000 METAR CYOW 302000Z 24011KT 15SM FEW035 FEW080 M11/M17 A2984
                        RMK SC1AC1 SLP117=
201701302100 METAR CYOW 302100Z 28010KT 15SM FEW030 SCT080 M11/M18 A2986
                        RMK SC2AC1 SLP123=
201701302200 METAR CYOW 302200Z 26008KT 15SM FEW030 FEW080 M12/M18 A2988
                        RMK SC1AC1 SC TR AC TR SLP129=
201701302300 METAR CYOW 302300Z 26006KT 15SM FEW030 FEW080 M14/M19 A2990
                        RMK SC1AC1 SC TR AC TR SLP135=
201701310000 METAR CYOW 310000Z 26004KT 15SM FEW080 M14/M18 A2991 RMK
                        AC1 SLP139=
201701310100 METAR CYOW 310100Z 25005KT 15SM FEW080 M16/M20 A2991 RMK
                        AC1 AC TR SLP140=
201701310200 METAR CYOW 310200Z 21005KT 15SM SKC M16/M18 A2991 RMK SLP140=
201701310300 METAR CYOW 310300Z 21003KT 15SM SKC M18/M20 A2991 RMK SLP141=
201701310400 METAR CYOW 310400Z 22004KT 15SM SKC M17/M19 A2991 RMK SLP141=
201701310500 METAR CYOW 310500Z 19002KT 15SM SKC M18/M20 A2991 RMK SLP141=
201701310600 METAR CYOW 310600Z 24002KT 15SM SKC M18/M19 A2991 RMK SLP140=
201701310700 METAR CYOW 310700Z 00000KT 15SM SKC M18/M20 A2991 RMK FROIN
                        SLP141=
201701310800 METAR CYOW 310800Z 06002KT 15SM SKC M21/M24 A2990 RMK FROIN
                        SLP137=
201701310900 METAR CYOW 310900Z 11002KT 15SM SKC M20/M22 A2988 RMK FROIN
                        SLP131=
201701311000 METAR CYOW 311000Z CCA 00000KT 10SM SCT003 M19/M21 A2988
                        RMK SF4 FROIN SLP129=
201701311034 SPECI CYOW 311034Z CCA 09003KT 3SM BR OVC002 M19/M21 A2987
                        RMK SF8 FROIN SLP127=
201701311100 METAR CYOW 311100Z 06004KT 5SM BR BKN003 M18/M21 A2987 RMK
                        SF6 FROIN SLP127=
201701311200 METAR CYOW 311200Z 10004KT 8SM SCT003 M20/M22 A2987 RMK ST4
                        VSB E 1 1/2 SLP128=
201701311219 SPECI CYOW 311219Z 07003KT 1 1/2SM BR SCT002 M20/M22 A2987
                        RMK FG2ST2 SLP128=
201701311223 SPECI CYOW 311223Z 07003KT 6SM BR SCT002 M20/M22 A2987 RMK
                        ST3 SLP128=
201701311228 SPECI CYOW 311228Z 06004KT 3/4SM R32/P6000FT/D R07/P6000FT/D
                        BR SKC M20/M22 A2987 RMK FG3 SLP127=
201701311234 SPECI CYOW 311234Z 06005KT 4SM BR FEW001 M21/M23 A2987 RMK
                        ST1 SLP128=
201701311300 METAR CYOW 311300Z 06005KT 8SM R07/3000VP6000FT/D FEW001
                        M21/M23 A2987 RMK ST1 SLP129=
201701311400 METAR CYOW 311400Z 07003KT 15SM FEW020 M18/M20 A2988 RMK
                        SC1 SC TR SLP131=
201701311500 METAR CYOW 311500Z 07005KT 15SM FEW020 M16/M18 A2988 RMK
                        SC1 SC TR SLP130=
201701311600 METAR CYOW 311600Z 06005KT 15SM FEW020 M13/M15 A2987 RMK
                        SC1 SC TR SLP126=
201701311700 METAR CYOW 311700Z 07007KT 15SM FEW020 M12/M16 A2985 RMK
                        SC1 SC TR SLP119=
201701311800 METAR CYOW 311800Z CCA 07006KT 15SM FEW080 FEW160 SCT250
                        M09/M16 A2982 RMK AC1AC1CI2 AC TR
                        SLP109=
201701311900 METAR CYOW 311900Z 03009KT 15SM FEW160 SCT250 M09/M16 A2980
                        RMK AC1CI4 AC TR SLP101=
201701312000 METAR CYOW 312000Z 05009KT 15SM FEW160 FEW220 SCT240 M09/M15
                        A2978 RMK AC1CI1CI3 AC TR SLP098=
201701312100 METAR CYOW 312100Z 06010KT 15SM FEW220 BKN240 M09/M16 A2979
                        RMK CI2CI4 SLP101=
201701312200 METAR CYOW 312200Z 05009KT 15SM SCT047 BKN220 M10/M16 A2981
                        RMK SC4CI2 SLP105=
201701312300 METAR CYOW 312300Z 06009KT 15SM BKN051 BKN220 M10/M16 A2981
                        RMK SC5CI1 SLP107=

# No short TAF reports from CYOW in databse.

###################################
#  large TAF from CYOW
###################################
201701010238 TAF CYOW 010238Z 0103/0124 07009KT 1SM -SN OVC005
                      TEMPO 0103/0106 3SM -SN OVC012 FM010600 21010G20KT
                       6SM -SN BKN030
                      TEMPO 0106/0109 3SM -RASN BR OVC020 FM010900
                       25010G20KT P6SM FEW020 BKN030 FM011200 28015KT
                       P6SM BKN040
                      BECMG 0116/0118 25012KT FM012100 22008KT
                       P6SM SCT040 RMK NXT FCST BY 010600Z=
201701010315 TAF AMD CYOW 010315Z 0103/0124 05007KT 3/4SM -SN OVC005
                      TEMPO 0103/0104 6SM -SN OVC012 FM010400 VRB03KT
                       6SM -SN OVC025
                      TEMPO 0104/0106 11/2SM -SN OVC005 FM010600
                       21010G20KT 6SM -SN BKN030
                      TEMPO 0106/0109 3SM -RASN BR OVC020 FM010900
                       25010G20KT P6SM FEW020 BKN030 FM011200 28015KT
                       P6SM BKN040
                      BECMG 0116/0118 25012KT FM012100 22008KT
                       P6SM SCT040 RMK NXT FCST BY 010600Z=
201701010541 TAF CYOW 010541Z 0106/0206 07004KT P6SM BKN025
                      TEMPO 0106/0109 4SM -SN BKN008
                      PROB30 0106/0109 3/4SM -SN VV006 FM010900
                       25010G20KT P6SM FEW020 BKN030 FM011200 28015KT
                       P6SM BKN040 FM011800 25012KT P6SM SCT040
                       BECMG 0119/0121 22008KT FM020000 19007KT
                       P6SM FEW080 FM020300 21006KT P6SM SKC RMK
                       NXT FCST BY 010900Z=
201701010838 TAF CYOW 010838Z 0109/0206 29006KT P6SM -SN BKN030
                      TEMPO 0109/0110 5SM -SN BKN007 FM011000 29010KT
                       P6SM BKN015
                      TEMPO 0110/0112 SCT015 FM011200 28015KT P6SM
                       BKN040 FM011800 25012KT P6SM SCT040
                      BECMG 0119/0121 22008KT FM020000 19007KT
                       P6SM FEW080 FM020300 21006KT P6SM SKC RMK
                       NXT FCST BY 011200Z=
201701011138 TAF CYOW 011138Z 0112/0212 28012G22KT P6SM BKN040
                      TEMPO 0112/0118 SCT040 FM011800 25012KT P6SM
                       SCT040
                      BECMG 0119/0121 22008KT FM020000 19007KT
                       P6SM FEW080 FM020300 21006KT P6SM SKC FM020600
                       21002KT P6SM FEW030 FEW220 RMK NXT FCST
                       BY 011500Z=
201701011438 TAF CYOW 011438Z 0115/0212 30012KT P6SM SCT040
                      TEMPO 0115/0118 BKN040 FM011800 25012KT P6SM
                       SCT040
                      BECMG 0119/0121 22008KT FM020000 19007KT
                       P6SM FEW080 FM020300 21006KT P6SM SKC FM020600
                       21002KT P6SM FEW030 FEW220 RMK NXT FCST
                       BY 011800Z=
201701011738 TAF CYOW 011738Z 0118/0218 26012KT P6SM BKN060
                      TEMPO 0118/0124 SCT060
                      BECMG 0119/0121 22005KT FM020000 18007KT
                       P6SM FEW060 FM020300 19006KT P6SM SKC FM020600
                       21002KT P6SM FEW030 FEW220
                      BECMG 0210/0212 07006KT FM021500 06008KT
                       P6SM BKN150 RMK NXT FCST BY 012100Z=
201701012038 TAF CYOW 012038Z 0121/0218 VRB03KT P6SM SCT030 BKN050 FM020000
                       18007KT P6SM FEW050 FM020600 21002KT P6SM
                       FEW030 FEW220
                      BECMG 0210/0212 07006KT FM021500 06008KT
                       P6SM BKN150 RMK NXT FCST BY 020000Z=
201701012338 TAF CYOW 012338Z 0200/0224 VRB03KT P6SM SCT050 BKN110 FM020600
                       VRB03KT P6SM FEW030 FEW220
                      BECMG 0210/0212 07006KT FM021500 06008KT
                       P6SM BKN150 FM022200 07010KT P6SM BKN060
                       RMK NXT FCST BY 020300Z=
201701020238 TAF CYOW 020238Z 0203/0224 19005KT P6SM FEW040
                      TEMPO 0203/0211 BKN040 FM021100 07006KT P6SM
                       FEW030 FEW220 FM021500 06008KT P6SM SCT150
                       FM022200 07010KT P6SM SCT060 RMK NXT FCST
                       BY 020600Z=
201701020541 TAF CYOW 020541Z 0206/0306 VRB03KT P6SM FEW040
                      TEMPO 0206/0211 BKN040 FM021100 06006KT P6SM
                       FEW030 FEW220 FM021500 06008KT P6SM SCT150
                       FM022200 07010KT P6SM SCT060 FM030200 07010KT
                       P6SM -SN BKN030 OVC060 RMK NXT FCST BY 020900Z=
201701020838 TAF CYOW 020838Z 0209/0306 VRB03KT P6SM FEW040 SCT200
                      TEMPO 0209/0211 BKN040 FM021100 06006KT P6SM
                       FEW030 FEW220 FM021500 06008KT P6SM SCT150
                       FM022200 07010KT P6SM SCT060 FM030200 07010KT
                       P6SM -SN BKN030 OVC060 RMK NXT FCST BY 021200Z=
201701020910 TAF AMD CYOW 020910Z 0209/0306 00000KT 1/4SM FZFG VV001
                      TEMPO 0209/0211 6SM BR FEW040 SCT200 FM021100
                       VRB03KT P6SM FEW040 SCT200
                      TEMPO 0211/0213 1/2SM FZFG BKN002 FM021300
                       06006KT P6SM FEW030 FEW220
                      TEMPO 0213/0215 2SM BR FM021500 06008KT P6SM
                       SCT150 FM022200 07010KT P6SM SCT060 FM030200
                       07010KT P6SM -SN BKN030 OVC060 RMK NXT FCST
                       BY 021200Z=
201701021008 TAF AMD CYOW 021008Z 0210/0306 00000KT 11/2SM BR BKN200
                      TEMPO 0210/0212 6SM BR FEW040 BKN200
                      PROB30 0210/0212 1/4SM FZFG FM021200 VRB03KT
                       P6SM FEW040 SCT200
                      PROB30 0212/0213 1/2SM FZFG BKN002 FM021300
                       06006KT P6SM FEW030 FEW220 FM021500 06008KT
                       P6SM SCT150 FM022200 07010KT P6SM SCT060
                       FM030200 07010KT P6SM -SN BKN030 OVC060
                       RMK NXT FCST BY 021200Z=
201701021138 TAF CYOW 021138Z 0212/0312 06006KT P6SM FEW030 BKN200
                      TEMPO 0212/0213 21/2SM BR FM021500 06008KT
                       P6SM SCT150 FM022200 07010KT P6SM SCT060
                       FM030200 07010KT P6SM -SN BKN030 OVC060
                       FM030600 07010KT 11/2SM -SN OVC015 FM030900
                       07010KT 1SM -SN -FZDZ BR OVC008
                      PROB40 0309/0312 4SM -FZRA -PL RMK NXT FCST
                       BY 021500Z=
201701021440 TAF CYOW 021440Z 0215/0312 06008KT P6SM SCT160 FM022200 07010KT
                       P6SM SCT060 FM030200 07010KT P6SM -SN BKN030
                       OVC060 FM030600 07010KT 11/2SM -SN OVC015
                       FM030900 07010KT 1SM -SN -FZDZ BR OVC008
                       PROB40 0309/0312 4SM -FZRA -PL RMK NXT FCST
                       BY 021800Z=
201701021738 TAF CYOW 021738Z 0218/0318 03005KT P6SM FEW170
                      BECMG 0219/0221 07010KT FM030400 08010KT
                       P6SM -SN BKN030 OVC060 FM030600 08010KT
                       11/2SM -SN OVC015 FM030900 08010KT 1/2SM
                       SN VV005
                      PROB40 0309/0313 4SM -FZRA -PL FM031300 08012KT
                       3SM -FZRA BR OVC007 RMK NXT FCST BY 022100Z=
201701022038 TAF CYOW 022038Z 0221/0318 06010KT P6SM FEW170 FM030400 08010KT
                       P6SM -SN BKN030 OVC060 FM030600 08010KT
                       11/2SM -SN OVC015 FM030900 08010KT 1/2SM
                       SN VV005
                      PROB40 0309/0313 4SM -FZRA -PL FM031300 08012KT
                       3SM -FZRA BR OVC007 RMK NXT FCST BY 030000Z=
201701022338 TAF CYOW 022338Z 0300/0324 06010KT P6SM FEW170 FM030400 08010KT
                       P6SM -SN BKN030 OVC060 FM030600 08010KT
                       11/2SM -SN OVC015 FM030900 08010KT 1/2SM
                       SN VV005
                      PROB40 0311/0314 4SM -FZRA -PL FM031400 08012KT
                       6SM -FZRA BR OVC007 FM032000 09012KT 1SM
                       -FZRA BR OVC003 RMK NXT FCST BY 030300Z=
201701030238 TAF CYOW 030238Z 0303/0324 07010KT P6SM BKN060 FM030400 08010KT
                       P6SM OVC060
                      TEMPO 0306/0309 P6SM -SN BKN020 OVC040 FM030900
                       08010KT 11/2SM -SN OVC015 FM031100 08010KT
                       1/2SM SN VV005
                      PROB40 0312/0314 4SM -FZRA -PL FM031400 08012KT
                       6SM -FZRA BR OVC007 FM032000 09012KT 1SM
                       -FZRA BR OVC003 RMK NXT FCST BY 030600Z=
201701030539 TAF CYOW 030539Z 0306/0406 07012KT P6SM OVC060
                      TEMPO 0306/0309 BKN020 OVC040 FM030900 08012KT
                       P6SM OVC015
                      TEMPO 0309/0311 5SM -SN OVC008
                      PROB30 0309/0311 P6SM -FZDZ FM031100 08012KT
                       1/2SM SN VV005
                      PROB40 0312/0314 11/2SM -PLSN OVC007 FM031400
                       08012KT 11/2SM -SNPL OVC007
                      PROB40 0314/0316 4SM -FZRA BR FM031600 08012KT
                       2SM -FZRA BR OVC005 FM032000 09012KT 1SM
                       -FZRA BR OVC003 FM040000 08012KT 1SM -RA
                       BR OVC003 RMK NXT FCST BY 030900Z=
201701030840 TAF CYOW 030840Z 0309/0406 08012KT P6SM OVC025
                      TEMPO 0309/0310 5SM -SN OVC020 FM031000 08012KT
                       11/2SM -SN OVC015
                      TEMPO 0310/0311 6SM -SN FM031100 08012KT
                       1/2SM SN VV005
                      TEMPO 0311/0314 1SM -SN BKN007 OVC010
                      PROB40 0312/0314 11/2SM -PLSN FM031400 08015KT
                       11/2SM -SNPL OVC007
                      PROB40 0314/0316 4SM -FZRA BR FM031600 08015KT
                       2SM -FZRA BR OVC005 FM032000 09015KT 1SM
                       -FZRA BR OVC003 FM040000 08015KT 1SM -RA
                       BR OVC003 RMK NXT FCST BY 031200Z=
201701031034 TAF AMD CYOW 031034Z 0310/0406 07012KT 3SM -FZRA -PL BR OVC020
                       TEMPO 0310/0312 11/2SM -SN OVC012 FM031200
                       08012KT 1/2SM SN VV005
                      TEMPO 0312/0314 1SM -SNPL BKN007 OVC010
                      PROB40 0312/0314 2SM -FZRA BR FM031400 08015KT
                       11/2SM -SNPL OVC007
                      PROB40 0314/0316 4SM -FZRA BR FM031600 08015KT
                       2SM -FZRA BR OVC005 FM032000 09015KT 1SM
                       -FZRA BR OVC003 FM040000 08015KT 1SM -RA
                       BR OVC003 RMK NXT FCST BY 031200Z=
201701031139 TAF CYOW 031139Z 0312/0412 08012KT 11/2SM -SN BR OVC015
                      TEMPO 0312/0314 3/4SM -SNPL BR BKN007 OVC010
                       PROB40 0312/0314 2SM -FZRA BR FM031400 08015KT
                       11/2SM -SN BR OVC007
                      TEMPO 0314/0316 3SM -FZRA -PL BR OVC010 FM031600
                       08015KT 2SM -FZRA BR OVC005 FM032000 09015KT
                       1SM -FZRA BR OVC003 FM040000 08015KT 1SM
                       -RA BR OVC003 FM040300 08015KT 1SM -RASN
                       BR OVC003 FM040500 09012KT 11/2SM -SN OVC004
                       PROB30 0409/0412 1SM -FZDZ BR RMK NXT FCST
                       BY 031500Z=
201701031338 TAF AMD CYOW 031338Z 0313/0412 09012G22KT 11/2SM -FZRA -PL BR OVC004
                       TEMPO 0313/0316 3SM -SN BR OVC010
                      PROB30 0313/0316 OVC003 FM031600 08015KT
                       2SM -FZRA BR OVC005 FM032000 09015KT 1SM
                       -FZRA BR OVC003 FM040000 08015KT 1SM -RA
                       BR OVC003 FM040300 08015KT 1SM -RASN BR
                       OVC003 FM040500 09012KT 11/2SM -SN OVC004
                       PROB30 0409/0412 1SM -FZDZ BR RMK NXT FCST
                       BY 031500Z=
201701031439 TAF CYOW 031439Z 0315/0412 09015KT 11/2SM -FZRA -PL BR OVC004
                      TEMPO 0315/0316 3SM -SN BR OVC010
                      PROB30 0315/0316 OVC003 FM031600 08015KT
                       2SM -FZRA BR OVC004
                      TEMPO 0316/0320 4SM -PL BR FM032000 09015KT
                       1SM -FZRA BR OVC003 FM040000 08015KT 1SM
                       -RA BR OVC003 FM040300 08015KT 1SM -RASN
                       BR OVC003 FM040500 09012KT 11/2SM -SN OVC004
                       PROB30 0409/0412 1SM -FZDZ BR RMK NXT FCST
                       BY 031800Z=
201701031741 TAF CYOW 031741Z 0318/0418 08012KT 2SM -FZRA BR OVC004
                      TEMPO 0318/0322 4SM -PL BR FM032200 09015KT
                       1SM -RA BR OVC003
                      TEMPO 0322/0403 3SM -RA BR OVC004
                      PROB30 0322/0324 2SM -FZRA BR FM040300 08015KT
                       3/4SM -RASN BR OVC003
                      TEMPO 0403/0405 2SM -RASN BR OVC005 FM040500
                       09012KT 1/2SM SN VV003
                      TEMPO 0405/0409 2SM -SN OVC005 FM040900 09012KT
                       2SM -SN OVC004
                      PROB30 0409/0417 1SM -FZDZ BR FM041700 24015G25KT
                       P6SM -SHSN BKN020
                      PROB30 0417/0418 2SM -SHSN RMK NXT FCST BY
                       032100Z=
201701032039 TAF CYOW 032039Z 0321/0418 08012KT 3SM -FZRA BR OVC004
                      TEMPO 0321/0323 2SM -PL BR OVC003 FM032300
                       09015KT 1SM -RA BR OVC003
                      TEMPO 0323/0403 3SM -RA BR OVC004 FM040300
                       08015KT 3/4SM -RASN BR OVC003
                      TEMPO 0403/0405 2SM -RASN BR OVC005 FM040500
                       09012KT 1/2SM SN VV003
                      TEMPO 0405/0409 2SM -SN OVC005 FM040900 09012KT
                       2SM -SN OVC004
                      PROB30 0409/0417 1SM -FZDZ BR FM041700 24015G25KT
                       P6SM -SHSN BKN020
                      PROB30 0417/0418 2SM -SHSN RMK NXT FCST BY
                       040000Z=
201701032223 TAF AMD CYOW 032223Z 0322/0418 08012KT 6SM -FZRA BR OVC005
                      TEMPO 0322/0403 11/2SM -RASN BR OVC002 FM040300
                       08010KT 4SM -SNRA BR OVC005
                      TEMPO 0403/0405 3/4SM -SN BR OVC003 FM040500
                       08010KT 1/2SM SN VV003
                      TEMPO 0405/0409 2SM -SN OVC005 FM040900 08008KT
                       2SM -SN OVC004
                      PROB30 0409/0417 1SM -FZDZ BR FM041700 24015G25KT
                       P6SM -SHSN BKN020 RMK NXT FCST BY 040000Z=
201701032338 TAF CYOW 032338Z 0400/0424 08012KT 6SM -FZRA BR OVC005
                      TEMPO 0400/0403 11/2SM -RASN BR OVC002 FM040300
                       08010KT 4SM -SNRA BR OVC005
                      TEMPO 0403/0405 3/4SM -SN BR OVC003 FM040500
                       08010KT 1/2SM SN VV003
                      TEMPO 0405/0409 2SM -SN OVC005 FM040900 08008KT
                       2SM -SN OVC004
                      TEMPO 0409/0417 1SM -FZDZ BR
                      BECMG 0414/0416 23012KT FM041700 23015G25KT
                       P6SM -SHSN OVC020 FM042000 23020G35KT 2SM
                       -SHSN OVC012 RMK NXT FCST BY 040300Z=
201701040238 TAF CYOW 040238Z 0403/0424 08012KT 6SM -RA BR OVC005
                      TEMPO 0403/0404 11/2SM -SN -FZRA BR OVC003
                       FM040400 08010KT 4SM -SN -FZRA BR OVC005
                       TEMPO 0404/0405 3/4SM -SN BR OVC003 FM040500
                       08010KT 1/2SM SN VV003
                      TEMPO 0405/0409 2SM -SN OVC005 FM040900 08008KT
                       2SM -SN OVC004
                      TEMPO 0409/0417 1SM -FZDZ BR
                      BECMG 0414/0416 23012KT FM041700 23015G25KT
                       P6SM -SHSN OVC020 FM042000 23020G35KT 2SM
                       -SHSN OVC012 RMK NXT FCST BY 040600Z=
201701040404 TAF AMD CYOW 040404Z 0404/0424 07010KT 3/4SM -SN VV003
                      TEMPO 0404/0409 3SM -SN OVC005 FM040900 08008KT
                       3SM -SN OVC004
                      TEMPO 0409/0415 1SM -FZDZ BR FM041500 19008KT
                       4SM -DZ BR OVC005 FM041700 23015G25KT P6SM
                       -SHSN OVC020 FM042000 23020G35KT 2SM -SHSN
                       OVC012 FM042200 22018G28KT P6SM SCT040 RMK
                       NXT FCST BY 040600Z=
201701040538 TAF CYOW 040538Z 0406/0506 08010KT 3/4SM -SN VV003
                      TEMPO 0406/0409 2SM -SN OVC005 FM040900 08008KT
                       3SM -SN OVC004
                      TEMPO 0409/0415 1SM -FZDZ BR OVC003 FM041500
                       19008KT 4SM -DZ BR OVC005 FM041700 23015G25KT
                       P6SM -SHSN OVC020 FM042000 23020G35KT 2SM
                       -SHSN OVC012 FM042200 22018G28KT P6SM SCT040
                       BECMG 0500/0502 22015G25KT FM050500 22015G25KT
                       5SM -SHSN BKN030
                      PROB30 0505/0506 2SM -SHSN RMK NXT FCST BY
                       040900Z=
201701040838 TAF CYOW 040838Z 0409/0506 10008KT 3/4SM -SN BR OVC003
                      TEMPO 0409/0415 3SM -SN -FZDZ BR OVC004 FM041500
                       19008KT 4SM -DZ BR OVC005 FM041700 23015G25KT
                       P6SM -SHSN OVC020 FM042000 23020G35KT 2SM
                       -SHSN OVC012 FM042200 22018G28KT P6SM SCT040
                       BECMG 0500/0502 22015G25KT FM050500 22015G25KT
                       5SM -SHSN BKN030
                      PROB30 0505/0506 2SM -SHSN RMK NXT FCST BY
                       041200Z=
201701040938 TAF AMD CYOW 040938Z 0409/0506 09006KT 3/4SM -FZDZ BR OVC002
                      TEMPO 0409/0415 4SM -SN OVC004 FM041500 22008KT
                       4SM -DZ BR OVC005 FM041700 23015G25KT P6SM
                       -SHSN BKN020 FM042000 23020G35KT 2SM -SHSN
                       OVC012 FM042200 22018G28KT P6SM BKN040
                      BECMG 0500/0502 22015G25KT FM050500 22015G25KT
                       5SM -SHSN BKN030
                      PROB30 0505/0506 2SM -SHSN RMK NXT FCST BY
                       041200Z=
201701041138 TAF CYOW 041138Z 0412/0512 08005KT 3/4SM -FZDZ BR OVC002
                      TEMPO 0412/0415 4SM -SN OVC004 FM041500 22008KT
                       4SM -DZ BR OVC005 FM041700 23015G25KT P6SM
                       -SHSN BKN020 FM042000 23020G35KT 2SM -SHSN
                       OVC012 FM042200 22018G28KT P6SM BKN040
                      BECMG 0500/0502 22015G25KT FM050500 22015G25KT
                       5SM -SHSN BKN030
                      PROB30 0505/0509 2SM -SHSN FM050900 29012G22KT
                       P6SM BKN040 RMK NXT FCST BY 041500Z=
201701041446 TAF CYOW 041446Z 0415/0512 VRB03KT 3/4SM -SN BR OVC005
                      BECMG 0415/0416 P6SM NSW OVC012 FM041600
                       23008KT P6SM OVC012
                      BECMG 0416/0418 23015G25KT FM041800 23015G25KT
                       P6SM -SHSN BKN025
                      TEMPO 0418/0422 2SM -SHSN OVC015
                      BECMG 0418/0420 23020G35KT FM042200 23020G30KT
                       P6SM BKN040 FM050500 22015G25KT 5SM -SHSN
                       BKN030
                      PROB30 0505/0509 2SM -SHSN FM050900 29015G25KT
                       P6SM BKN040 RMK NXT FCST BY 041800Z=
201701041621 TAF AMD CYOW 041621Z 0416/0512 23015G25KT P6SM FEW020 BKN040
                      BECMG 0418/0420 23020G35KT FM042000 23020G35KT
                       P6SM FEW020 BKN040
                      TEMPO 0420/0505 2SM -SHSN BKN015 OVC030
                      BECMG 0423/0501 23020G30KT FM050500 22015G25KT
                       5SM -SHSN BKN030
                      PROB30 0505/0509 2SM -SHSN FM050900 29015G25KT
                       P6SM BKN040 RMK NXT FCST BY 041800Z=
201701041752 TAF CYOW 041752Z 0418/0518 23015G25KT P6SM FEW020 SCT050 BKN090
                       FM042300 23020G30KT P6SM FEW020 BKN040
                      TEMPO 0423/0507 5SM -SHSN BKN020 OVC040
                      BECMG 0423/0501 23020G30KT FM050700 23015G25KT
                       6SM -SHSN BKN030 BKN050
                      TEMPO 0507/0510 11/2SM -SHSN OVC012 FM051000
                       28015G25KT P6SM BKN040
                      TEMPO 0510/0512 5SM -SHSN BKN020 OVC040 RMK
                       NXT FCST BY 042100Z=
201701041953 TAF AMD CYOW 041953Z 0419/0518 23015G25KT P6SM FEW020 BKN050
                      TEMPO 0420/0422 1SM -SHSN OVC007 FM042200
                       23020G30KT P6SM FEW020 BKN040
                      TEMPO 0422/0507 5SM -SHSN BKN020 OVC040
                      BECMG 0423/0501 23020G30KT FM050700 23015G25KT
                       6SM -SHSN BKN030 BKN050
                      TEMPO 0507/0510 11/2SM -SHSN OVC012 FM051000
                       28015G25KT P6SM BKN040
                      TEMPO 0510/0512 5SM -SHSN BKN020 OVC040 RMK
                       NXT FCST BY 042100Z=
201701042045 TAF CYOW 042045Z 0421/0518 26015G25KT 1SM -SHSN OVC007
                      TEMPO 0421/0422 P6SM -SHSN SCT020 BKN040
                       FM042200 24020G30KT P6SM FEW020 BKN040
                      TEMPO 0422/0507 5SM -SHSN BKN020 OVC040 FM050700
                       23015G25KT 6SM -SHSN BKN030 BKN050
                      TEMPO 0507/0510 11/2SM -SHSN OVC012 FM051000
                       28015G25KT P6SM BKN040
                      TEMPO 0510/0512 5SM -SHSN BKN020 OVC040 RMK
                       NXT FCST BY 050000Z=
201701042147 TAF AMD CYOW 042147Z 0421/0518 26020G35KT P6SM -SHSN SCT020 BKN040
                       TEMPO 0421/0423 1/2SM SHSN VV005 FM042300
                       25020G30KT P6SM FEW020 BKN040
                      TEMPO 0423/0507 4SM -SHSN BKN020 OVC040 FM050700
                       24015G25KT 6SM -SHSN BKN030 BKN050
                      TEMPO 0507/0510 11/2SM -SHSN OVC012 FM051000
                       28015G25KT P6SM BKN040
                      TEMPO 0510/0512 5SM -SHSN BKN020 OVC040 RMK
                       NXT FCST BY 050000Z=
201701042338 TAF CYOW 042338Z 0500/0524 25020G30KT P6SM FEW020 BKN040
                      TEMPO 0500/0507 4SM -SHSN BKN020 OVC040 FM050700
                       24015G25KT 6SM -SHSN BKN030 BKN050
                      TEMPO 0507/0510 11/2SM -SHSN OVC012 FM051000
                       28015G25KT P6SM BKN040
                      TEMPO 0510/0512 5SM -SHSN BKN020 OVC040
                      BECMG 0514/0516 25015G25KT RMK NXT FCST BY
                       050300Z=
201701050238 TAF CYOW 050238Z 0503/0524 24020G30KT P6SM FEW020 BKN040
                      TEMPO 0503/0507 4SM -SHSN BKN020 OVC040 FM050700
                       24015G25KT 6SM -SHSN BKN030 BKN050
                      TEMPO 0507/0510 11/2SM -SHSN OVC012 FM051000
                       28015G25KT P6SM BKN040
                      TEMPO 0510/0512 5SM -SHSN BKN020 OVC040
                      BECMG 0514/0516 25015G25KT RMK NXT FCST BY
                       050600Z=
201701050541 TAF CYOW 050541Z 0506/0606 22020G30KT P6SM FEW025 BKN100
                      TEMPO 0506/0507 4SM -SHSN BKN020 OVC080 FM050700
                       25018G28KT 6SM -SHSN BKN030 BKN050
                      TEMPO 0507/0510 11/2SM -SHSN OVC012 FM051000
                       28015KT P6SM BKN040
                      TEMPO 0510/0512 5SM -SHSN
                      BECMG 0515/0517 25015G25KT FM052200 23010KT
                       5SM -SHSN BKN025 FM060200 24008KT P6SM SCT025
                       RMK NXT FCST BY 050900Z=
201701050838 TAF CYOW 050838Z 0509/0606 24018G28KT P6SM -SHSN BKN030
                      TEMPO 0509/0510 11/2SM -SHSN VV012 FM051000
                       28015KT P6SM BKN040
                      TEMPO 0510/0512 5SM -SHSN
                      BECMG 0515/0517 25015G25KT FM052200 23010KT
                       5SM -SHSN BKN025 FM060200 24008KT P6SM SCT025
                       RMK NXT FCST BY 051200Z=
201701050952 TAF AMD CYOW 050952Z 0509/0606 28015G25KT 3/4SM -SHSN VV008
                      TEMPO 0509/0511 6SM -SHSN BKN025 FM051030
                       28015KT P6SM BKN040
                      TEMPO 0510/0512 5SM -SHSN
                      BECMG 0515/0517 25015G25KT FM052200 23010KT
                       5SM -SHSN BKN025 FM060200 24008KT P6SM SCT025
                       RMK NXT FCST BY 051200Z=
201701051138 TAF CYOW 051138Z 0512/0612 29015KT P6SM BKN030
                      BECMG 0515/0517 25015G25KT FM052200 23010KT
                       5SM -SHSN BKN025 FM060200 24008KT P6SM SCT025
                       RMK NXT FCST BY 051500Z=
201701051438 TAF CYOW 051438Z 0515/0612 29010KT P6SM SCT050
                      BECMG 0515/0517 27010G20KT FM052200 23010KT
                       5SM -SHSN BKN025 FM060200 24008KT P6SM SCT025
                       RMK NXT FCST BY 051800Z=
201701051738 TAF CYOW 051738Z 0518/0618 25015KT P6SM BKN040
                      TEMPO 0520/0602 5SM -SHSN BKN020 FM060600
                       24007KT P6SM FEW030 SCT080 RMK NXT FCST
                       BY 052100Z=
201701052038 TAF CYOW 052038Z 0521/0618 25012KT P6SM BKN040
                      TEMPO 0521/0602 5SM -SHSN BKN020 FM060600
                       24007KT P6SM FEW030 SCT080 RMK NXT FCST
                       BY 060000Z=
201701052338 TAF CYOW 052338Z 0600/0624 24010KT P6SM OVC050
                      TEMPO 0600/0602 5SM -SHSN FM060900 24007KT
                       P6SM FEW030 SCT080
                      TEMPO 0609/0612 6SM -SHSN BKN030 RMK NXT
                       FCST BY 060300Z=
201701060238 TAF CYOW 060238Z 0603/0624 24010KT P6SM FEW050 SCT080 FM061200
                       23006KT P6SM SKC RMK NXT FCST BY 060600Z=
201701060538 TAF CYOW 060538Z 0606/0706 24008KT P6SM FEW050 SCT080 FM061500
                       23006KT P6SM FEW040 RMK NXT FCST BY 060900Z=
201701060839 TAF CYOW 060839Z 0609/0706 24008KT P6SM FEW050 SCT080 FM061500
                       23006KT P6SM FEW040 RMK NXT FCST BY 061200Z=
201701061138 TAF CYOW 061138Z 0612/0712 23006KT P6SM FEW040 RMK NXT FCST BY
                       061500Z=
201701061438 TAF CYOW 061438Z 0615/0712 24006KT P6SM FEW070 RMK NXT FCST BY
                       061800Z=
201701061739 TAF CYOW 061739Z 0618/0718 23006KT P6SM FEW060
                      BECMG 0704/0706 30005KT
                      BECMG 0716/0718 34006KT RMK NXT FCST BY 062100Z=
201701062038 TAF CYOW 062038Z 0621/0718 VRB03KT P6SM FEW025
                      BECMG 0716/0718 34006KT RMK NXT FCST BY 070000Z=
201701062338 TAF CYOW 062338Z 0700/0724 VRB03KT P6SM FEW060
                      TEMPO 0700/0702 BKN060
                      BECMG 0716/0718 34006KT RMK NXT FCST BY 070300Z=
201701070238 TAF CYOW 070238Z 0703/0724 VRB03KT P6SM FEW060 RMK NXT FCST BY
                       070600Z=
201701070538 TAF CYOW 070538Z 0706/0806 VRB03KT P6SM FEW050 RMK NXT FCST BY
                       070900Z=
201701070838 TAF CYOW 070838Z 0709/0806 VRB03KT P6SM FEW050 RMK NXT FCST BY
                       071200Z=
201701071139 TAF CYOW 071139Z 0712/0812 VRB03KT P6SM SKC FM080600 03006KT P6SM
                       BKN070 RMK NXT FCST BY 071500Z=
201701071438 TAF CYOW 071438Z 0715/0812 VRB03KT P6SM SKC FM080600 03006KT P6SM
                       BKN070 RMK NXT FCST BY 071800Z=
201701071740 TAF CYOW 071740Z 0718/0818 VRB03KT P6SM SCT060
                      TEMPO 0718/0803 BKN060 FM080300 03006KT P6SM
                       BKN060 FM081000 01008KT 6SM -SN BKN050 FM081400
                       30010KT 3SM -SN OVC030 FM081700 30015KT
                       P6SM -SN BKN030 OVC050 RMK NXT FCST BY 072100Z=
201701072041 TAF CYOW 072041Z 0721/0818 VRB03KT P6SM SCT060 FM080300 03006KT
                       P6SM BKN060 FM081000 01008KT 6SM -SN BKN050
                       FM081400 30010KT 3SM -SN OVC030 FM081700
                       30015KT P6SM -SN BKN030 OVC050 RMK NXT FCST
                       BY 080000Z=
201701072341 TAF CYOW 072341Z 0800/0824 VRB03KT P6SM FEW100 FM080300 03006KT
                       P6SM BKN060 FM081000 01008KT 6SM -SN BKN050
                       FM081400 30010KT 3SM -SN OVC030 FM081700
                       30015KT P6SM -SN BKN030 OVC050 RMK NXT FCST
                       BY 080300Z=
201701080238 TAF CYOW 080238Z 0803/0824 04005KT P6SM FEW060
                      TEMPO 0803/0810 BKN060 FM081000 01008KT 6SM
                       -SN BKN050 FM081400 30010KT 3SM -SN OVC030
                       FM081700 30015KT P6SM -SN BKN030 OVC050
                       RMK NXT FCST BY 080600Z=
201701080538 TAF CYOW 080538Z 0806/0906 05007KT P6SM SCT070
                      TEMPO 0806/0809 BKN060 FM080900 01008KT 6SM
                       -SN BKN050
                      TEMPO 0809/0814 3SM -SN FM081400 30010KT
                       P6SM -SHSN OVC040
                      PROB30 0814/0819 2SM -SHSN FM081900 30015KT
                       P6SM -SN SCT030 BKN050 FM090000 29010KT
                       P6SM FEW025
                      BECMG 0904/0906 VRB03KT RMK NXT FCST BY 080900Z=
201701080838 TAF CYOW 080838Z 0809/0906 04008KT P6SM SCT060 BKN090
                      TEMPO 0809/0810 OVC060 FM081000 01008KT P6SM
                       -SN BKN050
                      TEMPO 0810/0814 3SM -SN FM081400 30010KT
                       P6SM -SHSN OVC040
                      PROB30 0814/0819 2SM -SHSN FM081900 30015KT
                       P6SM -SN SCT030 BKN050 FM090000 29010KT
                       P6SM FEW025
                      BECMG 0904/0906 VRB03KT RMK NXT FCST BY 081200Z=
201701081149 TAF CYOW 081149Z 0812/0912 04008KT P6SM -SN OVC025
                      TEMPO 0812/0814 3SM -SN OVC020 FM081400 30010KT
                       P6SM -SHSN OVC040
                      PROB30 0814/0819 2SM -SHSN FM081900 30015KT
                       P6SM -SN SCT030 BKN050 FM090000 29010KT
                       P6SM FEW025
                      BECMG 0904/0906 VRB03KT FM091100 11005KT
                       P6SM SCT030 BKN120 RMK NXT FCST BY 081500Z=
201701081418 TAF AMD CYOW 081418Z 0814/0912 01005KT P6SM -SN OVC030
                      TEMPO 0814/0819 4SM -SN BKN015
                      PROB30 0815/0819 2SM -SHSN FM081900 30015KT
                       P6SM -SN SCT030 BKN050 FM090000 29010KT
                       P6SM FEW025
                      BECMG 0904/0906 VRB03KT FM091100 11005KT
                       P6SM SCT030 BKN120 RMK NXT FCST BY 081500Z=
201701081438 TAF CYOW 081438Z 0815/0912 01005KT P6SM -SN OVC030
                      TEMPO 0815/0819 4SM -SN BKN015
                      PROB30 0815/0819 2SM -SHSN FM081900 30015KT
                       P6SM -SN SCT030 BKN050 FM090000 29010KT
                       P6SM FEW025
                      BECMG 0904/0906 VRB03KT FM091100 11005KT
                       P6SM SCT030 BKN120 RMK NXT FCST BY 081800Z=
201701081454 TAF AMD CYOW 081454Z 0815/0912 36006KT P6SM -SN OVC030
                      TEMPO 0815/0819 2SM -SN OVC012 FM081900 30015KT
                       P6SM -SN SCT030 BKN050 FM090000 29010KT
                       P6SM FEW025
                      BECMG 0904/0906 VRB03KT FM091100 11005KT
                       P6SM SCT030 BKN120 RMK NXT FCST BY 081800Z=
201701081738 TAF CYOW 081738Z 0818/0918 33010KT P6SM FEW025
                      TEMPO 0818/0819 P6SM -SN BKN025 FM081900
                       30015KT P6SM -SN SCT030 BKN050 FM090000
                       29010KT P6SM FEW025
                      BECMG 0904/0906 VRB03KT FM091100 11005KT
                       P6SM SCT030 BKN120 FM091200 14004KT P6SM
                       FEW030 FEW100 SCT160 FM091500 13003KT WS015/24027KT
                       P6SM -SN SCT020 BKN080 FM091700 15008KT
                       WS015/22038KT 11/2SM -SN BKN015 OVC060 RMK
                       NXT FCST BY 082100Z=
201701081817 TAF AMD CYOW 081817Z 0818/0918 33011KT 5SM -SN BKN020
                      BECMG 0818/0820 P6SM NSW FEW020 FM090600
                       VRB03KT P6SM FEW025 FM091100 11005KT P6SM
                       SCT030 BKN120 FM091200 14004KT P6SM FEW030
                       FEW100 SCT160 FM091500 13003KT WS015/24027KT
                       P6SM -SN SCT020 BKN080 FM091700 15008KT
                       WS015/22038KT 11/2SM -SN BKN015 OVC060 RMK
                       NXT FCST BY 082100Z=
201701082038 TAF CYOW 082038Z 0821/0918 32015KT P6SM SCT020 SCT230 FM090600
                       VRB03KT P6SM FEW025 FM091100 11005KT P6SM
                       SCT030 BKN120 FM091200 14004KT P6SM FEW030
                       FEW100 SCT160 FM091500 13003KT WS015/24027KT
                       P6SM -SN SCT020 BKN080 FM091700 15008KT
                       WS015/22038KT 11/2SM -SN BKN015 OVC060 RMK
                       NXT FCST BY 090000Z=
201701082338 TAF CYOW 082338Z 0900/0924 29012KT P6SM FEW025
                      BECMG 0904/0906 VRB03KT FM091100 11005KT
                       P6SM SCT030 BKN120 FM091200 14004KT P6SM
                       FEW030 FEW100 SCT160 FM091500 13003KT WS015/24027KT
                       P6SM -SN SCT020 BKN080 FM091700 15008KT
                       WS015/22038KT 11/2SM -SN BKN015 OVC060 FM092100
                       17010KT WS015/20033KT 3SM -SN BKN020 OVC050
                       RMK NXT FCST BY 090300Z=
201701090245 TAF CYOW 090245Z 0903/0924 28006KT P6SM FEW025 FM091200 09005KT
                       P6SM FEW015 SCT190 FM091500 10006KT P6SM
                       -SN OVC080 FM091700 15008KT 11/2SM -SN BKN015
                       OVC030 FM092100 16010KT 3SM -SN BKN020 OVC050
                       RMK NXT FCST BY 090600Z=
201701090538 TAF CYOW 090538Z 0906/1006 25005KT P6SM SKC FM091200 09005KT P6SM
                       BKN030 OVC180 FM091700 15008KT P6SM -SN
                       OVC025
                      TEMPO 0917/1003 11/2SM -SN OVC015 FM100300
                       16006KT P6SM OVC020 RMK NXT FCST BY 090900Z=
201701090838 TAF CYOW 090838Z 0909/1006 VRB03KT P6SM SKC FM091200 09005KT P6SM
                       BKN030 OVC180 FM091700 15008KT P6SM -SN
                       OVC025
                      TEMPO 0917/1003 11/2SM -SN OVC015 FM100300
                       16006KT P6SM OVC020 RMK NXT FCST BY 091200Z=
201701091138 TAF CYOW 091138Z 0912/1012 15005KT P6SM BKN030 OVC160
                      TEMPO 0914/0917 OVC020 FM091700 15008KT P6SM
                       -SN OVC025
                      TEMPO 0917/1003 11/2SM -SN OVC015 FM100300
                       16008KT P6SM OVC020 FM100900 14010KT P6SM
                       OVC030 RMK NXT FCST BY 091500Z=
201701091441 TAF CYOW 091441Z 0915/1012 17008KT P6SM BKN030 OVC160
                      TEMPO 0915/0917 OVC020 FM091700 15008KT P6SM
                       -SN OVC025
                      TEMPO 0917/1003 11/2SM -SN OVC015 FM100300
                       16008KT P6SM OVC020 FM100900 14010KT P6SM
                       OVC030 RMK NXT FCST BY 091800Z=
201701091738 TAF CYOW 091738Z 0918/1018 13008KT P6SM -SN OVC025
                      TEMPO 0918/0924 11/2SM -SN OVC015 FM100000
                       19012KT P6SM SCT020 BKN070
                      TEMPO 1000/1002 BKN020
                      BECMG 1012/1014 15012KT FM101500 14012KT
                       2SM -SN OVC025 RMK NXT FCST BY 092100Z=
201701092042 TAF CYOW 092042Z 0921/1018 19012KT P6SM -SN OVC025
                      TEMPO 0921/0923 2SM -SN OVC015 FM100000 19012KT
                       P6SM SCT020 BKN070
                      TEMPO 1000/1002 BKN020
                      BECMG 1012/1014 15012KT FM101500 14012KT
                       2SM -SN OVC025 RMK NXT FCST BY 100000Z=
201701092338 TAF CYOW 092338Z 1000/1024 18010KT P6SM SCT020 BKN070
                      TEMPO 1000/1002 P6SM -SN BKN020
                      BECMG 1012/1014 15012KT FM101500 14012KT
                       2SM -SN OVC025 FM102100 14015KT 1/2SM SN
                       VV005 RMK NXT FCST BY 100300Z=
201701100238 TAF CYOW 100238Z 1003/1024 16008KT P6SM SCT012 BKN025 OVC060
                      TEMPO 1003/1009 6SM -SN BKN012 OVC025 FM100900
                       16008KT P6SM FEW010 BKN030 BKN140 FM101500
                       13010G20KT P6SM -SN BKN040 OVC080
                      TEMPO 1015/1018 2SM -SN OVC025 FM101800 12012G22KT
                       3SM -SN BKN025 OVC040
                      TEMPO 1018/1021 3/4SM -SN VV007 FM102100
                       14012G22KT 3/4SM -SN VV007 RMK NXT FCST
                       BY 100600Z=
201701100545 TAF CYOW 100545Z 1006/1106 17008KT P6SM BKN030 OVC060
                      TEMPO 1006/1009 6SM -SN OVC020 FM100900 16008KT
                       P6SM BKN030 BKN150 FM101500 13008KT P6SM
                       -SN OVC050
                      TEMPO 1015/1018 2SM -SN OVC025 FM101800 12012G22KT
                       3SM -SN OVC030
                      TEMPO 1018/1020 3/4SM -SN VV007 FM102000
                       12010G20KT 1/2SM SN VV005
                      PROB30 1022/1103 1/4SM +SN VV003 FM110300
                       14018G28KT 3/4SM -SN BLSN VV007
                      PROB30 1104/1106 3SM -FZRA BR OVC015 RMK
                       NXT FCST BY 100900Z=
201701100838 TAF CYOW 100838Z 1009/1106 18008KT P6SM BKN030 BKN150 FM101500
                       13008KT P6SM -SN OVC050
                      TEMPO 1015/1018 2SM -SN OVC025 FM101800 12012G22KT
                       3SM -SN OVC030
                      TEMPO 1018/1020 3/4SM -SN VV007 FM102000
                       12010G20KT 1/2SM SN VV005
                      PROB30 1022/1103 1/4SM +SN VV003 FM110300
                       14018G28KT 3/4SM -SN BLSN VV007
                      PROB30 1104/1106 3SM -FZRA BR OVC015 RMK
                       NXT FCST BY 101200Z=
201701101142 TAF CYOW 101142Z 1012/1112 14008KT P6SM BKN040 BKN120 FM101500
                       13008KT P6SM -SN OVC050
                      TEMPO 1015/1018 2SM -SN OVC025 FM101800 12012G22KT
                       3SM -SN OVC030
                      TEMPO 1018/1020 3/4SM -SN VV007 FM102000
                       12010G20KT 1/2SM SN VV005
                      PROB30 1022/1103 1/4SM +SN VV003 FM110300
                       14018G28KT 3/4SM -SN BLSN VV007
                      PROB30 1104/1107 3SM -FZRA BR OVC015 FM110700
                       17020G30KT 3SM -SNRA OVC012 FM111100 22020G30KT
                       P6SM BKN030 RMK NXT FCST BY 101500Z=
201701101439 TAF CYOW 101439Z 1015/1112 13010KT P6SM -SN OVC040
                      TEMPO 1015/1018 2SM -SN OVC025 FM101800 12012G22KT
                       3SM -SN OVC030
                      TEMPO 1018/1020 1SM -SN VV007
                      PROB40 1018/1020 3/4SM -SN FM102000 12010G20KT
                       1/2SM SN VV005
                      PROB30 1022/1103 1/4SM +SN VV003 FM110300
                       14018G28KT 3/4SM -SN BLSN VV007
                      PROB30 1104/1107 3SM -FZRA BR OVC015 FM110700
                       17020G30KT 3SM -SNRA OVC012 FM111100 22020G30KT
                       P6SM BKN030 RMK NXT FCST BY 101800Z=
201701101738 TAF CYOW 101738Z 1018/1118 12010KT P6SM -SN OVC040
                      TEMPO 1018/1019 2SM -SN OVC030 FM101900 13012G22KT
                       3SM -SN OVC030
                      TEMPO 1019/1020 1SM -SN VV007
                      PROB40 1019/1020 3/4SM -SN FM102000 13012G22KT
                       1/2SM SN VV005
                      TEMPO 1020/1022 1SM -SN
                      PROB30 1022/1103 1/4SM +SN VV003 FM110300
                       14018G28KT 3/4SM -SN BLSN VV007
                      TEMPO 1103/1107 2SM -SNPL OVC012
                      PROB30 1104/1107 3SM -FZRA BR OVC015 FM110700
                       17020G30KT 3SM -SNRA OVC012 FM111100 22020G35KT
                       P6SM BKN030 FM111400 23015G25KT P6SM FEW030
                       RMK NXT FCST BY 102100Z=
201701102038 TAF CYOW 102038Z 1021/1118 13012G22KT 1/2SM SN VV005
                      TEMPO 1021/1024 1SM -SN OVC009
                      PROB30 1100/1103 1/4SM +SN VV003 FM110300
                       14018G28KT 3/4SM -SN BLSN VV007
                      TEMPO 1103/1107 2SM -SNPL OVC012
                      PROB30 1104/1107 3SM -FZRA BR OVC015 FM110700
                       17020G30KT 3SM -SNRA OVC012 FM111100 22020G35KT
                       P6SM BKN030 FM111400 23015G25KT P6SM FEW030
                       RMK NXT FCST BY 110000Z=
201701102338 TAF CYOW 102338Z 1100/1124 10010G20KT 2SM -SN OVC010
                      TEMPO 1100/1103 1/2SM SN VV005 FM110300 14018G28KT
                       3/4SM -SN BLSN VV007
                      TEMPO 1103/1107 2SM -SNPL OVC012
                      PROB30 1104/1107 3SM -FZRA BR OVC015 FM110700
                       17020G30KT 3SM -SNRA OVC012 FM111100 22020G35KT
                       P6SM BKN030 FM111400 23015G25KT P6SM FEW030
                       FM112100 19010G20KT P6SM BKN120 RMK NXT
                       FCST BY 110300Z=
201701110239 TAF CYOW 110239Z 1103/1124 16015G25KT 6SM -SN OVC012
                      TEMPO 1103/1107 3/4SM -SNPL BLSN VV008
                      PROB30 1103/1107 6SM -FZRA BR OVC015 FM110700
                       17018G28KT 4SM -RASN BR OVC012
                      TEMPO 1107/1111 P6SM NSW OVC020 FM111100
                       22020G35KT P6SM BKN030 FM111400 23015G25KT
                       P6SM FEW030 FM112100 19010G20KT P6SM BKN120
                       RMK NXT FCST BY 110600Z=
201701110246 TAF AMD CYOW 110246Z 1103/1124 16015G25KT 6SM -SN OVC012
                      TEMPO 1103/1107 3/4SM -SNPL -FZRA BR VV008
                       FM110700 17018G28KT 4SM -RASN BR OVC012
                       TEMPO 1107/1111 P6SM NSW OVC020 FM111100
                       22020G35KT P6SM BKN030 FM111400 23015G25KT
                       P6SM FEW030 FM112100 19010G20KT P6SM BKN120
                       RMK NXT FCST BY 110600Z=
201701110540 TAF CYOW 110540Z 1106/1206 16015G25KT 2SM -SNRAPL BR OVC008
                      TEMPO 1106/1107 P6SM NSW OVC010 FM110700
                       18020G30KT 4SM -RASN BR OVC012
                      TEMPO 1107/1111 P6SM NSW SCT012 OVC025 FM111100
                       22020G35KT P6SM BKN030 FM111400 24018G28KT
                       P6SM FEW025
                      BECMG 1116/1118 22012G22KT FM112100 20012KT
                       P6SM BKN120
                      BECMG 1122/1124 15008KT FM120200 15012G22KT
                       P6SM BKN040 OVC120 RMK NXT FCST BY 110900Z=
201701110721 TAF AMD CYOW 110721Z 1107/1206 18018G28KT 4SM -RA BR OVC009
                      TEMPO 1107/1111 P6SM NSW SCT009 OVC025
                      BECMG 1109/1111 24025G40KT FM111100 24025G40KT
                       P6SM BKN030 FM111400 24018G28KT P6SM FEW025
                       BECMG 1116/1118 22012G22KT FM112100 20012KT
                       P6SM BKN120
                      BECMG 1122/1124 15008KT FM120200 15012G22KT
                       P6SM BKN040 OVC120 RMK NXT FCST BY 110900Z=
201701110838 TAF CYOW 110838Z 1109/1206 18018G28KT 4SM -RA BR FEW008 OVC015
                       TEMPO 1109/1111 P6SM -RA SCT015 OVC025
                      BECMG 1109/1111 24025G40KT FM111100 24025G40KT
                       P6SM BKN030 FM111400 24018G28KT P6SM FEW025
                       BECMG 1116/1118 22012G22KT FM112100 20012KT
                       P6SM BKN120
                      BECMG 1122/1124 15008KT FM120200 15012G22KT
                       P6SM BKN040 OVC120 RMK NXT FCST BY 111200Z=
201701111140 TAF CYOW 111140Z 1112/1212 24022G32KT P6SM OVC030 FM111400 24018G28KT
                       P6SM FEW025
                      BECMG 1116/1118 22012G22KT FM112100 20012KT
                       P6SM BKN120
                      BECMG 1122/1124 15008KT FM120200 15012G22KT
                       P6SM BKN040 OVC120 FM120600 16012G22KT 5SM
                       -RA BR OVC020 FM120800 19015G25KT 3SM -RA
                       BR OVC008
                      BECMG 1210/1212 27010G20KT RMK NXT FCST BY
                       111500Z=
201701111438 TAF CYOW 111438Z 1115/1212 23015G25KT P6SM BKN050
                      BECMG 1116/1118 22012G22KT FM112100 20012KT
                       P6SM BKN120
                      BECMG 1122/1124 15008KT FM120200 15012G22KT
                       P6SM BKN040 OVC120 FM120600 16012G22KT 5SM
                       -RA BR OVC020 FM120800 19015G25KT 3SM -RA
                       BR OVC008
                      BECMG 1210/1212 27010G20KT RMK NXT FCST BY
                       111800Z=
201701111739 TAF CYOW 111739Z 1118/1218 21011G21KT P6SM FEW030 SCT170 FM112100
                       20012KT P6SM BKN120
                      BECMG 1122/1124 16010KT FM120400 17012KT
                       P6SM BKN040 OVC120 FM120700 18012KT 5SM
                       -RA BR OVC020 FM120800 19015KT 3SM -RA BR
                       OVC008 FM121200 20012KT 2SM -DZ BR BKN004
                       OVC012
                      BECMG 1213/1215 26012G22KT RMK NXT FCST BY
                       112100Z=
201701112038 TAF CYOW 112038Z 1121/1218 20012KT P6SM FEW180 BKN230 FM120000
                       16010KT P6SM BKN120 OVC180 FM120400 17012KT
                       P6SM BKN040 OVC120 FM120700 18012KT 5SM
                       -RA BR OVC020 FM120800 19015KT 3SM -RA BR
                       OVC008 FM121200 20012KT 2SM -DZ BR BKN004
                       OVC012 FM121500 26012G22KT 5SM -DZ BR OVC012
                       RMK NXT FCST BY 120000Z=
201701112338 TAF CYOW 112338Z 1200/1224 17008KT P6SM BKN110 OVC130 FM120400
                       17012KT P6SM BKN040 OVC100
                      TEMPO 1205/1207 6SM -RA BR OVC020 FM120700
                       18012KT 6SM -RA BR OVC020
                      TEMPO 1207/1210 2SM -RA BR FM121000 19015KT
                       2SM -RA BR OVC004
                      PROB30 1210/1213 3/4SM -RA BR OVC003 FM121300
                       20012KT 1SM -DZ BR OVC003
                      TEMPO 1213/1215 1/2SM -DZ FG VV002 FM121500
                       26012KT 3SM -DZ BR BKN006 OVC012 FM121800
                       26010KT 5SM -RA BR SCT008 OVC015 RMK NXT
                       FCST BY 120300Z=
201701120240 TAF CYOW 120240Z 1203/1224 17012KT P6SM OVC130 FM120500 17012KT
                       P6SM OVC030 FM120700 18012KT 6SM -RA BR
                       OVC020
                      TEMPO 1207/1210 2SM -RA BR FM121000 19015KT
                       2SM -RA BR OVC004
                      PROB30 1210/1213 3/4SM -RA BR OVC003 FM121300
                       20012KT 1SM -DZ BR OVC003
                      TEMPO 1213/1215 1/2SM -DZ FG VV002 FM121500
                       26012KT 3SM -DZ BR BKN006 OVC012 FM121800
                       26010KT 5SM -RA BR SCT008 OVC015 RMK NXT
                       FCST BY 120600Z=
201701120539 TAF CYOW 120539Z 1206/1306 18010G20KT P6SM BKN040 OVC120 FM120800
                       18010G20KT 6SM -RA BR OVC030
                      TEMPO 1208/1210 2SM -RA BR OVC008 FM121000
                       18012KT 11/2SM -RA BR OVC004
                      TEMPO 1210/1216 3SM -RA BR OVC008
                      BECMG 1214/1216 24010KT FM121600 27012KT
                       6SM BR OVC012
                      TEMPO 1216/1220 2SM BR OVC007 FM122000 27012KT
                       2SM -RA BR OVC007 FM122300 28015KT 2SM -RASN
                       OVC008 FM130100 27015KT P6SM BKN015 FM130400
                       27015KT P6SM BKN030 RMK NXT FCST BY 120900Z=
201701120838 TAF CYOW 120838Z 1209/1306 16010KT 6SM -RA BR OVC030
                      TEMPO 1209/1210 2SM -RA BR OVC008 FM121000
                       18012KT 11/2SM -RA BR OVC004
                      TEMPO 1210/1216 3SM -RA BR OVC008
                      BECMG 1214/1216 24010KT FM121600 27012KT
                       6SM BR OVC012
                      TEMPO 1216/1220 2SM BR OVC007 FM122000 27012KT
                       2SM -RA BR OVC007 FM122300 28015KT 2SM -RASN
                       OVC008 FM130100 27015KT P6SM BKN015 FM130400
                       27015KT P6SM BKN030 RMK NXT FCST BY 121200Z=
201701121012 TAF AMD CYOW 121012Z 1210/1306 18012KT 6SM -RA BR OVC012
                      TEMPO 1210/1216 2SM -RA BR OVC008
                      BECMG 1214/1216 24010KT FM121600 27012KT
                       6SM BR OVC012
                      TEMPO 1216/1220 2SM BR OVC007 FM122000 27012KT
                       2SM -RA BR OVC007 FM122300 28015KT 2SM -RASN
                       OVC008 FM130100 27015KT P6SM BKN015 FM130400
                       27015KT P6SM BKN030 RMK NXT FCST BY 121200Z=
201701121115 TAF AMD CYOW 121115Z 1211/1306 18006KT 2SM -RA BR OVC003
                      TEMPO 1211/1213 6SM -RA BR OVC008 FM121300
                       21012KT 3/4SM -DZ BR OVC002
                      TEMPO 1213/1216 3SM BR OVC005 FM121600 27012KT
                       6SM BR OVC012
                      TEMPO 1216/1220 2SM BR OVC007 FM122000 27012KT
                       2SM -RA BR OVC007 FM122300 28015KT 2SM -RASN
                       OVC008 FM130100 27015KT P6SM BKN015 FM130400
                       27015KT P6SM BKN030 RMK NXT FCST BY 121200Z=
201701121138 TAF CYOW 121138Z 1212/1312 VRB03KT 1/2SM -RA FG VV001
                      TEMPO 1212/1213 2SM -RA BR OVC005 FM121300
                       21012KT 3/4SM -DZ BR OVC003
                      TEMPO 1213/1216 3SM BR OVC005 FM121600 27012KT
                       6SM BR OVC012
                      TEMPO 1216/1220 2SM BR OVC007 FM122000 27012KT
                       2SM -RA BR OVC007 FM122300 28015KT 2SM -RASN
                       OVC008 FM130100 27015KT P6SM BKN015 FM130400
                       27015KT P6SM BKN030 RMK NXT FCST BY 121500Z=
201701121326 TAF AMD CYOW 121326Z 1213/1312 VRB03KT 3/4SM -DZ BR OVC003
                      TEMPO 1213/1216 2SM -RA BR OVC006
                      BECMG 1213/1215 27010KT FM121600 27012KT
                       2SM -DZ BR OVC007
                      TEMPO 1216/1220 6SM BR OVC012 FM122000 27012KT
                       2SM -DZ BR OVC007
                      TEMPO 1220/1223 6SM -RA BR OVC012 FM122300
                       28015KT 2SM -RASN OVC008
                      TEMPO 1223/1301 6SM -SN OVC015
                      PROB30 1223/1301 3SM -FZDZ BR FM130100 27015KT
                       P6SM BKN015 FM130400 27015KT P6SM BKN030
                       RMK NXT FCST BY 121500Z=
201701121438 TAF CYOW 121438Z 1215/1312 VRB03KT 3/4SM -DZ BR OVC003
                      TEMPO 1215/1216 2SM -RA BR OVC006 FM121600
                       27012KT 2SM -DZ BR OVC007
                      TEMPO 1216/1220 6SM BR OVC015 FM122000 27012KT
                       2SM -DZ BR OVC007
                      TEMPO 1220/1223 6SM -RA BR OVC015 FM122300
                       28015KT 2SM -RASN OVC008
                      TEMPO 1223/1301 6SM -SN OVC020
                      PROB30 1223/1301 3SM -FZDZ BR FM130100 27015KT
                       P6SM BKN020 FM130400 27015KT P6SM BKN030
                       RMK NXT FCST BY 121800Z=
201701121545 TAF AMD CYOW 121545Z 1215/1312 28008KT 1/4SM -DZ FG OVC002
                      TEMPO 1215/1218 11/2SM -RA BR OVC004 FM121800
                       27012KT 2SM -DZ BR OVC006
                      TEMPO 1218/1220 6SM BR OVC015 FM122000 27012KT
                       2SM -DZ BR OVC007
                      TEMPO 1220/1223 6SM -RA BR OVC015 FM122300
                       28015KT 2SM -RASN OVC008
                      TEMPO 1223/1301 6SM -SN OVC020
                      PROB30 1223/1301 3SM -FZDZ BR FM130100 27015KT
                       P6SM BKN020 FM130400 27015KT P6SM BKN030
                       RMK NXT FCST BY 121800Z=
201701121738 TAF CYOW 121738Z 1218/1318 29006KT 3/4SM BR OVC002
                      TEMPO 1218/1220 11/2SM BR OVC006 FM122000
                       27012KT 2SM -DZ BR OVC007
                      TEMPO 1220/1223 6SM BR OVC015 FM122300 28015KT
                       21/2SM -RASN OVC008
                      TEMPO 1223/1301 6SM -SN OVC020
                      PROB30 1223/1301 3SM -FZDZ BR FM130100 27015KT
                       P6SM BKN020 FM130400 27015KT P6SM BKN030
                       TEMPO 1304/1312 6SM -SN FM131200 29015G25KT
                       P6SM FEW030 RMK NXT FCST BY 122100Z=
201701121908 TAF AMD CYOW 121908Z 1219/1318 28007KT 3SM BR OVC005
                      TEMPO 1219/1223 P6SM NSW OVC010 FM122300
                       28015KT 21/2SM -RASN OVC008
                      TEMPO 1223/1301 6SM -SN OVC020
                      PROB30 1223/1301 3SM -FZDZ BR FM130100 27015KT
                       P6SM BKN020 FM130400 27015KT P6SM BKN030
                       TEMPO 1304/1312 6SM -SN FM131200 29015G25KT
                       P6SM FEW030 RMK NXT FCST BY 122100Z=
201701122040 TAF CYOW 122040Z 1221/1318 29007KT P6SM OVC008
                      TEMPO 1221/1223 21/2SM -SHRA BR OVC005 FM122300
                       28015KT 21/2SM -RASN OVC006
                      TEMPO 1223/1301 6SM -SN OVC012
                      PROB30 1223/1301 3SM -FZDZ BR FM130100 27015KT
                       P6SM BKN020 FM130400 27015KT P6SM BKN030
                       TEMPO 1304/1312 6SM -SN FM131200 29015G25KT
                       P6SM FEW030 RMK NXT FCST BY 130000Z=
201701122338 TAF CYOW 122338Z 1300/1324 28010KT 3SM -SN OVC005
                      TEMPO 1300/1302 P6SM NSW SCT005 OVC010
                      PROB30 1300/1302 3SM -FZDZ BR FM130200 27015KT
                       P6SM BKN030
                      TEMPO 1302/1304 3SM BR BKN015 FM130400 27015KT
                       P6SM BKN030
                      TEMPO 1306/1312 6SM -SN FM131200 29015G25KT
                       P6SM FEW030 RMK NXT FCST BY 130300Z=
201701130238 TAF CYOW 130238Z 1303/1324 27012KT P6SM OVC040 FM131200 29015G25KT
                       P6SM FEW030 RMK NXT FCST BY 130600Z=
201701130538 TAF CYOW 130538Z 1306/1406 29010KT P6SM BKN040
                      TEMPO 1306/1308 BKN020 FM131200 29012G22KT
                       P6SM FEW030
                      BECMG 1322/1324 30008KT RMK NXT FCST BY 130900Z=
201701130838 TAF CYOW 130838Z 1309/1406 29010KT P6SM BKN040 FM131200 29012G22KT
                       P6SM FEW030
                      BECMG 1322/1324 30008KT RMK NXT FCST BY 131200Z=
201701131008 TAF AMD CYOW 131008Z 1310/1406 29010G20KT 6SM -SN OVC025
                      TEMPO 1310/1311 2SM -SN OVC012 FM131100 29010KT
                       P6SM BKN040 FM131200 29012G22KT P6SM FEW030
                       BECMG 1322/1324 30008KT RMK NXT FCST BY
                       131200Z=
201701131138 TAF CYOW 131138Z 1312/1412 29015G25KT P6SM FEW030
                      BECMG 1322/1324 30008KT RMK NXT FCST BY 131500Z=
201701131444 TAF CYOW 131444Z 1315/1412 29015G25KT P6SM FEW030
                      TEMPO 1315/1318 BKN030
                      BECMG 1318/1320 30010G20KT FM140000 30008KT
                       P6SM FEW030 RMK NXT FCST BY 131800Z=
201701131740 TAF CYOW 131740Z 1318/1418 29020G30KT P6SM FEW030
                      BECMG 1318/1320 30012G22KT FM140000 30008KT
                       P6SM FEW030
                      BECMG 1407/1409 VRB03KT RMK NXT FCST BY 132100Z=
201701132039 TAF CYOW 132039Z 1321/1418 29012G22KT P6SM FEW040 FM140000 30008KT
                       P6SM FEW030
                      BECMG 1407/1409 VRB03KT RMK NXT FCST BY 140000Z=
201701132338 TAF CYOW 132338Z 1400/1424 30010KT P6SM SKC
                      BECMG 1407/1409 VRB03KT FM141300 14006KT
                       P6SM SCT100 FM141800 22007KT P6SM BKN080
                       RMK NXT FCST BY 140300Z=
201701140238 TAF CYOW 140238Z 1403/1424 32008KT P6SM SKC FM141300 14006KT P6SM
                       SCT100 FM141800 22007KT P6SM BKN080 RMK
                       NXT FCST BY 140600Z=
201701140538 TAF CYOW 140538Z 1406/1506 34008KT P6SM SKC FM141200 14006KT P6SM
                       SCT100 FM141800 16005KT P6SM BKN080 FM150000
                       21008KT P6SM BKN040 OVC060 FM150300 24008KT
                       P6SM BKN030 RMK NXT FCST BY 140900Z=
201701140838 TAF CYOW 140838Z 1409/1506 02005KT P6SM SKC FM141200 14006KT P6SM
                       SCT100 FM141800 16005KT P6SM BKN080 FM150000
                       21008KT P6SM BKN040 OVC060 FM150300 24008KT
                       P6SM BKN030 RMK NXT FCST BY 141200Z=
201701141138 TAF CYOW 141138Z 1412/1512 02005KT P6SM FEW020 SCT100
                      TEMPO 1413/1415 BKN020 BKN100 FM141800 16005KT
                       P6SM BKN080 FM150000 21008KT P6SM BKN040
                       OVC060 FM150300 24008KT P6SM BKN030 FM150700
                       27008KT P6SM FEW030 RMK NXT FCST BY 141500Z=
201701141441 TAF CYOW 141441Z 1415/1512 VRB03KT P6SM OVC120 FM141800 20005KT
                       P6SM FEW030 OVC080 FM142200 21006KT P6SM
                       BKN030 OVC060
                      TEMPO 1422/1503 5SM -SN OVC020 FM150300 24008KT
                       P6SM BKN020
                      TEMPO 1503/1507 BKN025 FM150700 27008KT P6SM
                       FEW030 RMK NXT FCST BY 141800Z=
201701141738 TAF CYOW 141738Z 1418/1518 16005KT P6SM FEW030 OVC070 FM142200
                       20006KT P6SM -SN BKN030 OVC060
                      TEMPO 1422/1503 5SM -SN OVC020 FM150300 24008KT
                       P6SM BKN020
                      TEMPO 1503/1507 BKN025 FM150800 29012KT P6SM
                       FEW030
                      BECMG 1514/1516 30006KT RMK NXT FCST BY 142100Z=
201701142038 TAF CYOW 142038Z 1421/1518 16005KT P6SM OVC070 FM142200 20006KT
                       P6SM -SN BKN030 OVC060
                      TEMPO 1422/1503 5SM -SN FM150300 24008KT
                       P6SM BKN020
                      TEMPO 1503/1507 BKN025 FM150800 29012KT P6SM
                       FEW030
                      BECMG 1514/1516 30006KT RMK NXT FCST BY 150000Z=
201701142338 TAF CYOW 142338Z 1500/1524 VRB03KT P6SM -SN BKN030 OVC060
                      TEMPO 1500/1503 5SM -SN FM150300 24008KT
                       P6SM BKN020
                      TEMPO 1503/1507 BKN025 FM150800 29012KT P6SM
                       FEW030
                      BECMG 1514/1516 30006KT FM152300 VRB03KT
                       P6SM FEW140 RMK NXT FCST BY 150300Z=
201701150238 TAF CYOW 150238Z 1503/1524 VRB03KT P6SM FEW020 BKN050
                      TEMPO 1503/1508 BKN020
                      BECMG 1503/1505 25010KT FM150800 28012KT
                       P6SM FEW030
                      BECMG 1510/1512 30010KT
                      BECMG 1516/1518 28008KT FM152300 VRB03KT
                       P6SM FEW140 RMK NXT FCST BY 150600Z=
201701150538 TAF CYOW 150538Z 1506/1606 24007KT P6SM OVC040
                      TEMPO 1506/1508 BKN020
                      BECMG 1506/1508 28010KT FM150800 28010KT
                       P6SM BKN040
                      TEMPO 1508/1512 SCT040 FM151200 30010KT P6SM
                       SCT040
                      BECMG 1518/1520 VRB03KT FM152300 VRB03KT
                       P6SM FEW140 FM160300 16005KT P6SM FEW030
                       BKN120 RMK NXT FCST BY 150900Z=
201701150838 TAF CYOW 150838Z 1509/1606 29005KT P6SM FEW040
                      TEMPO 1509/1512 BKN040 FM151200 30010KT P6SM
                       SCT040
                      BECMG 1518/1520 VRB03KT FM152300 VRB03KT
                       P6SM FEW140 FM160300 16005KT P6SM FEW030
                       BKN120 RMK NXT FCST BY 151200Z=
201701151138 TAF CYOW 151138Z 1512/1612 26008KT P6SM FEW040
                      TEMPO 1512/1514 BKN040 FM152300 VRB03KT P6SM
                       FEW140 FM160300 16005KT P6SM FEW030 BKN120
                       FM160600 VRB03KT P6SM BKN030 FM161000 VRB03KT
                       P6SM FEW006 BKN015 RMK NXT FCST BY 151500Z=
201701151438 TAF CYOW 151438Z 1515/1612 35008KT P6SM FEW015
                      BECMG 1517/1519 29007KT FM152300 VRB03KT
                       P6SM FEW140 FM160300 16005KT P6SM FEW030
                       BKN120 FM160600 VRB03KT P6SM BKN030 FM161000
                       VRB03KT P6SM FEW006 BKN015 RMK NXT FCST
                       BY 151800Z=
201701151738 TAF CYOW 151738Z 1518/1618 VRB03KT P6SM FEW020 SCT240 FM152300
                       VRB03KT P6SM FEW140 FM160300 VRB03KT P6SM
                       FEW015 BKN120 FM161000 18006KT P6SM FEW006
                       SCT010
                      BECMG 1613/1615 23010G20KT RMK NXT FCST BY
                       152100Z=
201701152039 TAF CYOW 152039Z 1521/1618 25007KT P6SM FEW030 BKN240 FM152300
                       VRB03KT P6SM FEW140 FM160300 VRB03KT P6SM
                       FEW015 BKN120 FM161000 18006KT P6SM FEW006
                       SCT010
                      BECMG 1613/1615 23010G20KT RMK NXT FCST BY
                       160000Z=
201701152338 TAF CYOW 152338Z 1600/1624 VRB03KT P6SM FEW180 SCT220 FM160300
                       VRB03KT P6SM FEW015 BKN120 FM161000 18006KT
                       P6SM FEW006 SCT010
                      BECMG 1613/1615 23010G20KT FM162200 23010KT
                       P6SM SCT030 RMK NXT FCST BY 160300Z=
201701160238 TAF CYOW 160238Z 1603/1624 VRB03KT P6SM BKN150 FM160400 VRB03KT
                       P6SM FEW015 BKN120 FM161000 18006KT P6SM
                       FEW006 SCT010
                      BECMG 1613/1615 23010G20KT FM162200 23010KT
                       P6SM SCT030 RMK NXT FCST BY 160600Z=
201701160539 TAF CYOW 160539Z 1606/1706 VRB03KT P6SM SKC FM160700 VRB03KT P6SM
                       BKN030
                      TEMPO 1607/1612 OVC020 FM161200 18006KT P6SM
                       FEW004 SCT010
                      BECMG 1613/1615 23010G20KT FM161700 23010G20KT
                       P6SM FEW030 FM162200 23010KT P6SM SCT030
                       FM170500 30005KT P6SM FEW030 RMK NXT FCST
                       BY 160900Z=
201701160839 TAF CYOW 160839Z 1609/1706 20006KT P6SM BKN030
                      TEMPO 1609/1612 BKN020 FM161200 20006KT P6SM
                       FEW004 SCT010
                      BECMG 1613/1615 23012G22KT FM161700 23013G23KT
                       P6SM FEW030 FM162200 23010KT P6SM SCT030
                       FM170500 30005KT P6SM FEW030 RMK NXT FCST
                       BY 161200Z=
201701161140 TAF CYOW 161140Z 1612/1712 VRB03KT P6SM FEW220
                      BECMG 1613/1615 23012G22KT FM161700 23013G23KT
                       P6SM FEW030 FM162200 23010KT P6SM SCT030
                       FM170500 30005KT P6SM FEW030 FM171000 05005KT
                       P6SM FEW004
                      PROB30 1710/1712 1/2SM FZFG RMK NXT FCST
                       BY 161500Z=
201701161438 TAF CYOW 161438Z 1615/1712 24010KT P6SM FEW100
                      BECMG 1615/1617 23012G22KT FM161700 23013G23KT
                       P6SM FEW030 FM162200 23010KT P6SM SCT030
                       FM170500 30005KT P6SM FEW030 FM171000 05005KT
                       P6SM FEW004
                      PROB30 1710/1712 1/2SM FZFG RMK NXT FCST
                       BY 161800Z=
201701161738 TAF CYOW 161738Z 1618/1718 24013G23KT P6SM FEW100 FM162200 23010KT
                       P6SM SCT030 FM170300 23007KT P6SM BKN030
                       FM170800 35005KT P6SM FEW030 FM171000 05005KT
                       P6SM FEW004 BKN240
                      PROB30 1710/1716 1/2SM FZFG BKN004 FM171600
                       08010KT P6SM SCT010 BKN200 RMK NXT FCST
                       BY 162100Z=
201701162038 TAF CYOW 162038Z 1621/1718 22012G22KT P6SM FEW100 FM162300 23010KT
                       P6SM SCT030 FM170300 23007KT P6SM BKN030
                       FM170800 35005KT P6SM FEW030 FM171000 05005KT
                       P6SM FEW004 BKN240
                      PROB30 1710/1716 1/2SM FZFG BKN004 FM171600
                       08010KT P6SM SCT010 BKN200 RMK NXT FCST
                       BY 170000Z=
201701162338 TAF CYOW 162338Z 1700/1724 22010KT P6SM FEW030 FEW100 FM170300
                       23007KT P6SM BKN030 FM170800 35005KT P6SM
                       FEW030 FM171000 05005KT P6SM FEW004 BKN240
                       PROB30 1710/1715 1/2SM FZFG BKN004 FM171600
                       08010KT P6SM SCT010 BKN200 FM172100 08015KT
                       6SM -SN SCT010 OVC100
                      PROB30 1721/1723 6SM -SN -PL FM172300 08012KT
                       2SM -SN OVC010
                      PROB30 1723/1724 3SM -SN -PL RMK NXT FCST
                       BY 170300Z=
201701170238 TAF CYOW 170238Z 1703/1724 21006KT P6SM FEW030 SCT250 FM170800
                       35005KT P6SM FEW030 FM171000 05005KT P6SM
                       FEW004 BKN240
                      PROB30 1710/1715 1/2SM FZFG BKN004 FM171600
                       08010KT P6SM SCT010 BKN200 FM172100 08015KT
                       6SM -SN SCT010 OVC100
                      PROB30 1721/1723 6SM -SN -PL FM172300 08012KT
                       2SM -SN OVC010
                      PROB30 1723/1724 3SM -SN -PL RMK NXT FCST
                       BY 170600Z=
201701170544 TAF CYOW 170544Z 1706/1806 23005KT P6SM FEW030 SCT250 FM170800
                       35005KT P6SM FEW030 FM171000 05005KT P6SM
                       FEW004 BKN240
                      PROB30 1710/1715 1/2SM FZFG BKN004 FM171600
                       08010KT P6SM SCT010 BKN200 FM172100 08015KT
                       6SM -SN SCT010 OVC100
                      PROB30 1721/1723 6SM -SN -PL FM172300 08012KT
                       2SM -SN OVC010
                      PROB30 1723/1805 3SM -SN -PL FM180500 08015KT
                       2SM -SNPL OVC008 RMK NXT FCST BY 170900Z=
201701170838 TAF CYOW 170838Z 1709/1806 VRB03KT P6SM FEW200 FM171000 05005KT
                       P6SM FEW004 BKN240
                      PROB30 1710/1715 1/2SM FZFG BKN004 FM171600
                       08010KT P6SM SCT010 BKN200 FM172100 08015KT
                       6SM -SN SCT010 OVC100
                      PROB30 1721/1723 6SM -SN -PL FM172300 08012KT
                       2SM -SN OVC010
                      PROB30 1723/1805 3SM -SN -PL FM180500 08015KT
                       2SM -SNPL OVC008 RMK NXT FCST BY 171200Z=
201701171138 TAF CYOW 171138Z 1712/1812 05005KT P6SM FEW004 BKN240
                      PROB30 1712/1713 1/2SM FZFG BKN004 FM171600
                       08010KT P6SM SCT015 BKN200 FM172100 08015KT
                       6SM -SN SCT010 OVC100
                      PROB30 1721/1723 6SM -SN -PL FM172300 08012KT
                       2SM -SN OVC010
                      PROB30 1723/1805 3SM -SN -PL FM180500 08015KT
                       2SM -SNPL OVC008 FM180900 08015KT 2SM -SNPL
                       OVC004 RMK NXT FCST BY 171500Z=
201701171443 TAF CYOW 171443Z 1715/1812 06008KT P6SM FEW020 BKN220
                      TEMPO 1715/1722 BKN020 OVC160 FM172200 08010G20KT
                       P6SM SCT012 OVC100
                      TEMPO 1722/1723 5SM -SNPL OVC012 FM172300
                       08010G20KT 1SM -SN VV009
                      TEMPO 1723/1806 3SM -SNPL SCT008 OVC025 FM180600
                       08015KT 11/2SM -SN -FZDZ BR OVC006
                      PROB30 1806/1812 3SM -SNPL OVC004 RMK NXT
                       FCST BY 171800Z=
201701171742 TAF CYOW 171742Z 1718/1818 08010G20KT P6SM FEW020 BKN160
                      TEMPO 1718/1722 BKN020 OVC120 FM172200 08012G22KT
                       P6SM SCT012 OVC100
                      TEMPO 1722/1723 5SM -SNPL OVC012 FM172300
                       08012G22KT 2SM -SN BKN010 OVC025
                      TEMPO 1723/1805 4SM -SNPL SCT010 OVC025 FM180500
                       08015KT 2SM -SN OVC006
                      TEMPO 1805/1809 4SM -SNPL OVC008 FM180900
                       07012KT 2SM -SN -FZDZ BR OVC005
                      PROB30 1809/1814 4SM -SNPL FM181400 07012KT
                       2SM -SN -FZDZ BR OVC005 RMK NXT FCST BY
                       172100Z=
201701172043 TAF CYOW 172043Z 1721/1818 08010G20KT P6SM BKN120 OVC180
                      TEMPO 1721/1723 BKN015 OVC120 FM172300 08012G22KT
                       P6SM SCT012 OVC100
                      TEMPO 1723/1724 5SM -SNPL OVC012 FM180000
                       08012G22KT 2SM -SN BKN010 OVC025
                      TEMPO 1800/1805 4SM -SNPL SCT010 OVC025 FM180500
                       08015KT 2SM -SN OVC006
                      TEMPO 1805/1812 4SM -SNPL OVC008
                      PROB30 1805/1812 3SM -FZRA BR FM181200 07012KT
                       2SM -SN OVC005
                      PROB30 1812/1818 4SM -FZDZ BR RMK NXT FCST
                       BY 180000Z=
201701172340 TAF CYOW 172340Z 1800/1824 07012G22KT P6SM BKN050 OVC070
                      TEMPO 1800/1801 2SM -SNPL OVC020 FM180010
                       08012G22KT 2SM -SN BKN010 OVC025
                      TEMPO 1800/1805 6SM -SNPL SCT010 OVC025 FM180500
                       08015KT 2SM -SN OVC006
                      TEMPO 1805/1812 6SM -SNPL OVC008
                      PROB30 1805/1812 4SM -FZRA BR FM181200 07012KT
                       11/2SM -SN BR OVC005
                      PROB30 1812/1821 3SM -FZDZ BR FM182100 02006KT
                       2SM -SN BR OVC007
                      PROB30 1821/1824 4SM -FZDZ BR RMK NXT FCST
                       BY 180300Z=
201701180025 TAF AMD CYOW 180025Z 1800/1824 07011G21KT P6SM -SN OVC030
                      TEMPO 1800/1803 5SM -FZRA -SNPL BR OVC015
                       FM180300 08012G22KT 2SM -SN BKN010 OVC025
                       TEMPO 1803/1805 6SM -SNPL SCT010 OVC025
                       FM180500 08015KT 2SM -SN OVC006
                      TEMPO 1805/1812 6SM -SNPL OVC008
                      PROB30 1805/1812 4SM -FZRA BR FM181200 07012KT
                       11/2SM -SN BR OVC005
                      PROB30 1812/1821 3SM -FZDZ BR FM182100 02006KT
                       2SM -SN BR OVC007
                      PROB30 1821/1824 4SM -FZDZ BR RMK NXT FCST
                       BY 180300Z=
201701180238 TAF CYOW 180238Z 1803/1824 07010G20KT 6SM -SN OVC025
                      TEMPO 1803/1805 2SM -SNPL BKN010 FM180500
                       08015KT 2SM -SN OVC006
                      TEMPO 1805/1812 6SM -SNPL OVC008
                      PROB30 1805/1812 4SM -FZRA BR FM181200 07012KT
                       11/2SM -SN BR OVC005
                      PROB30 1812/1821 3SM -FZDZ BR FM182100 02006KT
                       2SM -SN BR OVC007
                      PROB30 1821/1824 4SM -FZDZ BR RMK NXT FCST
                       BY 180600Z=
201701180506 TAF AMD CYOW 180506Z 1805/1824 06010G20KT 6SM -SN OVC025
                      TEMPO 1805/1807 13/4SM -SN OVC013 FM180700
                       07010G20KT 6SM -SN OVC025
                      TEMPO 1807/1812 2SM -SNPL OVC006
                      PROB30 1807/1812 4SM -FZRA BR FM181200 07012KT
                       11/2SM -SN BR OVC005
                      PROB30 1812/1821 3SM -FZDZ BR FM182100 02006KT
                       2SM -SN BR OVC007
                      PROB30 1821/1824 4SM -FZDZ BR RMK NXT FCST
                       BY 180600Z=
201701180538 TAF CYOW 180538Z 1806/1906 06010G20KT 6SM -SN OVC025
                      TEMPO 1806/1807 13/4SM -SN OVC013 FM180700
                       07010G20KT 6SM -SN OVC025
                      TEMPO 1807/1812 2SM -SNPL OVC006
                      PROB30 1807/1812 4SM -FZRA BR FM181200 07012KT
                       11/2SM -SN BR OVC005
                      PROB30 1812/1821 3SM -FZDZ BR FM182100 02006KT
                       2SM -SN BR OVC007
                      PROB30 1821/1824 4SM -FZDZ BR FM190000 24005KT
                       6SM BR BKN015 OVC140
                      PROB30 1900/1903 3SM -FZDZ BR FM190300 17003KT
                       5SM BR BKN012 BKN120 RMK NXT FCST BY 180900Z=
201701180706 TAF AMD CYOW 180706Z 1807/1906 06011KT 6SM -SN OVC011
                      TEMPO 1807/1812 3SM -FZDZ -SN OVC006
                      PROB30 1807/1812 11/4SM -FZRA BR OVC004 FM181200
                       07012KT 11/2SM -SN BR OVC005
                      PROB30 1812/1821 3SM -FZDZ BR FM182100 02006KT
                       2SM -SN BR OVC007
                      PROB30 1821/1824 4SM -FZDZ BR FM190000 24005KT
                       6SM BR BKN015 OVC140
                      PROB30 1900/1903 3SM -FZDZ BR FM190300 17003KT
                       5SM BR BKN012 BKN120 RMK NXT FCST BY 180900Z=
201701180838 TAF CYOW 180838Z 1809/1906 05009KT 2SM -FZDZ -SN OVC006
                      TEMPO 1809/1812 6SM -SN OVC011
                      PROB30 1809/1812 11/4SM -FZRA BR OVC004 FM181200
                       07012KT 11/2SM -SN BR OVC005
                      PROB30 1812/1821 3SM -FZDZ BR FM182100 02006KT
                       2SM -SN BR OVC007
                      PROB30 1821/1824 4SM -FZDZ BR FM190000 24005KT
                       6SM BR BKN015 OVC140
                      PROB30 1900/1903 3SM -FZDZ BR FM190300 17003KT
                       5SM BR BKN012 BKN120 RMK NXT FCST BY 181200Z=
201701181138 TAF CYOW 181138Z 1812/1912 07008KT 2SM -FZDZ BR OVC004
                      TEMPO 1812/1815 6SM -SN OVC008 FM181500 07012KT
                       11/2SM -SN BR OVC005
                      PROB30 1815/1821 3SM -FZDZ BR FM182100 02006KT
                       2SM -SN BR OVC007
                      PROB30 1821/1824 4SM -FZDZ BR FM190000 24005KT
                       6SM BR BKN015 OVC140
                      PROB30 1900/1903 3SM -FZDZ BR FM190300 17003KT
                       5SM BR BKN012 BKN120 FM190600 21005KT 3SM
                       BR SCT100 FM190900 23006KT 3SM BR FEW012
                       PROB30 1909/1912 11/2SM BR RMK NXT FCST
                       BY 181500Z=
201701181440 TAF CYOW 181440Z 1815/1912 05007KT 21/2SM -FZDZ BR OVC004
                      TEMPO 1815/1824 4SM -SN BR OVC008
                      BECMG 1820/1822 30006KT FM190000 24005KT
                       6SM BR BKN015 OVC140
                      PROB30 1900/1903 3SM -FZDZ BR FM190300 17003KT
                       5SM BR BKN012 BKN120 FM190600 21005KT 3SM
                       BR SCT100 FM190900 23006KT 3SM BR FEW012
                       PROB30 1909/1912 11/2SM BR RMK NXT FCST
                       BY 181800Z=
201701181741 TAF CYOW 181741Z 1818/1918 VRB03KT 21/2SM -FZDZ BR OVC004
                      TEMPO 1818/1823 4SM -SN BR OVC006
                      BECMG 1820/1822 32006KT FM182300 27005KT
                       4SM -FZDZ BR OVC006
                      TEMPO 1823/1903 6SM -SN OVC010 FM190300 25005KT
                       5SM BR BKN012 BKN120 FM190900 25006KT 3SM
                       BR FEW012 BKN030
                      PROB30 1909/1915 11/2SM BR FM191500 28007KT
                       6SM BR BKN012 OVC030 RMK NXT FCST BY 182100Z=
201701182039 TAF CYOW 182039Z 1821/1918 21003KT 1SM -FZDZ BR OVC003
                      TEMPO 1821/1823 3SM -SN BR OVC005 FM182300
                       23005KT 4SM -FZDZ BR OVC005
                      TEMPO 1823/1903 6SM -SN OVC010 FM190300 25005KT
                       5SM BR BKN012 BKN120 FM190900 25006KT 3SM
                       BR FEW012 BKN030
                      PROB30 1909/1915 11/2SM BR FM191500 28007KT
                       6SM BR BKN012 OVC030 RMK NXT FCST BY 190000Z=
201701182308 TAF AMD CYOW 182308Z 1823/1918 22005KT 11/2SM -FZDZ BR OVC003
                      TEMPO 1823/1904 3SM -SN OVC005 FM190400 24005KT
                       21/2SM BR OVC006
                      TEMPO 1904/1906 5SM BR OVC010
                      PROB30 1904/1906 2SM -FZDZ BR OVC003 FM190600
                       25005KT 5SM BR BKN010 BKN030
                      PROB30 1909/1915 11/2SM BR FM191500 28007KT
                       6SM BR BKN012 OVC030 RMK NXT FCST BY 190000Z=
201701182338 TAF CYOW 182338Z 1900/1924 22005KT 2SM -FZDZ BR OVC003
                      TEMPO 1900/1904 4SM -SN OVC005 FM190400 24005KT
                       21/2SM BR OVC006
                      TEMPO 1904/1906 5SM BR OVC010
                      PROB30 1904/1906 2SM -FZDZ BR OVC003 FM190600
                       25005KT 5SM BR BKN010 BKN030
                      PROB30 1909/1915 11/2SM BR FM191500 28007KT
                       6SM BR BKN012 OVC030 FM192000 26005KT P6SM
                       BKN015 RMK NXT FCST BY 190300Z=
201701190149 TAF AMD CYOW 190149Z 1901/1924 17004KT 6SM BR OVC025
                      TEMPO 1901/1904 4SM BR OVC008 FM190400 24005KT
                       21/2SM BR OVC006
                      TEMPO 1904/1906 5SM BR OVC010
                      PROB30 1904/1906 2SM -FZDZ BR OVC003 FM190600
                       25005KT 5SM BR BKN010 BKN030
                      PROB30 1909/1915 11/2SM BR FM191500 28007KT
                       6SM BR BKN012 OVC030 FM192000 26005KT P6SM
                       BKN015 RMK NXT FCST BY 190300Z=
201701190202 TAF AMD CYOW 190202Z 1902/1924 21003KT 6SM BR OVC025
                      TEMPO 1902/1904 3SM BR OVC003 FM190400 24005KT
                       21/2SM BR OVC006
                      TEMPO 1904/1906 5SM BR OVC010
                      PROB30 1904/1906 2SM -FZDZ BR OVC003 FM190600
                       25005KT 5SM BR BKN010 BKN030
                      PROB30 1909/1915 11/2SM BR FM191500 28007KT
                       6SM BR BKN012 OVC030 FM192000 26005KT P6SM
                       BKN015 RMK NXT FCST BY 190300Z=
201701190238 TAF CYOW 190238Z 1903/1924 21003KT 3SM BR OVC003
                      TEMPO 1903/1906 6SM BR OVC014 FM190600 25005KT
                       5SM BR BKN010 BKN030
                      PROB30 1909/1915 11/2SM BR FM191500 28007KT
                       6SM BR BKN012 OVC030 FM192000 26005KT P6SM
                       BKN015 RMK NXT FCST BY 190600Z=
201701190538 TAF CYOW 190538Z 1906/2006 21006KT 11/2SM BR OVC002
                      TEMPO 1906/1909 6SM BR OVC015 FM190900 25005KT
                       5SM BR BKN010 BKN030
                      PROB30 1909/1915 11/2SM BR FM191500 28007KT
                       6SM BR BKN012 OVC030 FM192000 26005KT P6SM
                       BKN015 FM200000 VRB03KT P6SM SCT015 FM200300
                       VRB03KT 6SM BR SCT015 SCT140 RMK NXT FCST
                       BY 190900Z=
201701190838 TAF CYOW 190838Z 1909/2006 21006KT 2SM -SN -FZDZ BKN002
                      TEMPO 1909/1912 6SM BR OVC015 FM191200 25005KT
                       5SM BR BKN010 BKN030
                      PROB30 1912/1915 11/2SM BR FM191500 28007KT
                       6SM BR BKN012 OVC030 FM192000 26005KT P6SM
                       BKN015 FM200000 VRB03KT P6SM SCT015 FM200300
                       VRB03KT 6SM BR SCT015 SCT140 RMK NXT FCST
                       BY 191200Z=
201701191138 TAF CYOW 191138Z 1912/2012 23004KT 4SM BR BKN013
                      TEMPO 1912/1915 P6SM NSW OVC030
                      PROB30 1912/1915 1/2SM FZFG VV002 FM191500
                       28007KT 6SM BR BKN012 OVC030 FM192000 26005KT
                       P6SM BKN015 FM200100 VRB03KT 6SM BR SCT015
                       SCT140 FM200600 12003KT 3SM BR BKN015 OVC190
                       FM200900 10003KT 11/2SM BR BKN015
                      PROB30 2009/2012 1/2SM FZFG VV003 RMK NXT
                       FCST BY 191500Z=
201701191439 TAF CYOW 191439Z 1915/2012 25006KT P6SM OVC025
                      TEMPO 1915/2006 FEW012 OVC020
                      BECMG 2000/2002 08005KT FM200600 12003KT
                       3SM BR BKN015 OVC190 FM200900 10003KT 11/2SM
                       BR BKN015
                      PROB30 2009/2012 1/2SM FZFG VV003 RMK NXT
                       FCST BY 191800Z=
201701191740 TAF CYOW 191740Z 1918/2018 25007KT P6SM OVC025
                      TEMPO 1918/2006 FEW012 OVC020
                      BECMG 2000/2002 01003KT FM200900 10003KT
                       11/2SM BR SCT005 OVC025
                      PROB30 2009/2015 1/2SM=
201701192039 TAF CYOW 192039Z 1921/2018 26005KT P6SM OVC025
                      TEMPO 1921/2006 FEW006 OVC020
                      BECMG 2000/2002 01003KT FM200900 10003KT
                       11/2SM BR SCT005 OVC020
                      PROB30 2009/2015 1/2SM=
201701192340 TAF CYOW 192340Z 2000/2024 25003KT P6SM OVC025
                      TEMPO 2000/2009 5SM BR FEW006 OVC020
                      BECMG 2000/2002 01003KT FM200900 10003KT
                       11/2SM BR SCT005 OVC020
                      PROB30 2009/2017 1/2SM=
201701200238 TAF CYOW 200238Z 2003/2024 VRB03KT P6SM OVC030
                      TEMPO 2003/2009 5SM BR OVC020
                      PROB30 2003/2009 OVC008 FM200900 10003KT
                       11/2SM BR SCT005 OVC020
                      PROB30 2009/2017 1/2SM=
201701200538 TAF CYOW 200538Z 2006/2106 10003KT P6SM OVC025
                      TEMPO 2006/2009 4SM BR OVC015
                      PROB30 2006/2009 21/2SM BR BKN005 FM200900
                       10003KT 11/2SM BR SCT005 OVC020
                      PROB30 2009/2017 1/2SM=
201701200750 TAF AMD CYOW 200750Z 2007/2106 16003KT P6SM OVC025
                      TEMPO 2007/2012 4SM BR OVC004
                      PROB30 2007/2012 13/4SM BR FM201200 10003KT
                       11/2SM BR SCT005 OVC020
                      PROB30 2012/2017 1/2SM=
201701200804 TAF AMD CYOW 200804Z 2008/2106 14003KT P6SM OVC025
                      TEMPO 2008/2012 4SM -SN BR OVC003
                      PROB30 2008/2012 13/4SM BR FM201200 10003KT
                       11/2SM BR SCT005 OVC020
                      PROB30 2012/2017 1/2SM=
201701200838 TAF CYOW 200838Z 2009/2106 14003KT P6SM OVC025
                      TEMPO 2009/2012 4SM -SN BR OVC003
                      PROB30 2009/2012 3/4SM BR FM201200 10003KT
                       11/2SM BR SCT005 OVC020
                      PROB30 2012/2017 1/2SM=
201701200909 TAF AMD CYOW 200909Z 2009/2106 13002KT P6SM OVC025
                      TEMPO 2009/2012 21/2SM -SN BR OVC001
                      PROB30 2009/2012 3/4SM BR FM201200 10003KT
                       11/2SM BR SCT005 OVC020
                      PROB30 2012/2017 1/2SM=
201701200937 TAF AMD CYOW 200937Z 2009/2106 14004KT 3/4SM -SN -RA -DZ BR OVC001
                       TEMPO 2009/2012 P6SM NSW OVC025
                      PROB30 2009/2012 1/4SM -FZDZ=
201701201138 TAF CYOW 201138Z 2012/2112 12003KT 4SM BR OVC012
                      TEMPO 2012/2017 P6SM NSW OVC025
                      PROB30 2012/2015 2SM -SN -DZ BR OVC002 FM201700
                       08007KT 4SM BR SCT006 OVC020 FM202100 08008KT
                       P6SM FEW010 SCT030 FM210000 07006KT 6SM
                       BR FEW020 FEW280 FM210600 07003KT 3SM BR
                       BKN020 BKN260 FM210900 07003KT 11/2SM -FZDZ
                       BR OVC015 RMK NXT FCST BY 201500Z=
201701201439 TAF CYOW 201439Z 2015/2112 11006KT P6SM OVC012
                      TEMPO 2015/2018 5SM -DZ BR OVC008 FM202100
                       08008KT P6SM BKN030
                      TEMPO 2021/2103 BKN020 FM210300 07003KT 3SM
                       BR BKN020 BKN260 FM210900 07003KT 11/2SM
                       -FZDZ BR OVC006 RMK NXT FCST BY 201800Z=
201701201738 TAF CYOW 201738Z 2018/2118 12007KT P6SM OVC010
                      TEMPO 2018/2020 P6SM -SN OVC008 FM210700
                       05005KT 2SM BR OVC003
                      TEMPO 2107/2110 6SM BR OVC008 FM211000 VRB03KT
                       11/2SM -FZDZ BR OVC003
                      TEMPO 2110/2114 3SM BR OVC006 FM211400 VRB03KT
                       1SM BR OVC003
                      TEMPO 2114/2118 3SM BR OVC006 RMK NXT FCST
                       BY 202100Z=
201701202038 TAF CYOW 202038Z 2021/2118 12007KT P6SM OVC015
                      TEMPO 2021/2024 P6SM -SN FM210700 05005KT
                       2SM BR OVC003
                      TEMPO 2107/2110 6SM BR OVC008 FM211000 VRB03KT
                       11/2SM -FZDZ BR OVC003
                      TEMPO 2110/2114 3SM BR OVC006 FM211400 VRB03KT
                       1SM BR OVC003
                      TEMPO 2114/2118 3SM BR OVC006 RMK NXT FCST
                       BY 210000Z=
201701202338 TAF CYOW 202338Z 2100/2124 09007KT P6SM OVC015
                      TEMPO 2105/2107 2SM BR BKN006 FM210700 05005KT
                       2SM BR OVC003
                      TEMPO 2107/2110 6SM BR OVC008 FM211000 VRB03KT
                       11/2SM -FZDZ BR OVC003
                      TEMPO 2110/2114 3SM BR OVC006 FM211400 VRB03KT
                       1SM BR OVC003
                      TEMPO 2114/2124 3SM BR OVC006 RMK NXT FCST
                       BY 210300Z=
201701210238 TAF CYOW 210238Z 2103/2124 07005KT P6SM OVC015
                      TEMPO 2103/2107 OVC025
                      PROB30 2103/2107 4SM BR BKN004 FM210700 05005KT
                       2SM BR OVC003
                      TEMPO 2107/2110 6SM BR OVC008 FM211000 VRB03KT
                       11/2SM -FZDZ BR OVC003
                      TEMPO 2110/2114 3SM BR OVC006 FM211400 VRB03KT
                       1SM BR OVC003
                      TEMPO 2114/2124 3SM BR OVC006 RMK NXT FCST
                       BY 210600Z=
201701210538 TAF CYOW 210538Z 2106/2206 07005KT P6SM OVC020
                      TEMPO 2106/2109 OVC025
                      PROB30 2106/2109 21/2SM BR BKN002 FM210900
                       05005KT 2SM BR OVC003
                      TEMPO 2109/2110 6SM BR OVC008 FM211000 VRB03KT
                       11/2SM -FZDZ BR OVC003
                      TEMPO 2110/2114 3SM BR OVC006 FM211400 VRB03KT
                       1SM BR OVC003
                      TEMPO 2114/2124 3SM BR OVC006 FM220000 06003KT
                       1SM BR OVC003
                      PROB30 2200/2203 1/2SM FG VV002 FM220300
                       06003KT 1/2SM FG VV002
                      PROB30 2203/2206 1/8SM -DZ FG VV001 RMK NXT
                       FCST BY 210900Z=
201701210813 TAF AMD CYOW 210813Z 2108/2206 07003KT P6SM OVC008
                      TEMPO 2108/2112 5SM -DZ -SN BR OVC015
                      PROB30 2108/2112 3/8SM -FZDZ FG VV001 FM211200
                       VRB03KT 11/2SM -FZDZ BR OVC003
                      TEMPO 2112/2114 3SM BR OVC006 FM211400 VRB03KT
                       1SM BR OVC003
                      TEMPO 2114/2124 3SM BR OVC006 FM220000 06003KT
                       1SM BR OVC003
                      PROB30 2200/2203 1/2SM FG VV002 FM220300
                       06003KT 1/2SM FG VV002
                      PROB30 2203/2206 1/8SM -DZ FG VV001 RMK NXT
                       FCST BY 210900Z=
201701210838 TAF CYOW 210838Z 2109/2206 07003KT P6SM OVC008
                      TEMPO 2109/2112 5SM -DZ -SN BR OVC015
                      PROB30 2109/2112 3/8SM -FZDZ FG VV001 FM211200
                       VRB03KT 11/2SM -FZDZ BR OVC003
                      TEMPO 2112/2114 3SM BR OVC006 FM211400 VRB03KT
                       1SM BR OVC003
                      TEMPO 2114/2124 3SM BR OVC006 FM220000 06003KT
                       1SM BR OVC003
                      PROB30 2200/2203 1/2SM FG VV002 FM220300
                       06003KT 1/2SM FG VV002
                      PROB30 2203/2206 1/8SM -DZ FG VV001 RMK NXT
                       FCST BY 211200Z=
201701211011 TAF AMD CYOW 211011Z 2110/2206 05006KT 11/2SM -SN -FZDZ BR OVC002
                       TEMPO 2110/2112 6SM BR OVC010
                      PROB30 2110/2112 1/4SM FG VV001 FM211200
                       VRB03KT 11/2SM -FZDZ BR OVC003
                      TEMPO 2112/2114 3SM BR OVC006 FM211400 VRB03KT
                       1SM BR OVC003
                      TEMPO 2114/2124 3SM BR OVC006 FM220000 06003KT
                       1SM BR OVC003
                      PROB30 2200/2203 1/2SM FG VV002 FM220300
                       06003KT 1/2SM FG VV002
                      PROB30 2203/2206 1/8SM -DZ FG VV001 RMK NXT
                       FCST BY 211200Z=
201701211138 TAF CYOW 211138Z 2112/2212 06006KT 6SM BR OVC006
                      TEMPO 2112/2114 11/2SM -SN -FZDZ BR OVC003
                       FM211400 VRB03KT 1SM BR OVC003
                      TEMPO 2114/2124 3SM BR OVC006 FM220000 06003KT
                       1SM BR OVC003
                      PROB30 2200/2203 1/2SM FG VV002 FM220300
                       06003KT 1/2SM FG VV002
                      PROB30 2203/2212 1/8SM -DZ FG VV001 RMK NXT
                       FCST BY 211500Z=
201701211441 TAF CYOW 211441Z 2115/2212 VRB03KT 11/2SM BR OVC003
                      TEMPO 2115/2124 3SM BR OVC006 FM220000 06003KT
                       1SM BR OVC003
                      PROB30 2200/2203 1/2SM FG VV002 FM220300
                       06003KT 1/2SM FG VV002
                      PROB30 2203/2212 1/8SM -DZ FG VV001 RMK NXT
                       FCST BY 211800Z=
201701211743 TAF CYOW 211743Z 2118/2218 VRB03KT 11/2SM BR OVC003
                      TEMPO 2118/2202 3SM BR OVC006 FM220200 VRB03KT
                       1SM BR OVC003
                      PROB30 2202/2204 1/2SM FG VV002 FM220400
                       06003KT 1/2SM FG VV002
                      PROB30 2204/2212 1/4SM -DZ FG VV001 FM221300
                       06007KT 1SM BR OVC003 FM221500 06012KT 3SM
                       BR OVC005 FM221700 06012KT P6SM OVC015 RMK
                       NXT FCST BY 212100Z=
201701212042 TAF CYOW 212042Z 2121/2218 VRB03KT 2SM BR OVC003
                      TEMPO 2121/2204 4SM BR OVC006
                      PROB30 2202/2204 1/2SM FG VV002 FM220400
                       06003KT 1/2SM FG VV002
                      PROB30 2204/2212 1/4SM -DZ FG VV001 FM221300
                       06007KT 1SM BR OVC003 FM221500 06012KT 3SM
                       BR OVC005 FM221700 06012KT P6SM OVC015 RMK
                       NXT FCST BY 220000Z=
201701212134 TAF AMD CYOW 212134Z 2121/2218 VRB03KT 6SM BR SCT005 OVC015
                      TEMPO 2121/2124 3SM BR OVC005 FM220000 VRB03KT
                       2SM BR OVC003
                      TEMPO 2200/2204 4SM BR OVC006
                      PROB30 2202/2204 1/2SM FG VV002 FM220400
                       06003KT 1/2SM FG VV002
                      PROB30 2204/2212 1/4SM -DZ FG VV001 FM221300
                       06007KT 1SM BR OVC003 FM221500 06012KT 3SM
                       BR OVC005 FM221700 06012KT P6SM OVC015 RMK
                       NXT FCST BY 220000Z=
201701212338 TAF CYOW 212338Z 2200/2224 VRB03KT 3SM BR OVC008
                      TEMPO 2200/2202 6SM BR SCT008 OVC015 FM220300
                       VRB03KT 2SM BR OVC003
                      TEMPO 2203/2206 4SM BR OVC008
                      PROB30 2204/2206 1/2SM FG VV002 FM220600
                       06003KT 1/2SM -DZ FG VV002
                      PROB30 2206/2212 1/4SM -DZ FG VV001 FM221200
                       06007KT 1SM -DZ BR OVC003 FM221500 06012KT
                       3SM BR OVC005 FM221700 06012KT P6SM OVC015
                       RMK NXT FCST BY 220300Z=
201701220216 TAF AMD CYOW 220216Z 2202/2224 VRB03KT 5SM BR SCT007 OVC020
                      TEMPO 2202/2206 2SM BR OVC005
                      PROB30 2203/2206 1/2SM -DZ FG VV002 FM220600
                       06003KT 1/2SM -DZ FG VV002
                      PROB30 2206/2212 1/4SM -DZ FG VV001 FM221200
                       06007KT 1SM -DZ BR OVC003 FM221500 06012KT
                       3SM BR OVC005 FM221700 06012KT P6SM OVC015
                       RMK NXT FCST BY 220300Z=
201701220239 TAF CYOW 220239Z 2203/2224 VRB03KT 5SM BR SCT007 OVC020
                      TEMPO 2203/2206 1SM -DZ BR OVC004
                      PROB30 2203/2206 1/2SM -DZ FG VV002 FM220600
                       06003KT 1/2SM -DZ FG VV002
                      PROB30 2206/2212 1/4SM -DZ FG VV001 FM221200
                       06007KT 1SM -DZ BR OVC003 FM221500 06012KT
                       3SM BR OVC005 FM221700 06012KT P6SM OVC015
                       RMK NXT FCST BY 220600Z=
201701220539 TAF CYOW 220539Z 2206/2306 VRB03KT 1/2SM -DZ FG VV003
                      TEMPO 2206/2215 11/2SM BR BKN006 OVC020
                      PROB30 2208/2214 1/4SM -DZ FG VV001 FM221500
                       06012KT 3SM BR OVC007
                      TEMPO 2215/2217 6SM BR SCT008 OVC020 FM221700
                       06012KT P6SM FEW010 OVC020 FM230200 07015KT
                       P6SM OVC015
                      PROB30 2302/2306 5SM -FZDZ BR RMK NXT FCST
                       BY 220900Z=
201701220804 TAF AMD CYOW 220804Z 2208/2306 05007KT 2SM -RA BR FEW005 OVC020
                       TEMPO 2208/2212 4SM BR OVC030 FM221200 06010KT
                       3SM BR FEW008 OVC020
                      TEMPO 2212/2216 6SM BR OVC025
                      PROB30 2212/2216 BKN007 FM221600 06012KT
                       P6SM OVC025
                      TEMPO 2216/2302 OVC020 FM230200 07015KT P6SM
                       OVC015
                      PROB30 2302/2306 5SM -FZDZ BR RMK NXT FCST
                       BY 220900Z=
201701220838 TAF CYOW 220838Z 2209/2306 05007KT 2SM -RA BR FEW005 OVC020
                      TEMPO 2209/2212 4SM BR OVC030 FM221200 06012KT
                       4SM BR FEW008 OVC020
                      TEMPO 2212/2216 6SM BR OVC025
                      PROB30 2212/2216 BKN007 FM221600 06012KT
                       P6SM OVC025
                      TEMPO 2216/2302 OVC020 FM230200 07015KT P6SM
                       OVC015
                      PROB30 2302/2306 5SM -FZDZ BR RMK NXT FCST
                       BY 221200Z=
201701221138 TAF CYOW 221138Z 2212/2312 06008KT 4SM -RA BR OVC003
                      TEMPO 2212/2214 6SM BR BKN004 OVC040 FM221400
                       06010KT 5SM BR BKN005 OVC030
                      TEMPO 2214/2216 P6SM NSW FEW007 OVC030 FM221600
                       06012KT P6SM OVC030
                      TEMPO 2216/2301 OVC020 FM230100 07015KT P6SM
                       OVC015
                      PROB40 2301/2305 5SM -FZDZ BR FM230500 07015KT
                       5SM -FZDZ BR SCT008 OVC015 RMK NXT FCST
                       BY 221500Z=
201701221438 TAF CYOW 221438Z 2215/2312 07012KT P6SM FEW008 OVC015
                      TEMPO 2215/2216 5SM BR BKN008 OVC015 FM221600
                       06012KT P6SM OVC030
                      TEMPO 2216/2301 OVC020
                      BECMG 2218/2220 08012G22KT FM230100 07015KT
                       P6SM OVC015
                      PROB40 2301/2305 5SM -FZDZ BR FM230500 07018KT
                       5SM -FZDZ BR SCT008 OVC015 RMK NXT FCST
                       BY 221800Z=
201701221738 TAF CYOW 221738Z 2218/2318 07006KT P6SM FEW015 BKN025
                      TEMPO 2218/2301 6SM -DZ BR BKN020 OVC025
                       BECMG 2218/2220 08012KT FM230100 07015KT
                       P6SM OVC015
                      PROB40 2301/2305 5SM -FZDZ BR BKN008 FM230500
                       07018KT 5SM -FZDZ -SN BR BKN008 OVC015 FM231300
                       07015G25KT P6SM BKN015 BKN025 FM231600 07015G25KT
                       P6SM SCT025 RMK NXT FCST BY 222100Z=
201701222038 TAF CYOW 222038Z 2221/2318 07012G22KT P6SM SCT020 BKN040
                      TEMPO 2221/2301 BKN020 FM230100 07015KT P6SM
                       OVC015
                      PROB40 2301/2305 5SM -FZDZ BR BKN008 FM230500
                       07018KT P6SM OVC012
                      TEMPO 2305/2313 5SM -FZDZ -SN BR BKN008 OVC012
                       FM231300 07015G25KT P6SM BKN015 BKN025 FM231600
                       07015G25KT P6SM SCT025 RMK NXT FCST BY 230000Z=
201701222338 TAF CYOW 222338Z 2300/2324 07012G22KT P6SM BKN025
                      TEMPO 2300/2302 BKN020 FM230200 07015KT P6SM
                       OVC015
                      TEMPO 2302/2305 OVC025
                      PROB40 2302/2305 5SM -FZDZ BR BKN008 FM230500
                       07018KT P6SM OVC012
                      TEMPO 2305/2313 5SM -FZDZ -SN BR BKN008 OVC012
                       FM231300 07015G25KT P6SM BKN015 BKN025 FM231600
                       07015G25KT P6SM SCT025 FM232200 07012G22KT
                       P6SM FEW020 OVC180 RMK NXT FCST BY 230300Z=
201701230238 TAF CYOW 230238Z 2303/2324 07012G22KT P6SM OVC025
                      TEMPO 2303/2305 P6SM -SN OVC020
                      PROB30 2303/2305 5SM -FZDZ BR BKN008 FM230500
                       07012G22KT P6SM OVC015
                      TEMPO 2305/2313 5SM -FZDZ -SN BR BKN008 OVC012
                       FM231300 07015G25KT P6SM BKN015 BKN025 FM231600
                       07015G25KT P6SM SCT025 FM232200 07012G22KT
                       P6SM FEW020 OVC180 RMK NXT FCST BY 230600Z=
201701230542 TAF CYOW 230542Z 2306/2406 07015G25KT P6SM OVC020
                      TEMPO 2306/2314 5SM -SN BR OVC012
                      PROB40 2306/2314 5SM -FZDZ BR BKN008 FM231400
                       07015G25KT P6SM BKN015 OVC025
                      PROB30 2314/2316 5SM -FZDZ BR FM232000 07015G25KT
                       P6SM FEW030 BKN220 FM240500 07015G25KT P6SM
                       BKN040 OVC120 RMK NXT FCST BY 230900Z=
201701230838 TAF CYOW 230838Z 2309/2406 07012G22KT P6SM OVC015
                      TEMPO 2309/2314 5SM -SN BR OVC008
                      PROB40 2309/2314 5SM -FZDZ BR FM231400 07015G25KT
                       P6SM BKN015 OVC025
                      TEMPO 2314/2320 SCT020 BKN030
                      PROB30 2314/2316 5SM -FZDZ BR FM232000 07015G25KT
                       P6SM FEW030 BKN220 FM240500 07015G25KT P6SM
                       BKN040 OVC120 RMK NXT FCST BY 231200Z=
201701231007 TAF AMD CYOW 231007Z 2310/2406 07012G22KT P6SM OVC015
                      TEMPO 2310/2314 5SM -SN -FZDZ BR OVC008 FM231400
                       07015G25KT P6SM BKN015 OVC025
                      TEMPO 2314/2320 SCT020 BKN030
                      PROB30 2314/2316 5SM -FZDZ BR FM232000 07015G25KT
                       P6SM FEW030 BKN220 FM240500 07015G25KT P6SM
                       BKN040 OVC120 RMK NXT FCST BY 231200Z=
201701231141 TAF CYOW 231141Z 2312/2412 07012G22KT 21/2SM -FZDZ BR OVC008
                      TEMPO 2312/2315 6SM -SN OVC012 FM231500 07015G25KT
                       P6SM BKN015 OVC025
                      TEMPO 2315/2320 SCT020 BKN030
                      PROB30 2315/2317 5SM -FZDZ BR FM232000 07015G25KT
                       P6SM FEW030 BKN220 FM240500 07015G25KT P6SM
                       BKN040 OVC120 FM240800 06015G25KT 11/2SM
                       -SN BKN020 OVC040 RMK NXT FCST BY 231500Z=
201701231438 TAF CYOW 231438Z 2315/2412 07014G24KT P6SM OVC015
                      TEMPO 2315/2320 OVC025 FM232000 07015G25KT
                       P6SM FEW030 BKN220 FM240500 07015G25KT P6SM
                       BKN040 OVC120 FM240800 06015G25KT 11/2SM
                       -SN BKN020 OVC040 RMK NXT FCST BY 231800Z=
201701231738 TAF CYOW 231738Z 2318/2418 07015G26KT P6SM OVC015
                      TEMPO 2318/2321 BKN030 FM232100 07015G25KT
                       P6SM FEW030 BKN220 FM240500 07015G25KT P6SM
                       BKN040 OVC120 FM240800 06015G25KT 11/2SM
                       -SN BKN020 OVC040 FM241200 07010G25KT 3/4SM
                       -SN VV008
                      PROB30 2412/2415 1/2SM SN BLSN VV004 FM241500
                       07010G25KT 1SM -SN OVC008
                      PROB30 2415/2418 3/4SM -SN BLSN VV006 RMK
                       NXT FCST BY 232100Z=
201701232038 TAF CYOW 232038Z 2321/2418 06014G24KT P6SM OVC020
                      TEMPO 2321/2324 BKN030 FM240000 07015G25KT
                       P6SM FEW030 BKN220 FM240500 07015G25KT P6SM
                       BKN040 OVC120 FM240800 06015G25KT 11/2SM
                       -SN BKN020 OVC040 FM241200 07010G25KT 3/4SM
                       -SN VV008
                      PROB30 2412/2415 1/2SM SN BLSN VV004 FM241500
                       07010G25KT 1SM -SN OVC008
                      PROB30 2415/2418 3/4SM -SN BLSN VV006 RMK
                       NXT FCST BY 240000Z=
201701232339 TAF CYOW 232339Z 2400/2424 07015G25KT P6SM BKN025
                      TEMPO 2400/2403 OVC020 FM240800 06015G25KT
                       11/2SM -SN BKN020 OVC040 FM241200 07010G25KT
                       3/4SM -SN VV008
                      PROB30 2412/2415 1/2SM SN BLSN VV004 FM241500
                       07010G25KT 1SM -SN OVC008
                      PROB30 2415/2418 3/4SM -SN BLSN VV006 FM241800
                       07009G19KT 2SM -SN OVC008 FM242200 07009KT
                       3SM -SN OVC008 RMK NXT FCST BY 240300Z=
201701240238 TAF CYOW 240238Z 2403/2424 06015G25KT P6SM FEW025 OVC180 FM240800
                       06015G25KT 11/2SM -SN BKN020 OVC040 FM241200
                       07010G25KT 3/4SM -SN VV008
                      PROB30 2412/2415 1/2SM SN BLSN VV004 FM241500
                       07010G25KT 1SM -SN OVC008
                      PROB30 2415/2418 3/4SM -SN BLSN VV006 FM241800
                       07009G19KT 2SM -SN OVC008 FM242200 07009KT
                       3SM -SN OVC008 RMK NXT FCST BY 240600Z=
201701240539 TAF CYOW 240539Z 2406/2506 07015KT P6SM FEW040 OVC160 FM240900
                       07015G25KT 6SM -SN SCT020 BKN040 OVC100
                       TEMPO 2409/2412 11/2SM -SN BKN020 OVC040
                       FM241200 07012G22KT 3/4SM -SN BLSN VV008
                       TEMPO 2412/2415 11/2SM -SN BLSN VV012 FM241500
                       06012G22KT 1SM -SN VV010
                      PROB30 2415/2418 3/4SM -SN BLSN VV006 FM241800
                       06010G20KT 2SM -SN OVC012 FM242200 06008KT
                       3SM -SN OVC012
                      BECMG 2422/2424 33007KT FM250300 33006KT
                       P6SM -SN OVC020 RMK NXT FCST BY 240900Z=
201701240838 TAF CYOW 240838Z 2409/2506 06015G25KT P6SM SCT040 BKN070 OVC120
                       FM241100 06015G25KT 6SM -SN SCT020 BKN040
                       OVC100
                      TEMPO 2411/2413 11/2SM -SN BKN020 OVC040
                       FM241300 06012G22KT 3/4SM -SN BLSN VV008
                       TEMPO 2413/2415 11/2SM -SN BLSN VV012 FM241500
                       06012G22KT 1SM -SN VV010
                      PROB30 2415/2418 3/4SM -SN BLSN VV006 FM241800
                       06010G20KT 2SM -SN OVC012 FM242200 06008KT
                       3SM -SN OVC012
                      BECMG 2422/2424 33007KT FM250300 33006KT
                       P6SM -SN OVC020 RMK NXT FCST BY 241200Z=
201701241140 TAF CYOW 241140Z 2412/2512 06015G25KT 6SM -SN SCT020 BKN040 OVC100
                       TEMPO 2412/2413 11/2SM -SN BKN020 OVC040
                       FM241300 06012G22KT 3/4SM -SN BLSN VV008
                       TEMPO 2413/2415 11/2SM -SN BLSN VV012 FM241500
                       06012G22KT 1SM -SN VV010
                      PROB30 2415/2418 3/4SM -SN BLSN VV006 FM241800
                       06010G20KT 2SM -SN OVC012 FM242200 06008KT
                       3SM -SN OVC012
                      BECMG 2422/2424 33007KT FM250300 33006KT
                       P6SM -SN OVC020 FM250600 33006KT P6SM OVC025
                       BECMG 2507/2509 27008KT RMK NXT FCST BY
                       241500Z=
201701241323 TAF AMD CYOW 241323Z 2413/2512 06013G23KT 2SM -SN OVC020
                      TEMPO 2413/2416 6SM -PL -FZRA OVC030
                      PROB30 2413/2416 3/4SM -SN BLSN VV008 FM241600
                       06012G22KT 1SM -SN VV010
                      PROB30 2416/2418 3/4SM -SN BLSN VV006 FM241800
                       06010G20KT 2SM -SN OVC012 FM242200 06008KT
                       3SM -SN OVC012
                      BECMG 2422/2424 33007KT FM250300 33006KT
                       P6SM -SN OVC020 FM250600 33006KT P6SM OVC025
                       BECMG 2507/2509 27008KT RMK NXT FCST BY
                       241500Z=
201701241440 TAF CYOW 241440Z 2415/2512 06012G22KT 2SM -SN OVC020
                      TEMPO 2415/2416 6SM -PL -FZRA OVC030
                      PROB30 2415/2416 3/4SM -SN BLSN VV008 FM241600
                       06012G22KT 1SM -SN VV010
                      PROB30 2416/2418 3/4SM -SN BLSN VV006 FM241800
                       06010G20KT 2SM -SN OVC012 FM242200 06008KT
                       3SM -SN OVC012
                      BECMG 2422/2424 33007KT FM250300 33006KT
                       P6SM -SN OVC020 FM250600 33006KT P6SM OVC025
                       BECMG 2507/2509 27008KT RMK NXT FCST BY
                       241800Z=
201701241741 TAF CYOW 241741Z 2418/2518 04005KT 3/4SM -SN BLSN VV006
                      TEMPO 2418/2419 2SM -SN OVC010 FM241900 04010G20KT
                       1SM -SN VV008
                      TEMPO 2419/2422 3SM -SN OVC020 FM242200 06012KT
                       21/2SM -SN OVC009
                      TEMPO 2422/2503 6SM -SN OVC020
                      BECMG 2422/2424 35007KT FM250300 33006KT
                       P6SM -SN OVC020 FM250600 33006KT P6SM OVC025
                       FM250900 28008KT 2SM BR BKN008 OVC015
                      PROB40 2511/2516 1/2SM FZFG VV002 FM251600
                       26010KT P6SM BKN025 BKN060 RMK NXT FCST
                       BY 242100Z=
201701241914 TAF AMD CYOW 241914Z 2419/2518 02005KT 3/4SM -SN BLSN VV006
                      TEMPO 2419/2421 2SM -SN OVC010 FM242100 02007KT
                       1SM -SN VV008
                      TEMPO 2421/2422 3SM -SN OVC020 FM242200 02007KT
                       21/2SM -SN OVC009
                      TEMPO 2422/2503 6SM -SN OVC020
                      BECMG 2422/2424 35007KT FM250300 33006KT
                       P6SM -SN OVC020 FM250600 33006KT P6SM OVC025
                       FM250900 28008KT 2SM BR BKN008 OVC015
                      PROB40 2511/2516 1/2SM FZFG VV002 FM251600
                       26010KT P6SM BKN025 BKN060 RMK NXT FCST
                       BY 242100Z=
201701242038 TAF CYOW 242038Z 2421/2518 05007KT 1SM -SN OVC008
                      TEMPO 2421/2422 3SM -SN OVC020 FM242200 04007KT
                       21/2SM -SN OVC009
                      TEMPO 2422/2503 6SM -SN OVC025
                      BECMG 2422/2424 35007KT FM250300 33006KT
                       P6SM -SN OVC020
                      TEMPO 2503/2506 P6SM NSW OVC025 FM250600
                       33006KT P6SM OVC025 FM250900 28008KT 2SM
                       BR BKN008 OVC015
                      PROB40 2511/2516 1/2SM FZFG VV002 FM251600
                       26010KT P6SM BKN025 BKN060 RMK NXT FCST
                       BY 250000Z=
201701242141 TAF AMD CYOW 242141Z 2421/2518 06007KT 6SM -SN OVC025
                      TEMPO 2421/2503 21/2SM -SN OVC009
                      BECMG 2422/2424 35007KT FM250300 33006KT
                       P6SM -SN OVC020
                      TEMPO 2503/2506 P6SM NSW OVC025 FM250600
                       33006KT P6SM OVC025 FM250900 28008KT 2SM
                       BR BKN008 OVC015
                      PROB40 2511/2516 1/2SM FZFG VV002 FM251600
                       26010KT P6SM BKN025 BKN060 RMK NXT FCST
                       BY 250000Z=
201701242338 TAF CYOW 242338Z 2500/2524 07007KT 6SM -SN OVC025
                      TEMPO 2500/2503 21/2SM -SN OVC009
                      BECMG 2500/2502 35007KT FM250300 33006KT
                       P6SM -SN OVC020
                      TEMPO 2503/2506 P6SM NSW OVC025 FM250600
                       33006KT P6SM OVC025 FM250900 28008KT 2SM
                       BR BKN008 OVC015
                      PROB40 2511/2516 1/2SM FZFG VV002 FM251600
                       26010KT P6SM BKN025 BKN060 RMK NXT FCST
                       BY 250300Z=
201701250125 TAF AMD CYOW 250125Z 2501/2524 VRB03KT 6SM -SN SCT006 OVC015
                      TEMPO 2501/2503 21/2SM -FZDZ -SN BR OVC005
                       FM250300 33006KT P6SM -SN OVC020
                      TEMPO 2503/2506 P6SM NSW OVC025 FM250600
                       33006KT P6SM OVC025 FM250900 28008KT 2SM
                       BR BKN008 OVC015
                      PROB40 2511/2516 1/2SM FZFG VV002 FM251600
                       26010KT P6SM BKN025 BKN060 RMK NXT FCST
                       BY 250300Z=
201701250238 TAF CYOW 250238Z 2503/2524 VRB03KT 3SM -SG -SN BR BKN005 OVC015
                       TEMPO 2503/2505 6SM -SN SCT006 OVC015 FM250500
                       33006KT P6SM -SN OVC020
                      TEMPO 2505/2509 P6SM NSW OVC025
                      PROB30 2505/2509 5SM -FZDZ -SG BR BKN009
                       OVC020 FM250900 28008KT 2SM BR BKN008 OVC015
                       PROB40 2509/2515 3/4SM -FZDZ -SG BR OVC003
                       FM251600 26010KT P6SM BKN025 BKN060 RMK
                       NXT FCST BY 250600Z=
201701250506 TAF AMD CYOW 250506Z 2505/2524 26006KT 4SM -SN BR SCT003 OVC020
                       TEMPO 2505/2509 6SM BR OVC030
                      PROB30 2506/2509 3SM -SG BR BKN003 OVC020
                       FM250900 28008KT 2SM BR BKN008 OVC015
                      PROB40 2509/2515 3/4SM -FZDZ -SG BR OVC003
                       FM251600 26010KT P6SM BKN025 BKN060 RMK
                       NXT FCST BY 250600Z=
201701250538 TAF CYOW 250538Z 2506/2606 26006KT 4SM -SN BR SCT003 OVC020
                      TEMPO 2506/2509 6SM BR OVC030
                      PROB30 2506/2509 3SM -SG BR BKN003 OVC020
                       FM250900 28008KT P6SM SCT008 OVC012
                      TEMPO 2509/2515 4SM -SN BR BKN007 OVC015
                       PROB40 2509/2515 3/4SM -FZDZ -SG BR BKN003
                       OVC010 FM251600 26010KT P6SM BKN025
                      TEMPO 2516/2519 OVC020
                      BECMG 2520/2522 22008KT FM260200 19008KT
                       4SM -SN BR BKN005 OVC012
                      PROB30 2602/2605 3SM -FZDZ -SG BR RMK NXT
                       FCST BY 250900Z=
201701250606 TAF AMD CYOW 250606Z 2506/2606 28006KT 5SM -SN BR BKN003 OVC020
                       TEMPO 2506/2509 P6SM NSW SCT003 OVC020
                      PROB30 2506/2509 3SM -SG BR FM250900 28008KT
                       P6SM SCT008 OVC012
                      TEMPO 2509/2515 4SM -SN BR BKN007 OVC015
                       PROB40 2509/2515 3/4SM -FZDZ -SG BR BKN003
                       OVC010 FM251600 26010KT P6SM BKN025
                      TEMPO 2516/2519 OVC020
                      BECMG 2520/2522 22008KT FM260200 19008KT
                       4SM -SN BR BKN005 OVC012
                      PROB30 2602/2605 3SM -FZDZ -SG BR RMK NXT
                       FCST BY 250900Z=
201701250838 TAF CYOW 250838Z 2509/2606 27008KT P6SM SCT004 OVC020
                      TEMPO 2509/2515 5SM -SN BR BKN004 OVC015
                       PROB30 2509/2515 1SM -SG BR OVC003 FM251600
                       26010KT P6SM BKN025
                      TEMPO 2516/2519 OVC020
                      BECMG 2520/2522 22008KT FM260200 19008KT
                       4SM -SN BR BKN005 OVC012
                      PROB30 2602/2605 3SM -FZDZ -SG BR RMK NXT
                       FCST BY 251200Z=
201701251138 TAF CYOW 251138Z 2512/2612 25010KT P6SM OVC005
                      TEMPO 2512/2515 SCT005 OVC020
                      PROB30 2512/2515 4SM -SG BR OVC003 FM251600
                       25010KT P6SM BKN025
                      TEMPO 2516/2519 OVC020
                      BECMG 2520/2522 22008KT FM260200 19008KT
                       4SM -SN BR BKN005 OVC012
                      PROB30 2602/2605 3SM -FZDZ -SG BR FM260700
                       20005KT 1SM -SN BR OVC003
                      PROB30 2608/2612 1/4SM FZFG VV001 RMK NXT
                       FCST BY 251500Z=
201701251221 TAF AMD CYOW 251221Z 2512/2612 26010KT 4SM BR OVC005
                      TEMPO 2512/2515 6SM BR SCT005 OVC020
                      PROB30 2512/2515 4SM -SG BR OVC003 FM251600
                       25010KT P6SM BKN025
                      TEMPO 2516/2519 OVC020
                      BECMG 2520/2522 22008KT FM260200 19008KT
                       4SM -SN BR BKN005 OVC012
                      PROB30 2602/2605 3SM -FZDZ -SG BR FM260700
                       20005KT 1SM -SN BR OVC003
                      PROB30 2608/2612 1/4SM FZFG VV001 RMK NXT
                       FCST BY 251500Z=
201701251438 TAF CYOW 251438Z 2515/2612 25010KT 4SM BR OVC007
                      TEMPO 2515/2518 6SM BR SCT007 OVC015 FM251800
                       25010KT P6SM OVC015
                      TEMPO 2518/2602 OVC025 FM260200 19008KT 4SM
                       -SN BR BKN005 OVC012
                      PROB30 2602/2605 3SM -FZDZ -SG BR FM260700
                       20005KT 1SM -SN BR OVC003
                      PROB30 2608/2612 1/4SM FZFG VV001 RMK NXT
                       FCST BY 251800Z=
201701251535 TAF AMD CYOW 251535Z 2515/2612 25010KT P6SM SCT015 OVC030
                      TEMPO 2516/2602 BKN015 OVC030 FM260200 19008KT
                       4SM -SN BR BKN005 OVC012
                      PROB30 2602/2605 3SM -FZDZ -SG BR FM260700
                       20005KT 1SM -SN BR OVC003
                      PROB30 2608/2612 1/4SM FZFG VV001 RMK NXT
                       FCST BY 251800Z=
201701251738 TAF CYOW 251738Z 2518/2618 27010KT P6SM SCT015 BKN030
                      TEMPO 2518/2601 BKN015 OVC030 FM260100 19006KT
                       6SM -SN OVC020
                      TEMPO 2601/2603 1SM -SN BR BKN005 OVC012
                       FM260300 VRB03KT 1SM -SN BR OVC005
                      PROB30 2603/2608 2SM -FZDZ -SG BR FM260800
                       VRB03KT 1SM BR OVC003
                      PROB30 2609/2612 1/4SM -FZDZ FZFG VV001 FM261200
                       VRB03KT 1SM -SN BR VV003 FM261500 29006KT
                       2SM BR OVC004 FM261700 30008KT 6SM BR BKN006
                       OVC020 RMK NXT FCST BY 252100Z=
201701252040 TAF CYOW 252040Z 2521/2618 23008KT P6SM OVC020 FM260100 19006KT
                       6SM -SN OVC020
                      TEMPO 2601/2603 1SM -SN BR BKN005 OVC012
                       FM260300 VRB03KT 1SM -SN BR OVC005
                      PROB30 2603/2608 2SM -FZDZ -SG BR FM260800
                       VRB03KT 1SM BR OVC003
                      PROB30 2609/2612 1/4SM -FZDZ FZFG VV001 FM261200
                       VRB03KT 1SM -SN BR VV003 FM261500 29006KT
                       2SM BR OVC004 FM261700 30008KT 6SM BR BKN006
                       OVC020 RMK NXT FCST BY 260000Z=
201701252338 TAF CYOW 252338Z 2600/2624 20005KT P6SM OVC020
                      TEMPO 2600/2603 21/2SM -SN BR BKN005 OVC012
                       FM260300 VRB03KT 1SM -SN BR OVC005
                      PROB30 2603/2608 2SM -FZDZ -SG BR FM260800
                       VRB03KT 1SM BR OVC003
                      PROB30 2609/2612 1/4SM -FZDZ FZFG VV001 FM261200
                       28005KT 1SM -SN BR VV003 FM261700 30008KT
                       2SM -SN BKN006 OVC020 FM262100 28012KT P6SM
                       BKN020 RMK NXT FCST BY 260300Z=
201701260238 TAF CYOW 260238Z 2603/2624 20007KT 6SM -SN BR SCT006 OVC015
                      TEMPO 2603/2605 21/2SM -SN BR BKN005 OVC012
                       FM260500 VRB03KT 2SM -SN BR OVC005
                      TEMPO 2605/2608 6SM BR SCT005 OVC010
                      PROB30 2605/2608 2SM -FZDZ -SG BR FM260800
                       VRB03KT 1SM BR OVC003
                      PROB30 2609/2612 1/4SM -FZDZ FZFG VV001 FM261200
                       28005KT 1SM -SN BR VV003 FM261700 30008KT
                       2SM -SN BKN006 OVC020 FM262100 28012KT P6SM
                       BKN020 RMK NXT FCST BY 260600Z=
201701260405 TAF AMD CYOW 260405Z 2604/2624 21005KT 1SM -SN BR VV002
                      TEMPO 2604/2608 3SM -SN BR OVC004
                      PROB30 2604/2608 2SM -FZDZ -SG BR FM260800
                       VRB03KT 1SM BR OVC003
                      PROB30 2609/2612 1/4SM -FZDZ FZFG VV001 FM261200
                       28005KT 1SM -SN BR VV003 FM261700 30008KT
                       2SM -SN BKN006 OVC020 FM262100 28012KT P6SM
                       BKN020 RMK NXT FCST BY 260600Z=
201701260539 TAF CYOW 260539Z 2606/2706 21005KT 11/2SM -SN BR OVC003
                      TEMPO 2606/2608 4SM -SN BR OVC004
                      PROB30 2606/2608 2SM -FZDZ -SG BR FM260800
                       24006KT 1SM BR OVC002
                      TEMPO 2608/2613 3SM -SN BR OVC004
                      PROB30 2609/2612 1/4SM -FZDZ FZFG VV001 FM261300
                       28008KT 1SM -SN BR OVC003
                      TEMPO 2613/2617 3SM -SN BR SCT004 OVC010
                       FM261700 28012KT 3SM -SN SCT006 OVC015
                      TEMPO 2617/2621 P6SM -SN FM262100 28015KT
                       P6SM BKN025 RMK NXT FCST BY 260900Z=
201701260606 TAF AMD CYOW 260606Z 2606/2706 19005KT 11/2SM -SN BR OVC002
                      TEMPO 2606/2608 4SM BR OVC004
                      PROB30 2606/2608 2SM -FZDZ -SG BR FM260800
                       24006KT 1SM BR OVC002
                      TEMPO 2608/2613 3SM -SN BR OVC004
                      PROB30 2609/2612 1/4SM -FZDZ FZFG VV001 FM261300
                       28008KT 1SM -SN BR OVC003
                      TEMPO 2613/2617 3SM -SN BR SCT004 OVC010
                       FM261700 28012KT 3SM -SN SCT006 OVC015
                      TEMPO 2617/2621 P6SM -SN FM262100 28015KT
                       P6SM BKN025 RMK NXT FCST BY 260900Z=
201701260711 TAF AMD CYOW 260711Z 2607/2706 20005KT 11/2SM -SN BR OVC002
                      TEMPO 2607/2609 4SM BR SCT002 OVC020 FM260900
                       24006KT 1SM BR OVC002
                      TEMPO 2609/2613 3SM -SN BR OVC004
                      PROB30 2609/2612 1/4SM -FZDZ FZFG VV001 FM261300
                       28008KT 1SM -SN BR OVC003
                      TEMPO 2613/2617 3SM -SN BR SCT004 OVC010
                       FM261700 28012KT 3SM -SN SCT006 OVC015
                      TEMPO 2617/2621 P6SM -SN FM262100 28015KT
                       P6SM BKN025 RMK NXT FCST BY 260900Z=
201701260838 TAF CYOW 260838Z 2609/2706 21005KT 11/2SM -SN BR OVC002
                      TEMPO 2609/2610 4SM BR SCT002 OVC020 FM261000
                       24006KT 1SM BR OVC002
                      TEMPO 2610/2613 3SM -SN BR OVC004
                      PROB30 2610/2613 1/2SM -FZDZ FZFG VV001 FM261300
                       28008KT 1SM -SN BR OVC003
                      TEMPO 2613/2617 3SM -SN BR SCT004 OVC010
                       FM261700 28012KT 3SM -SN SCT006 OVC015
                      TEMPO 2617/2621 P6SM -SN FM262100 28015KT
                       P6SM BKN025 RMK NXT FCST BY 261200Z=
201701261138 TAF CYOW 261138Z 2612/2712 24006KT 21/2SM -SN BR BKN008 OVC020
                       TEMPO 2612/2614 6SM -SN BR SCT008 OVC020
                       FM261400 28008KT 11/2SM -SN BR BKN004 OVC020
                       TEMPO 2614/2617 3SM -SN BR SCT004 OVC020
                       FM261700 28012KT 3SM -SN SCT006 OVC015
                      TEMPO 2617/2621 P6SM -SN FM262100 28015KT
                       P6SM BKN025 RMK NXT FCST BY 261500Z=
201701261209 TAF AMD CYOW 261209Z 2612/2712 24005KT 21/2SM -SN BR BKN003 OVC020
                       TEMPO 2612/2614 6SM -SN BR SCT003 OVC020
                       FM261400 28008KT 11/2SM -SN BR BKN004 OVC020
                       TEMPO 2614/2617 3SM -SN BR SCT004 OVC020
                       FM261700 28012KT 3SM -SN SCT006 OVC015
                      TEMPO 2617/2621 P6SM -SN FM262100 28015KT
                       P6SM BKN025 RMK NXT FCST BY 261500Z=
201701261423 TAF AMD CYOW 261423Z 2614/2712 24005KT 21/2SM -SN BR BKN007 OVC020
                       TEMPO 2614/2617 P6SM NSW SCT007 OVC030 FM261700
                       28012KT 3SM -SN SCT006 OVC015
                      TEMPO 2617/2621 P6SM -SN FM262100 28015KT
                       P6SM BKN025 RMK NXT FCST BY 261500Z=
201701261438 TAF CYOW 261438Z 2615/2712 24005KT 21/2SM -SN BR BKN007 OVC030
                       TEMPO 2615/2617 P6SM NSW SCT007 OVC030 FM261700
                       28012KT 3SM -SN SCT006 OVC015
                      TEMPO 2617/2621 P6SM NSW SCT015 OVC030 FM262100
                       29015KT P6SM BKN025 OVC070
                      TEMPO 2621/2712 6SM -SN OVC020 RMK NXT FCST
                       BY 261800Z=
201701261721 TAF AMD CYOW 261721Z 2617/2712 28012KT 2SM -SN BR OVC007
                      TEMPO 2617/2619 P6SM NSW SCT007 OVC015 FM261900
                       28012KT 4SM -SN OVC015
                      TEMPO 2619/2621 P6SM NSW SCT015 OVC030 FM262100
                       28010G20KT P6SM BKN025 OVC050
                      TEMPO 2621/2712 5SM -SN OVC020 RMK NXT FCST
                       BY 261800Z=
201701261739 TAF CYOW 261739Z 2618/2718 28012KT 2SM -SN BR OVC007
                      TEMPO 2618/2619 P6SM NSW SCT007 OVC015 FM261900
                       28012KT 4SM -SN OVC015
                      TEMPO 2619/2621 P6SM NSW SCT015 OVC030 FM262100
                       28010G20KT P6SM BKN025 OVC050
                      TEMPO 2621/2715 5SM -SN OVC020 FM271500 27015G25KT
                       4SM -SN OVC025 FM271700 27018G28KT 2SM -SN
                       OVC020 RMK NXT FCST BY 262100Z=
201701262040 TAF CYOW 262040Z 2621/2718 28010G20KT P6SM BKN025 OVC050
                      TEMPO 2621/2715 5SM -SN OVC020 FM271500 27015G25KT
                       4SM -SN OVC025 FM271700 27018G28KT 2SM -SN
                       OVC020 RMK NXT FCST BY 270000Z=
201701262338 TAF CYOW 262338Z 2700/2724 27008G18KT P6SM BKN025 OVC070
                      TEMPO 2700/2715 5SM -SN OVC020 FM271500 27015G25KT
                       4SM -SN OVC025 FM271700 27018G28KT 2SM -SN
                       OVC020 FM272200 28015G25KT 4SM -SN OVC025
                       BECMG 2722/2724 28010G20KT RMK NXT FCST
                       BY 270300Z=
201701270238 TAF CYOW 270238Z 2703/2724 27010G20KT P6SM BKN025 OVC070
                      TEMPO 2703/2715 5SM -SN OVC020 FM271500 27015G25KT
                       4SM -SN OVC025 FM271700 27018G28KT 2SM -SN
                       OVC020 FM272200 28015G25KT 4SM -SN OVC025
                       BECMG 2722/2724 28010G20KT RMK NXT FCST
                       BY 270600Z=
201701270538 TAF CYOW 270538Z 2706/2806 26012G22KT P6SM SCT025 OVC070
                      TEMPO 2706/2717 P6SM -SN BKN020 OVC050 FM271700
                       27015G28KT 6SM -SN OVC030
                      TEMPO 2717/2722 11/2SM -SN OVC015
                      PROB30 2717/2721 3/4SM -SHSN BLSN VV007 FM272200
                       28015G25KT 4SM -SN OVC020
                      BECMG 2722/2724 28012KT RMK NXT FCST BY 270900Z=
201701270838 TAF CYOW 270838Z 2709/2806 26015G25KT P6SM SCT025 OVC070
                      TEMPO 2709/2717 5SM -SN BKN020 OVC050 FM271700
                       27018G28KT 5SM -SN OVC030
                      TEMPO 2717/2722 11/2SM -SHSN OVC015
                      PROB30 2717/2721 3/4SM -SHSN BLSN VV007 FM272200
                       28015G25KT 4SM -SN OVC020
                      BECMG 2722/2724 28012KT RMK NXT FCST BY 271200Z=
201701271142 TAF CYOW 271142Z 2712/2812 26015G25KT P6SM SCT025 OVC070
                      TEMPO 2712/2717 5SM -SN BKN020 OVC050 FM271700
                       27018G28KT 5SM -SN OVC030
                      TEMPO 2717/2722 11/2SM -SHSN OVC015
                      PROB30 2717/2721 3/4SM -SHSN BLSN VV007 FM272200
                       28015G25KT 4SM -SN OVC020
                      BECMG 2723/2801 28012KT FM280700 28010KT
                       P6SM BKN030 RMK NXT FCST BY 271500Z=
201701271441 TAF CYOW 271441Z 2715/2812 25015G25KT P6SM OVC030
                      TEMPO 2715/2717 5SM -SN OVC020 FM271700 27018G28KT
                       4SM -SN OVC030
                      TEMPO 2717/2722 11/2SM -SHSN OVC020
                      PROB30 2717/2722 3/4SM -SHSN BLSN VV007 FM272200
                       28015G25KT 4SM -SN OVC020
                      TEMPO 2722/2724 P6SM NSW OVC025 FM280000
                       28010G20KT P6SM BKN025 OVC060
                      TEMPO 2800/2808 5SM -SN OVC020 FM280800 28012KT
                       P6SM SCT025 BKN060 RMK NXT FCST BY 271800Z=
201701271706 TAF AMD CYOW 271706Z 2717/2812 25016G26KT P6SM OVC030
                      TEMPO 2717/2719 4SM -SN OVC020 FM271815 26016G26KT
                       4SM -SN OVC030
                      TEMPO 2718/2724 11/2SM -SHSN OVC020
                      PROB30 2718/2723 3/4SM -SHSN BLSN VV007 FM280000
                       28010G20KT 4SM -SN OVC020
                      TEMPO 2800/2802 P6SM NSW OVC025 FM280200
                       28010G20KT P6SM OVC030
                      TEMPO 2802/2808 5SM -SN OVC020 FM280800 28010KT
                       P6SM SCT030 BKN100
                      TEMPO 2808/2812 P6SM -SN BKN030 OVC100 RMK
                       NXT FCST BY 271800Z=
201701271738 TAF CYOW 271738Z 2718/2818 25016G26KT P6SM -SN OVC030
                      TEMPO 2718/2719 4SM -SN OVC020 FM271815 26015G25KT
                       4SM -SN OVC030
                      TEMPO 2718/2724 11/2SM -SHSN OVC020
                      PROB30 2718/2723 3/4SM -SHSN BLSN VV007 FM280000
                       28010G20KT 4SM -SN OVC020
                      TEMPO 2800/2802 P6SM NSW OVC025 FM280200
                       28010G20KT P6SM OVC030
                      TEMPO 2802/2808 5SM -SN OVC020 FM280800 28010KT
                       P6SM SCT030 BKN100
                      TEMPO 2808/2815 P6SM -SN BKN030 OVC100 FM281500
                       25006KT P6SM -SN BKN020 BKN050 RMK NXT FCST
                       BY 272100Z=
201701272040 TAF CYOW 272040Z 2721/2818 26015G25KT 4SM -SN OVC025
                      TEMPO 2721/2724 11/2SM -SHSN OVC020
                      PROB30 2721/2723 3/4SM -SHSN BLSN VV008 FM280000
                       28010G20KT 4SM -SN OVC020
                      TEMPO 2800/2802 P6SM NSW OVC025 FM280200
                       28010G20KT P6SM OVC030
                      TEMPO 2802/2808 5SM -SN OVC020 FM280800 28010KT
                       P6SM SCT030 BKN100
                      TEMPO 2808/2815 P6SM -SN BKN030 OVC100 FM281500
                       25006KT P6SM -SN BKN020 BKN050 RMK NXT FCST
                       BY 280000Z=
201701272252 TAF AMD CYOW 272252Z 2722/2818 27015G25KT 6SM -SN OVC025
                      TEMPO 2722/2801 11/2SM -SN OVC015 FM280100
                       27010G20KT P6SM OVC030
                      TEMPO 2801/2808 5SM -SN OVC020 FM280800 27010KT
                       P6SM SCT030 BKN100
                      TEMPO 2808/2815 P6SM -SN BKN030 OVC100 FM281500
                       25006KT P6SM -SN BKN020 BKN050 RMK NXT FCST
                       BY 280000Z=
201701272338 TAF CYOW 272338Z 2800/2824 27012G22KT P6SM -SN OVC030
                      TEMPO 2800/2801 2SM -SN OVC015 FM280100 27010G20KT
                       P6SM OVC030
                      TEMPO 2801/2808 5SM -SN OVC020 FM280800 27010KT
                       P6SM SCT030 BKN100
                      TEMPO 2808/2815 P6SM -SN BKN030 OVC100 FM281500
                       25006KT P6SM -SN BKN020 BKN050 FM281800
                       24008KT 3SM -SHSN OVC020
                      PROB30 2818/2822 11/2SM -SHSN FM282200 22008KT
                       6SM -SHSN BKN025 OVC050 RMK NXT FCST BY
                       280300Z=
201701280238 TAF CYOW 280238Z 2803/2824 27012KT P6SM OVC060
                      TEMPO 2803/2808 P6SM -SHSN FM280800 27010KT
                       P6SM SCT030 BKN100
                      TEMPO 2808/2815 P6SM -SN BKN030 OVC100 FM281500
                       25006KT P6SM -SN BKN020 BKN050 FM281800
                       24008KT 3SM -SHSN OVC020
                      PROB30 2818/2822 11/2SM -SHSN FM282200 22008KT
                       6SM -SHSN BKN025 OVC050 RMK NXT FCST BY
                       280600Z=
201701280542 TAF CYOW 280542Z 2806/2906 26010KT P6SM BKN050 FM281800 23012KT
                       P6SM BKN030
                      TEMPO 2818/2903 5SM -SHSN OVC020 FM290300
                       22012KT 3SM -SHSN OVC020 RMK NXT FCST BY
                       280900Z=
201701280838 TAF CYOW 280838Z 2809/2906 26012KT P6SM BKN050 FM281800 23012KT
                       P6SM BKN030
                      TEMPO 2818/2903 5SM -SHSN OVC020 FM290300
                       22012KT 3SM -SHSN OVC020 RMK NXT FCST BY
                       281200Z=
201701281138 TAF CYOW 281138Z 2812/2912 23008KT P6SM BKN050 FM281800 23012KT
                       P6SM BKN030
                      TEMPO 2818/2903 5SM -SHSN OVC020 FM290300
                       22012KT 3SM -SHSN OVC020 RMK NXT FCST BY
                       281500Z=
201701281318 TAF AMD CYOW 281318Z 2813/2912 25005KT P6SM BKN030 OVC100
                      TEMPO 2813/2817 5SM -SN OVC020 FM281700 24010G20KT
                       P6SM -SHSN SCT020 OVC040
                      TEMPO 2817/2820 2SM -SHSN OVC020 FM282000
                       24010G20KT P6SM SCT020 BKN050
                      TEMPO 2820/2903 5SM -SHSN BKN020 OVC050 FM290300
                       22012KT 3SM -SHSN OVC020 RMK NXT FCST BY
                       281500Z=
201701281440 TAF CYOW 281440Z 2815/2912 24008KT P6SM -SHSN OVC030
                      TEMPO 2815/2819 3SM -SHSN OVC020
                      PROB30 2815/2819 2SM -SHSN FM281900 24010G20KT
                       P6SM SCT020 BKN050
                      TEMPO 2819/2903 5SM -SHSN BKN020 OVC050 FM290300
                       22012KT 3SM -SHSN OVC020 RMK NXT FCST BY
                       281800Z=
201701281544 TAF AMD CYOW 281544Z 2815/2912 23008KT P6SM -SN OVC025
                      TEMPO 2815/2819 2SM -SHSN OVC020 FM281900
                       24010G20KT P6SM SCT020 BKN050
                      TEMPO 2819/2903 5SM -SHSN BKN020 OVC050 FM290300
                       22012KT 3SM -SHSN OVC020 RMK NXT FCST BY
                       281800Z=
201701281738 TAF CYOW 281738Z 2818/2918 23010G20KT 6SM -SN SCT010 OVC025
                      TEMPO 2818/2820 2SM -SN BKN010 OVC025 FM282000
                       23010G20KT P6SM SCT020 BKN050
                      TEMPO 2820/2905 5SM -SHSN BKN020 OVC050 FM290500
                       22008KT 6SM -SN OVC030
                      TEMPO 2905/2910 11/2SM -SHSN VV009
                      PROB30 2905/2910 3/4SM -SHSN VV007 FM291000
                       29008KT 5SM -SHSN FEW015 BKN030 OVC070 RMK
                       NXT FCST BY 282100Z=
201701282038 TAF CYOW 282038Z 2821/2918 23012KT P6SM SCT020 OVC050
                      TEMPO 2821/2905 5SM -SHSN OVC020 FM290500
                       22008KT 6SM -SN OVC030
                      TEMPO 2905/2910 11/2SM -SHSN VV009
                      PROB30 2905/2910 3/4SM -SHSN VV007 FM291000
                       29008KT 5SM -SHSN FEW015 BKN030 OVC070 RMK
                       NXT FCST BY 290000Z=
201701282338 TAF CYOW 282338Z 2900/2924 21008KT P6SM BKN030 OVC050
                      TEMPO 2900/2905 5SM -SHSN OVC020 FM290500
                       22008KT 6SM -SN OVC030
                      TEMPO 2905/2910 11/2SM -SHSN VV009
                      PROB30 2905/2910 3/4SM -SHSN VV007 FM291000
                       29008KT P6SM BKN030 BKN070
                      TEMPO 2910/2920 5SM -SHSN BKN020 OVC070 FM292000
                       29012KT P6SM SCT040 BKN080 RMK NXT FCST
                       BY 290300Z=
201701290240 TAF CYOW 290240Z 2903/2924 22012KT P6SM SCT025 BKN060 OVC110
                      TEMPO 2903/2905 21/2SM -SHSN OVC020 FM290500
                       22010KT 6SM -SN OVC030
                      TEMPO 2905/2910 11/2SM -SHSN VV009
                      PROB30 2905/2910 3/4SM -SHSN VV007 FM291000
                       29008KT P6SM BKN030 BKN070
                      TEMPO 2910/2920 5SM -SHSN BKN020 OVC070 FM292000
                       29012KT P6SM SCT040 BKN080 RMK NXT FCST
                       BY 290600Z=
201701290540 TAF CYOW 290540Z 2906/3006 22010KT 6SM -SN SCT015 OVC030
                      TEMPO 2906/2910 11/2SM -SHSN VV009
                      PROB30 2906/2910 3/4SM -SHSN VV007 FM291000
                       27010KT P6SM BKN030 BKN070
                      TEMPO 2910/2920 5SM -SHSN BKN020 OVC070
                      BECMG 2910/2912 33008KT FM292000 30012KT
                       P6SM SCT040 BKN080 FM300300 30007KT P6SM
                       SCT040 RMK NXT FCST BY 290900Z=
201701290839 TAF CYOW 290839Z 2909/3006 25007KT 3SM -SN OVC015
                      TEMPO 2909/2910 P6SM -SN SCT015 OVC030 FM291000
                       27010KT P6SM BKN030 BKN070
                      TEMPO 2910/2920 5SM -SHSN BKN020 OVC070
                      BECMG 2910/2912 33008KT FM292000 30012KT
                       P6SM SCT040 BKN080 FM300300 30007KT P6SM
                       SCT040 RMK NXT FCST BY 291200Z=
201701291139 TAF CYOW 291139Z 2912/3012 26006KT P6SM BKN030 OVC080
                      TEMPO 2912/2922 5SM -SHSN BKN020 OVC070
                      BECMG 2912/2914 33008KT FM292200 30012KT
                       P6SM SCT040 BKN080 FM300400 30007KT P6SM
                       FEW040 SCT120 RMK NXT FCST BY 291500Z=
201701291440 TAF CYOW 291440Z 2915/3012 25006KT P6SM OVC025
                      TEMPO 2915/2922 5SM -SHSN OVC020
                      BECMG 2915/2917 33008KT FM292200 30012KT
                       P6SM SCT040 BKN080 FM300400 30007KT P6SM
                       FEW040 SCT120 RMK NXT FCST BY 291800Z=
201701291504 TAF AMD CYOW 291504Z 2915/3012 25006KT P6SM -SN OVC025
                      TEMPO 2915/2918 2SM -SHSN OVC020 FM291800
                       33008KT P6SM OVC025
                      TEMPO 2918/2922 5SM -SHSN OVC020 FM292200
                       30012KT P6SM SCT040 BKN080 FM300400 30007KT
                       P6SM FEW040 SCT120 RMK NXT FCST BY 291800Z=
201701291738 TAF CYOW 291738Z 2918/3018 VRB03KT P6SM -SN OVC025
                      TEMPO 2918/2922 2SM -SHSN OVC020 FM292200
                       30012KT P6SM BKN030 FM300400 30007KT P6SM
                       FEW040 SCT120
                      BECMG 3012/3014 27006KT RMK NXT FCST BY 292100Z=
201701292038 TAF CYOW 292038Z 2921/3018 31005KT P6SM -SN OVC025
                      TEMPO 2921/2924 2SM -SHSN OVC020 FM300000
                       30012KT P6SM BKN030 FM300400 30007KT P6SM
                       FEW040 SCT120
                      BECMG 3012/3014 27006KT RMK NXT FCST BY 300000Z=
201701292338 TAF CYOW 292338Z 3000/3024 30012KT P6SM BKN040
                      TEMPO 3000/3002 2SM -SHSN OVC020 FM300400
                       30007KT P6SM FEW040 SCT120
                      BECMG 3012/3014 27006KT RMK NXT FCST BY 300300Z=
201701300238 TAF CYOW 300238Z 3003/3024 29009KT P6SM BKN050
                      TEMPO 3003/3004 P6SM -SN FM300400 30007KT
                       P6SM FEW040 SCT120
                      BECMG 3012/3014 27006KT RMK NXT FCST BY 300600Z=
201701300538 TAF CYOW 300538Z 3006/3106 31009KT P6SM -SN OVC050
                      TEMPO 3006/3009 P6SM NSW BKN015 FM300900
                       30007KT P6SM FEW040 SCT120 FM301400 27006KT
                       P6SM SCT030
                      TEMPO 3014/3019 BKN030 FM310000 25005KT P6SM
                       FEW030 RMK NXT FCST BY 300900Z=
201701300838 TAF CYOW 300838Z 3009/3106 29008KT P6SM FEW040 FM301400 27006KT
                       P6SM SCT030
                      TEMPO 3014/3019 BKN030 FM310000 25005KT P6SM
                       FEW030 RMK NXT FCST BY 301200Z=
201701301139 TAF CYOW 301139Z 3012/3112 28007KT P6SM FEW040 SCT120 FM301400
                       27006KT P6SM SCT030
                      TEMPO 3014/3019 BKN030 FM310000 25005KT P6SM
                       FEW030 FM310600 11003KT P6SM FEW150
                      BECMG 3107/3109 07003KT RMK NXT FCST BY 301500Z=
201701301439 TAF CYOW 301439Z 3015/3112 28008KT P6SM FEW040 FEW100 FM301600
                       27008KT P6SM BKN040 FM310000 27005KT P6SM
                       FEW040 FM310600 11003KT P6SM FEW150
                      BECMG 3107/3109 07003KT RMK NXT FCST BY 301800Z=
201701301738 TAF CYOW 301738Z 3018/3118 25008KT P6SM FEW025 BKN040 BKN100 FM310400
                       VRB03KT P6SM FEW040 FM311200 07005KT P6SM
                       SKC RMK NXT FCST BY 302100Z=
201701302041 TAF CYOW 302041Z 3021/3118 25010KT P6SM SCT040 BKN080 FM310400
                       VRB03KT P6SM FEW040 FM311200 07005KT P6SM
                       SKC RMK NXT FCST BY 310000Z=
201701302338 TAF CYOW 302338Z 3100/3124 26006KT P6SM SCT040 BKN080 FM310400
                       VRB03KT P6SM FEW040 FM311200 07005KT P6SM
                       SKC
                      BECMG 3118/3120 07010KT FM312300 07010KT
                       P6SM BKN050 BKN200 RMK NXT FCST BY 310300Z=
201701310238 TAF CYOW 310238Z 3103/3124 21005KT P6SM SKC
                      BECMG 3104/3106 VRB03KT FM311200 07005KT
                       P6SM SKC
                      BECMG 3118/3120 07010KT FM312300 07010KT
                       P6SM BKN050 BKN200 RMK NXT FCST BY 310600Z=
201701310538 TAF CYOW 310538Z 3106/0106 VRB03KT P6SM SKC
                      BECMG 3110/3112 07005KT FM312300 07008KT
                       P6SM BKN040 BKN190 RMK NXT FCST BY 310900Z=
201701310838 TAF CYOW 310838Z 3109/0106 VRB03KT P6SM SKC
                      BECMG 3110/3112 07005KT FM312300 07008KT
                       P6SM BKN040 BKN190 RMK NXT FCST BY 311200Z=
201701311039 TAF AMD CYOW 311039Z 3110/0106 08005KT P6SM SKC
                      TEMPO 3110/3114 2SM BR OVC002 FM312300 07008KT
                       P6SM BKN040 BKN190 RMK NXT FCST BY 311200Z=
201701311139 TAF CYOW 311139Z 3112/0112 06005KT 5SM BR BKN003
                      BECMG 3112/3114 P6SM NSW SKC FM312300 06008KT
                       P6SM BKN040 BKN190 FM010600 06007KT 3SM
                       -SN BKN020 FM010800 06006KT 11/2SM -SN OVC015
                       RMK NXT FCST BY 311500Z=
201701311439 TAF CYOW 311439Z 3115/0112 07005KT P6SM FEW020
                      BECMG 3116/3118 07010KT FM312300 06008KT
                       P6SM BKN040 BKN190 FM010600 06007KT 3SM
                       -SN BKN020 FM010800 06006KT 11/2SM -SN OVC015
                       RMK NXT FCST BY 311800Z=
201701311739 TAF CYOW 311739Z 3118/0118 07010KT P6SM FEW020 FM312300 06008KT
                       P6SM BKN040 BKN190 FM010600 06007KT 3SM
                       -SN BKN020 OVC040 FM010800 06006KT 11/2SM
                       -SN OVC008 FM011200 06008KT 5SM -SN BKN008
                       OVC015 FM011500 VRB03KT P6SM -SN OVC012
                       RMK NXT FCST BY 312100Z=
201701312039 TAF CYOW 312039Z 3121/0118 05010KT P6SM FEW160 FM312300 06008KT
                       P6SM BKN040 BKN190 FM010600 06007KT 3SM
                       -SN BKN020 OVC040 FM010800 06006KT 11/2SM
                       -SN OVC008 FM011200 06008KT 5SM -SN BKN008
                       OVC015 FM011500 VRB03KT P6SM -SN OVC012
                       RMK NXT FCST BY 010000Z=
201701312338 TAF CYOW 312338Z 0100/0124 06008KT P6SM BKN050 FM010600 06007KT
                       3SM -SN BKN020 OVC040 FM010800 06006KT 11/2SM
                       -SN OVC008 FM011200 06008KT 5SM -SN BKN008
                       OVC015 FM011500 VRB03KT P6SM -SN OVC012
                       RMK NXT FCST BY 010300Z=

</pre>

</body>
</html>
