201701312338 TAF CYOW 312338Z 0100/0124 06008KT P6SM BKN050 FM010600 06007KT
                       3SM -SN BKN020 OVC040 FM010800 06006KT 11/2SM
                       -SN OVC008 FM011200 06008KT 5SM -SN BKN008
                       OVC015 FM011500 VRB03KT P6SM -SN OVC012
                       RMK NXT FCST BY 010300Z=


